County,State,Lat,Long,Location
Abbeville,South Carolina,34.22333378,-82.46170658,"Abbeville, South Carolina"
Acadia,Louisiana,30.2950649,-92.41419698,"Acadia, Louisiana"
Accomack,Virginia,37.76707161,-75.63234615,"Accomack, Virginia"
Ada,Idaho,43.4526575,-116.2415516,"Ada, Idaho"
Adair,Iowa,41.33075609,-94.47105874,"Adair, Iowa"
Adair,Kentucky,37.10459774,-85.28129668,"Adair, Kentucky"
Adair,Missouri,40.19058551,-92.60078167,"Adair, Missouri"
Adair,Oklahoma,35.88494195,-94.65859267,"Adair, Oklahoma"
Adams,Colorado,39.87432092,-104.3362578,"Adams, Colorado"
Adams,Idaho,44.89333571,-116.4545247,"Adams, Idaho"
Adams,Illinois,39.98815591,-91.18786813,"Adams, Illinois"
Adams,Indiana,40.7457653,-84.93671406,"Adams, Indiana"
Adams,Iowa,41.02903567,-94.69932645,"Adams, Iowa"
Adams,Mississippi,31.47669768,-91.35326037,"Adams, Mississippi"
Adams,Nebraska,40.5244942,-98.50117804,"Adams, Nebraska"
Adams,North Dakota,46.09686891,-102.5285397,"Adams, North Dakota"
Adams,Ohio,38.84541072,-83.4718964,"Adams, Ohio"
Adams,Pennsylvania,39.87140411,-77.21610347,"Adams, Pennsylvania"
Adams,Washington,46.98299757,-118.5601734,"Adams, Washington"
Adams,Wisconsin,43.96974651,-89.76782777,"Adams, Wisconsin"
Addison,Vermont,44.03217337,-73.14130877,"Addison, Vermont"
Aiken,South Carolina,33.54338026,-81.63645384,"Aiken, South Carolina"
Aitkin,Minnesota,46.60962049,-93.4116826,"Aitkin, Minnesota"
Alachua,Florida,29.67866525,-82.35928158,"Alachua, Florida"
Alamance,North Carolina,36.0434701,-79.39976137,"Alamance, North Carolina"
Alameda,California,37.64629437,-121.8929271,"Alameda, California"
Alamosa,Colorado,37.57250606,-105.7885451,"Alamosa, Colorado"
Albany,New York,42.60060306,-73.97723916,"Albany, New York"
Albany,Wyoming,41.65498705,-105.7235415,"Albany, Wyoming"
Albemarle,Virginia,38.02080697,-78.55481085,"Albemarle, Virginia"
Alcona,Michigan,44.6846864,-83.59507875,"Alcona, Michigan"
Alcorn,Mississippi,34.88084463,-88.57996173,"Alcorn, Mississippi"
Aleutians East,Alaska,55.32222414,-161.9722021,"Aleutians East, Alaska"
Aleutians West,Alaska,52.72541116,-110.4086433,"Aleutians West, Alaska"
Alexander,Illinois,37.18049267,-89.32910838,"Alexander, Illinois"
Alexander,North Carolina,35.9223796,-81.17751948,"Alexander, North Carolina"
Alexandria,Virginia,38.814003,-77.08183073,"Alexandria, Virginia"
Alfalfa,Oklahoma,36.73090616,-98.32408495,"Alfalfa, Oklahoma"
Alger,Michigan,46.41292944,-86.60260122,"Alger, Michigan"
Allamakee,Iowa,43.28383218,-91.37860922,"Allamakee, Iowa"
Allegan,Michigan,42.59147037,-85.89102866,"Allegan, Michigan"
Allegany,Maryland,39.62357628,-78.69280486,"Allegany, Maryland"
Allegany,New York,42.25748406,-78.02750466,"Allegany, New York"
Alleghany,North Carolina,36.49360862,-81.12857041,"Alleghany, North Carolina"
Alleghany,Virginia,37.78636074,-80.00222498,"Alleghany, Virginia"
Allegheny,Pennsylvania,40.46809875,-79.98167747,"Allegheny, Pennsylvania"
Allen,Indiana,41.09194313,-85.06800636,"Allen, Indiana"
Allen,Kansas,37.88582951,-95.30030847,"Allen, Kansas"
Allen,Kentucky,36.75197631,-86.19457544,"Allen, Kentucky"
Allen,Louisiana,30.65385745,-92.82442028,"Allen, Louisiana"
Allen,Ohio,40.77285242,-84.10802343,"Allen, Ohio"
Allendale,South Carolina,32.98837386,-81.35321066,"Allendale, South Carolina"
Alpena,Michigan,45.03477666,-83.62212411,"Alpena, Michigan"
Alpine,California,38.59678594,-119.8223594,"Alpine, California"
Amador,California,38.44583082,-120.65696,"Amador, California"
Amelia,Virginia,37.34081025,-77.98584649,"Amelia, Virginia"
Amherst,Virginia,37.60308293,-79.14548696,"Amherst, Virginia"
Amite,Mississippi,31.17467303,-90.80501621,"Amite, Mississippi"
Anchorage,Alaska,61.14998174,-149.1426986,"Anchorage, Alaska"
Anderson,Kansas,38.21413251,-95.29272815,"Anderson, Kansas"
Anderson,Kentucky,38.00671029,-84.99171713,"Anderson, Kentucky"
Anderson,South Carolina,34.51828081,-82.63959517,"Anderson, South Carolina"
Anderson,Tennessee,36.12684348,-84.19965764,"Anderson, Tennessee"
Anderson,Texas,31.81534745,-95.65354823,"Anderson, Texas"
Andrew,Missouri,39.98492163,-94.80163024,"Andrew, Missouri"
Andrews,Texas,32.30468633,-102.6376548,"Andrews, Texas"
Androscoggin,Maine,44.1664747,-70.20380627,"Androscoggin, Maine"
Angelina,Texas,31.25457347,-94.60901487,"Angelina, Texas"
Anne Arundel,Maryland,39.00670238,-76.60329337,"Anne Arundel, Maryland"
Anoka,Minnesota,45.27476015,-93.24604565,"Anoka, Minnesota"
Anson,North Carolina,34.97403241,-80.09953279,"Anson, North Carolina"
Antelope,Nebraska,42.17695516,-98.0666283,"Antelope, Nebraska"
Antrim,Michigan,44.99690221,-85.15503082,"Antrim, Michigan"
Apache,Arizona,35.39465006,-109.4892383,"Apache, Arizona"
Appanoose,Iowa,40.74324454,-92.86865906,"Appanoose, Iowa"
Appling,Georgia,31.74847232,-82.28909114,"Appling, Georgia"
Appomattox,Virginia,37.37569884,-78.81340003,"Appomattox, Virginia"
Aransas,Texas,28.10556197,-96.9995047,"Aransas, Texas"
Arapahoe,Colorado,39.64977461,-104.3353617,"Arapahoe, Colorado"
Archer,Texas,33.61569967,-98.68754589,"Archer, Texas"
Archuleta,Colorado,37.19474156,-107.0476867,"Archuleta, Colorado"
Arenac,Michigan,44.0636262,-83.89277559,"Arenac, Michigan"
Arkansas,Arkansas,34.29145151,-91.37277296,"Arkansas, Arkansas"
Arlington,Virginia,38.8767675,-77.10139853,"Arlington, Virginia"
Armstrong,Pennsylvania,40.81665618,-79.46290811,"Armstrong, Pennsylvania"
Armstrong,Texas,34.96507426,-101.3574874,"Armstrong, Texas"
Aroostook,Maine,46.65926321,-68.59841248,"Aroostook, Maine"
Arthur,Nebraska,41.56896142,-101.6959559,"Arthur, Nebraska"
Ascension,Louisiana,30.20406249,-90.9132841,"Ascension, Louisiana"
Ashe,North Carolina,36.43296207,-81.49862729,"Ashe, North Carolina"
Ashland,Ohio,40.84772277,-82.27280781,"Ashland, Ohio"
Ashland,Wisconsin,46.31956891,-90.67837132,"Ashland, Wisconsin"
Ashley,Arkansas,33.19153461,-91.7698471,"Ashley, Arkansas"
Ashtabula,Ohio,41.70860332,-80.74830218,"Ashtabula, Ohio"
Asotin,Washington,46.18894415,-117.2022851,"Asotin, Washington"
Assumption,Louisiana,29.89946234,-91.06461642,"Assumption, Louisiana"
Atascosa,Texas,28.89333001,-98.52730485,"Atascosa, Texas"
Atchison,Kansas,39.53185661,-95.30870026,"Atchison, Kansas"
Atchison,Missouri,40.43238737,-95.42970639,"Atchison, Missouri"
Athens,Ohio,39.33425634,-82.04278644,"Athens, Ohio"
Atkinson,Georgia,31.29633502,-82.87545866,"Atkinson, Georgia"
Atlantic,New Jersey,39.47538693,-74.65848483,"Atlantic, New Jersey"
Atoka,Oklahoma,34.37366573,-96.03802487,"Atoka, Oklahoma"
Attala,Mississippi,33.08658803,-89.57838564,"Attala, Mississippi"
Audrain,Missouri,39.215877,-91.84242683,"Audrain, Missouri"
Audubon,Iowa,41.6844628,-94.90581859,"Audubon, Iowa"
Auglaize,Ohio,40.55998859,-84.2242143,"Auglaize, Ohio"
Augusta,Virginia,38.16404586,-79.12461614,"Augusta, Virginia"
Aurora,South Dakota,43.71757685,-98.56050467,"Aurora, South Dakota"
Austin,Texas,29.88548725,-96.27736949,"Austin, Texas"
Autauga,Alabama,32.53952745,-86.64408227,"Autauga, Alabama"
Avery,North Carolina,36.07569796,-81.92308483,"Avery, North Carolina"
Avoyelles,Louisiana,31.07796211,-92.00079449,"Avoyelles, Louisiana"
Baca,Colorado,37.31940883,-102.5603223,"Baca, Colorado"
Bacon,Georgia,31.55456473,-82.45936528,"Bacon, Georgia"
Bailey,Texas,34.06854817,-102.8299707,"Bailey, Texas"
Baker,Florida,30.33060121,-82.28467476,"Baker, Florida"
Baker,Georgia,31.32669878,-84.44218806,"Baker, Georgia"
Baker,Oregon,44.70915557,-117.6749883,"Baker, Oregon"
Baldwin,Alabama,30.72774991,-87.72207058,"Baldwin, Alabama"
Baldwin,Georgia,33.06882326,-83.24701748,"Baldwin, Georgia"
Ballard,Kentucky,37.05842757,-88.99427697,"Ballard, Kentucky"
Baltimore,Maryland,39.45784712,-76.62911955,"Baltimore, Maryland"
Baltimore City,Maryland,39.30211911,-76.61151012,"Baltimore City, Maryland"
Bamberg,South Carolina,33.21927586,-81.05659969,"Bamberg, South Carolina"
Bandera,Texas,29.74619598,-99.24598147,"Bandera, Texas"
Banks,Georgia,34.35607081,-83.49644388,"Banks, Georgia"
Banner,Nebraska,41.54634427,-103.7114332,"Banner, Nebraska"
Bannock,Idaho,42.67002716,-112.2233311,"Bannock, Idaho"
Baraga,Michigan,46.6720582,-88.36363591,"Baraga, Michigan"
Barber,Kansas,37.2288586,-98.68460053,"Barber, Kansas"
Barbour,Alabama,31.868263,-85.3871286,"Barbour, Alabama"
Barbour,West Virginia,39.1307219,-80.00350858,"Barbour, West Virginia"
Barnes,North Dakota,46.93579637,-98.06605978,"Barnes, North Dakota"
Barnstable,Massachusetts,41.72980578,-70.28854339,"Barnstable, Massachusetts"
Barnwell,South Carolina,33.26679302,-81.43584352,"Barnwell, South Carolina"
Barren,Kentucky,36.96469836,-85.93338945,"Barren, Kentucky"
Barron,Wisconsin,45.42372701,-91.84833627,"Barron, Wisconsin"
Barrow,Georgia,33.99148694,-83.71436292,"Barrow, Georgia"
Barry,Michigan,42.59513984,-85.30834519,"Barry, Michigan"
Barry,Missouri,36.70978521,-93.82919888,"Barry, Missouri"
Bartholomew,Indiana,39.20744865,-85.89558181,"Bartholomew, Indiana"
Barton,Kansas,38.47889676,-98.75636726,"Barton, Kansas"
Barton,Missouri,37.50207671,-94.34757022,"Barton, Missouri"
Bartow,Georgia,34.23732119,-84.83887523,"Bartow, Georgia"
Bastrop,Texas,30.10370699,-97.31206354,"Bastrop, Texas"
Bates,Missouri,38.25271289,-94.34113157,"Bates, Missouri"
Bath,Kentucky,38.14735938,-83.74588932,"Bath, Kentucky"
Bath,Virginia,38.05852573,-79.73912095,"Bath, Virginia"
Baxter,Arkansas,36.28784385,-92.33782872,"Baxter, Arkansas"
Bay,Florida,30.26548745,-85.62122584,"Bay, Florida"
Bay,Michigan,43.70639106,-83.98731479,"Bay, Michigan"
Bayfield,Wisconsin,46.52868768,-91.19716729,"Bayfield, Wisconsin"
Baylor,Texas,33.61640794,-99.21352901,"Baylor, Texas"
Beadle,South Dakota,44.41464384,-98.27858469,"Beadle, South Dakota"
Bear Lake,Idaho,42.28269683,-111.3289238,"Bear Lake, Idaho"
Beaufort,North Carolina,35.48531943,-76.84325809,"Beaufort, North Carolina"
Beaufort,South Carolina,32.39226291,-80.72619758,"Beaufort, South Carolina"
Beauregard,Louisiana,30.64836518,-93.34173616,"Beauregard, Louisiana"
Beaver,Oklahoma,36.7496847,-100.4758872,"Beaver, Oklahoma"
Beaver,Pennsylvania,40.6825484,-80.34921611,"Beaver, Pennsylvania"
Beaver,Utah,38.35657051,-113.2342232,"Beaver, Utah"
Beaverhead,Montana,45.13434354,-112.8984694,"Beaverhead, Montana"
Becker,Minnesota,46.93479392,-95.67158144,"Becker, Minnesota"
Beckham,Oklahoma,35.26862449,-99.68128023,"Beckham, Oklahoma"
Bedford,Pennsylvania,40.00522157,-78.48998442,"Bedford, Pennsylvania"
Bedford,Tennessee,35.51123746,-86.45549096,"Bedford, Tennessee"
Bedford,Virginia,37.3080028,-79.5281964,"Bedford, Virginia"
Bee,Texas,28.41761668,-97.74215593,"Bee, Texas"
Belknap,New Hampshire,43.51637314,-71.41684235,"Belknap, New Hampshire"
Bell,Kentucky,36.73355174,-83.67766671,"Bell, Kentucky"
Bell,Texas,31.03736027,-97.4785025,"Bell, Texas"
Belmont,Ohio,40.01625942,-80.9924051,"Belmont, Ohio"
Beltrami,Minnesota,47.97373527,-94.93732139,"Beltrami, Minnesota"
Ben Hill,Georgia,31.76095874,-83.22145359,"Ben Hill, Georgia"
Benewah,Idaho,47.21754179,-116.6586851,"Benewah, Idaho"
Bennett,South Dakota,43.19486375,-101.6665572,"Bennett, South Dakota"
Bennington,Vermont,43.03519828,-73.09048868,"Bennington, Vermont"
Benson,North Dakota,48.0683985,-99.35916363,"Benson, North Dakota"
Bent,Colorado,37.95474293,-103.0720195,"Bent, Colorado"
Benton,Arkansas,36.33644656,-94.25680817,"Benton, Arkansas"
Benton,Indiana,40.60626947,-87.31093999,"Benton, Indiana"
Benton,Iowa,42.08011739,-92.06463573,"Benton, Iowa"
Benton,Minnesota,45.69804958,-93.99514135,"Benton, Minnesota"
Benton,Mississippi,34.81681228,-89.18945516,"Benton, Mississippi"
Benton,Missouri,38.29503305,-93.28756116,"Benton, Missouri"
Benton,Oregon,44.49167306,-123.4316987,"Benton, Oregon"
Benton,Tennessee,36.07110411,-88.06849355,"Benton, Tennessee"
Benton,Washington,46.23946995,-119.5120834,"Benton, Washington"
Benzie,Michigan,44.63899297,-86.01608482,"Benzie, Michigan"
Bergen,New Jersey,40.96010917,-74.07164325,"Bergen, New Jersey"
Berkeley,South Carolina,33.20222596,-79.94654523,"Berkeley, South Carolina"
Berkeley,West Virginia,39.46704621,-78.02414609,"Berkeley, West Virginia"
Berks,Pennsylvania,40.41570541,-75.92457766,"Berks, Pennsylvania"
Berkshire,Massachusetts,42.37428441,-73.20524838,"Berkshire, Massachusetts"
Bernalillo,New Mexico,35.05163625,-106.6703554,"Bernalillo, New Mexico"
Berrien,Georgia,31.27590016,-83.2252992,"Berrien, Georgia"
Berrien,Michigan,41.95447397,-86.4131308,"Berrien, Michigan"
Bertie,North Carolina,36.0688473,-76.96545943,"Bertie, North Carolina"
Bethel,Alaska,60.90980451,-159.8561831,"Bethel, Alaska"
Bexar,Texas,29.44928723,-98.52019748,"Bexar, Texas"
Bibb,Alabama,32.99642064,-87.1251146,"Bibb, Alabama"
Bibb,Georgia,32.80904227,-83.70489165,"Bibb, Georgia"
Bienville,Louisiana,32.34569994,-93.05398492,"Bienville, Louisiana"
Big Horn,Montana,45.42335905,-107.492347,"Big Horn, Montana"
Big Horn,Wyoming,44.52405055,-107.9960365,"Big Horn, Wyoming"
Big Stone,Minnesota,45.42712824,-96.41403739,"Big Stone, Minnesota"
Billings,North Dakota,47.02366884,-103.3762965,"Billings, North Dakota"
Bingham,Idaho,43.2167288,-112.3978437,"Bingham, Idaho"
Black Hawk,Iowa,42.4704581,-92.30524729,"Black Hawk, Iowa"
Blackford,Indiana,40.47388153,-85.32499702,"Blackford, Indiana"
Bladen,North Carolina,34.61296243,-78.56180059,"Bladen, North Carolina"
Blaine,Idaho,43.4085812,-113.9752658,"Blaine, Idaho"
Blaine,Montana,48.43175214,-108.9582723,"Blaine, Montana"
Blaine,Nebraska,41.91311716,-99.97677845,"Blaine, Nebraska"
Blaine,Oklahoma,35.87518314,-98.43307003,"Blaine, Oklahoma"
Blair,Pennsylvania,40.47961444,-78.34917412,"Blair, Pennsylvania"
Blanco,Texas,30.26640707,-98.3999852,"Blanco, Texas"
Bland,Virginia,37.13128068,-81.13599391,"Bland, Virginia"
Bleckley,Georgia,32.43829035,-83.33035166,"Bleckley, Georgia"
Bledsoe,Tennessee,35.59942968,-85.20611967,"Bledsoe, Tennessee"
Blount,Alabama,33.98210918,-86.56790593,"Blount, Alabama"
Blount,Tennessee,35.68938198,-83.92847788,"Blount, Tennessee"
Blue Earth,Minnesota,44.03554215,-94.06699781,"Blue Earth, Minnesota"
Boise,Idaho,43.98829931,-115.7309284,"Boise, Idaho"
Bolivar,Mississippi,33.79696941,-90.87372121,"Bolivar, Mississippi"
Bollinger,Missouri,37.32449052,-90.02725304,"Bollinger, Missouri"
Bon Homme,South Dakota,42.98914167,-97.88592746,"Bon Homme, South Dakota"
Bond,Illinois,38.88829622,-89.43534887,"Bond, Illinois"
Bonner,Idaho,48.29996017,-116.6017932,"Bonner, Idaho"
Bonneville,Idaho,43.38713372,-111.6161537,"Bonneville, Idaho"
Boone,Arkansas,36.3084504,-93.09374925,"Boone, Arkansas"
Boone,Illinois,42.32359279,-88.82345779,"Boone, Illinois"
Boone,Indiana,40.0509304,-86.46841646,"Boone, Indiana"
Boone,Iowa,42.03657094,-93.9313999,"Boone, Iowa"
Boone,Kentucky,38.97065142,-84.72615357,"Boone, Kentucky"
Boone,Missouri,38.99186229,-92.30723575,"Boone, Missouri"
Boone,Nebraska,41.70759415,-98.06737183,"Boone, Nebraska"
Boone,West Virginia,38.01974191,-81.69888019,"Boone, West Virginia"
Borden,Texas,32.74363984,-101.4316509,"Borden, Texas"
Bosque,Texas,31.89978581,-97.63613524,"Bosque, Texas"
Bossier,Louisiana,32.67932307,-93.60460152,"Bossier, Louisiana"
Botetourt,Virginia,37.55531756,-79.80982182,"Botetourt, Virginia"
Bottineau,North Dakota,48.79106111,-100.8378166,"Bottineau, North Dakota"
Boulder,Colorado,40.09313619,-105.3546767,"Boulder, Colorado"
Boundary,Idaho,48.76684761,-116.4630179,"Boundary, Idaho"
Bourbon,Kansas,37.85508555,-94.84865997,"Bourbon, Kansas"
Bourbon,Kentucky,38.2054607,-84.21827874,"Bourbon, Kentucky"
Bowie,Texas,33.44626922,-94.41834132,"Bowie, Texas"
Bowman,North Dakota,46.11285362,-103.5203343,"Bowman, North Dakota"
Box Butte,Nebraska,42.22079243,-103.0878834,"Box Butte, Nebraska"
Box Elder,Utah,41.52106798,-113.0832816,"Box Elder, Utah"
Boyd,Kentucky,38.36176608,-82.68652187,"Boyd, Kentucky"
Boyd,Nebraska,42.8997274,-98.76486568,"Boyd, Nebraska"
Boyle,Kentucky,37.62680923,-84.8633779,"Boyle, Kentucky"
Bracken,Kentucky,38.69158994,-84.08532444,"Bracken, Kentucky"
Bradford,Florida,29.95079741,-82.16611613,"Bradford, Florida"
Bradford,Pennsylvania,41.78869215,-76.51570822,"Bradford, Pennsylvania"
Bradley,Arkansas,33.46755808,-92.15980837,"Bradley, Arkansas"
Bradley,Tennessee,35.15739424,-84.857186,"Bradley, Tennessee"
Branch,Michigan,41.91600556,-85.05929476,"Branch, Michigan"
Brantley,Georgia,31.19576557,-81.97743999,"Brantley, Georgia"
Braxton,West Virginia,38.70036159,-80.72011184,"Braxton, West Virginia"
Brazoria,Texas,29.18757369,-95.44563172,"Brazoria, Texas"
Brazos,Texas,30.6636448,-96.30205577,"Brazos, Texas"
Breathitt,Kentucky,37.52333168,-83.31959161,"Breathitt, Kentucky"
Breckinridge,Kentucky,37.77377239,-86.42885017,"Breckinridge, Kentucky"
Bremer,Iowa,42.77461496,-92.31795937,"Bremer, Iowa"
Brevard,Florida,28.29409504,-80.73091022,"Brevard, Florida"
Brewster,Texas,29.81008251,-103.2520326,"Brewster, Texas"
Briscoe,Texas,34.53026962,-101.2084947,"Briscoe, Texas"
Bristol,Massachusetts,41.79228404,-71.10872211,"Bristol, Massachusetts"
Bristol,Rhode Island,41.71018079,-71.28652315,"Bristol, Rhode Island"
Bristol,Virginia,36.6163024,-82.16359122,"Bristol, Virginia"
Bristol Bay,Alaska,58.74513976,-156.701064,"Bristol Bay, Alaska"
Broadwater,Montana,46.33277565,-111.4955813,"Broadwater, Montana"
Bronx,New York,40.85209301,-73.86282755,"Bronx, New York"
Brooke,West Virginia,40.27367263,-80.57915332,"Brooke, West Virginia"
Brookings,South Dakota,44.36974375,-96.79079945,"Brookings, South Dakota"
Brooks,Georgia,30.83922642,-83.58303423,"Brooks, Georgia"
Brooks,Texas,27.03103197,-98.21808402,"Brooks, Texas"
Broome,New York,42.15903158,-75.81326086,"Broome, New York"
Broomfield,Colorado,39.95998787,-105.0566324,"Broomfield, Colorado"
Broward,Florida,26.15184651,-80.48725556,"Broward, Florida"
Brown,Illinois,39.96209138,-90.75068024,"Brown, Illinois"
Brown,Indiana,39.19605589,-86.22868909,"Brown, Indiana"
Brown,Kansas,39.82652589,-95.56421698,"Brown, Kansas"
Brown,Minnesota,44.24205652,-94.72562874,"Brown, Minnesota"
Brown,Nebraska,42.43018907,-99.92904055,"Brown, Nebraska"
Brown,Ohio,38.93416837,-83.86788395,"Brown, Ohio"
Brown,South Dakota,45.58994323,-98.35165355,"Brown, South Dakota"
Brown,Texas,31.77430356,-98.99907113,"Brown, Texas"
Brown,Wisconsin,44.4526553,-88.00411844,"Brown, Wisconsin"
Brule,South Dakota,43.71756379,-99.08118954,"Brule, South Dakota"
Brunswick,North Carolina,34.070565,-78.22814204,"Brunswick, North Carolina"
Brunswick,Virginia,36.76366949,-77.8593436,"Brunswick, Virginia"
Bryan,Georgia,32.00979311,-81.44002948,"Bryan, Georgia"
Bryan,Oklahoma,33.96472458,-96.25903472,"Bryan, Oklahoma"
Buchanan,Iowa,42.4709188,-91.83510825,"Buchanan, Iowa"
Buchanan,Missouri,39.65816401,-94.80138942,"Buchanan, Missouri"
Buchanan,Virginia,37.26818323,-82.03749726,"Buchanan, Virginia"
Buckingham,Virginia,37.57242268,-78.52518834,"Buckingham, Virginia"
Bucks,Pennsylvania,40.33682119,-75.10836643,"Bucks, Pennsylvania"
Buena Vista,Iowa,42.73545875,-95.15100162,"Buena Vista, Iowa"
Buena Vista,Virginia,37.73484642,-79.35296097,"Buena Vista, Virginia"
Buffalo,Nebraska,40.85486962,-99.07500296,"Buffalo, Nebraska"
Buffalo,South Dakota,44.07657829,-99.20814467,"Buffalo, South Dakota"
Buffalo,Wisconsin,44.37835084,-91.75332578,"Buffalo, Wisconsin"
Bullitt,Kentucky,37.97162523,-85.68955617,"Bullitt, Kentucky"
Bulloch,Georgia,32.39577406,-81.74811421,"Bulloch, Georgia"
Bullock,Alabama,32.10030533,-85.71265535,"Bullock, Alabama"
Buncombe,North Carolina,35.61113393,-82.53305,"Buncombe, North Carolina"
Bureau,Illinois,41.40385234,-89.5283051,"Bureau, Illinois"
Burke,Georgia,33.05917989,-81.99928721,"Burke, Georgia"
Burke,North Carolina,35.74989637,-81.70755735,"Burke, North Carolina"
Burke,North Dakota,48.79094471,-102.5182117,"Burke, North Dakota"
Burleigh,North Dakota,46.97847375,-100.4645214,"Burleigh, North Dakota"
Burleson,Texas,30.49273808,-96.62158484,"Burleson, Texas"
Burlington,New Jersey,39.87681124,-74.66927768,"Burlington, New Jersey"
Burnet,Texas,30.78801353,-98.181887,"Burnet, Texas"
Burnett,Wisconsin,45.86303537,-92.36711412,"Burnett, Wisconsin"
Burt,Nebraska,41.85056773,-96.32605633,"Burt, Nebraska"
Butler,Alabama,31.75300095,-86.68057478,"Butler, Alabama"
Butler,Iowa,42.73172833,-92.79015971,"Butler, Iowa"
Butler,Kansas,37.78134351,-96.83878537,"Butler, Kansas"
Butler,Kentucky,37.20946153,-86.68748787,"Butler, Kentucky"
Butler,Missouri,36.71462476,-90.40421163,"Butler, Missouri"
Butler,Nebraska,41.22703692,-97.13106306,"Butler, Nebraska"
Butler,Ohio,39.44012838,-84.57388716,"Butler, Ohio"
Butler,Pennsylvania,40.91152759,-79.91351055,"Butler, Pennsylvania"
Butte,California,39.66727762,-121.6005252,"Butte, California"
Butte,Idaho,43.72592209,-113.1735463,"Butte, Idaho"
Butte,South Dakota,44.90608745,-103.5079318,"Butte, South Dakota"
Butts,Georgia,33.2830945,-83.9543504,"Butts, Georgia"
Cabarrus,North Carolina,35.3877799,-80.55267168,"Cabarrus, North Carolina"
Cabell,West Virginia,38.42424062,-82.23855912,"Cabell, West Virginia"
Cache,Utah,41.72330587,-111.7443667,"Cache, Utah"
Caddo,Louisiana,32.57991587,-93.88375652,"Caddo, Louisiana"
Caddo,Oklahoma,35.17364557,-98.37534464,"Caddo, Oklahoma"
Calaveras,California,38.20537103,-120.552913,"Calaveras, California"
Calcasieu,Louisiana,30.22931235,-93.35400434,"Calcasieu, Louisiana"
Caldwell,Kentucky,37.14749129,-87.86948214,"Caldwell, Kentucky"
Caldwell,Louisiana,32.0902519,-92.11752148,"Caldwell, Louisiana"
Caldwell,Missouri,39.65620858,-93.98308093,"Caldwell, Missouri"
Caldwell,North Carolina,35.95204977,-81.54799522,"Caldwell, North Carolina"
Caldwell,Texas,29.83668859,-97.61814775,"Caldwell, Texas"
Caledonia,Vermont,44.46548598,-72.10314651,"Caledonia, Vermont"
Calhoun,Alabama,33.77483727,-85.82630386,"Calhoun, Alabama"
Calhoun,Arkansas,33.55598792,-92.49974403,"Calhoun, Arkansas"
Calhoun,Florida,30.40666734,-85.19394153,"Calhoun, Florida"
Calhoun,Georgia,31.53169785,-84.62725131,"Calhoun, Georgia"
Calhoun,Illinois,39.16840183,-90.66330078,"Calhoun, Illinois"
Calhoun,Iowa,42.38521079,-94.64046046,"Calhoun, Iowa"
Calhoun,Michigan,42.24633834,-85.00493569,"Calhoun, Michigan"
Calhoun,Mississippi,33.93683395,-89.33686647,"Calhoun, Mississippi"
Calhoun,South Carolina,33.66926881,-80.77722168,"Calhoun, South Carolina"
Calhoun,Texas,28.47048236,-96.61633945,"Calhoun, Texas"
Calhoun,West Virginia,38.84315422,-81.11934872,"Calhoun, West Virginia"
Callahan,Texas,32.29760619,-99.37326312,"Callahan, Texas"
Callaway,Missouri,38.83674754,-91.92186505,"Callaway, Missouri"
Calloway,Kentucky,36.62093411,-88.2731593,"Calloway, Kentucky"
Calumet,Wisconsin,44.0816316,-88.21780273,"Calumet, Wisconsin"
Calvert,Maryland,38.53961642,-76.56820632,"Calvert, Maryland"
Camas,Idaho,43.46665742,-114.8065892,"Camas, Idaho"
Cambria,Pennsylvania,40.49527404,-78.71377428,"Cambria, Pennsylvania"
Camden,Georgia,30.92951916,-81.66601818,"Camden, Georgia"
Camden,Missouri,38.02199522,-92.76083747,"Camden, Missouri"
Camden,New Jersey,39.80343818,-74.96388753,"Camden, New Jersey"
Camden,North Carolina,36.33804939,-76.15568396,"Camden, North Carolina"
Cameron,Louisiana,29.87592238,-93.19310676,"Cameron, Louisiana"
Cameron,Pennsylvania,41.43625568,-78.20376845,"Cameron, Pennsylvania"
Cameron,Texas,26.14524221,-97.48140372,"Cameron, Texas"
Camp,Texas,32.97195142,-94.97790104,"Camp, Texas"
Campbell,Kentucky,38.94384345,-84.37875208,"Campbell, Kentucky"
Campbell,South Dakota,45.77074915,-100.0510181,"Campbell, South Dakota"
Campbell,Tennessee,36.40355516,-84.1510856,"Campbell, Tennessee"
Campbell,Virginia,37.20553386,-79.09678609,"Campbell, Virginia"
Campbell,Wyoming,44.24886082,-105.5474404,"Campbell, Wyoming"
Canadian,Oklahoma,35.5426055,-97.98465569,"Canadian, Oklahoma"
Candler,Georgia,32.40209349,-82.07702563,"Candler, Georgia"
Cannon,Tennessee,35.80990797,-86.05738983,"Cannon, Tennessee"
Canyon,Idaho,43.61970148,-116.7095499,"Canyon, Idaho"
Cape Girardeau,Missouri,37.38489388,-89.6843587,"Cape Girardeau, Missouri"
Cape May,New Jersey,39.15008829,-74.80170244,"Cape May, New Jersey"
Carbon,Montana,45.22850116,-109.0274047,"Carbon, Montana"
Carbon,Pennsylvania,40.91545395,-75.7068525,"Carbon, Pennsylvania"
Carbon,Utah,39.64834818,-110.5872512,"Carbon, Utah"
Carbon,Wyoming,41.69357844,-106.9326084,"Carbon, Wyoming"
Caribou,Idaho,42.77149116,-111.5597683,"Caribou, Idaho"
Carlisle,Kentucky,36.85372876,-88.9669222,"Carlisle, Kentucky"
Carlton,Minnesota,46.59180601,-92.67601019,"Carlton, Minnesota"
Caroline,Maryland,38.87172293,-75.82904158,"Caroline, Maryland"
Caroline,Virginia,38.02679129,-77.34901405,"Caroline, Virginia"
Carroll,Arkansas,36.3403856,-93.54270261,"Carroll, Arkansas"
Carroll,Georgia,33.58138199,-85.07976677,"Carroll, Georgia"
Carroll,Illinois,42.06823429,-89.93395545,"Carroll, Illinois"
Carroll,Indiana,40.5807832,-86.56198812,"Carroll, Indiana"
Carroll,Iowa,42.03617207,-94.86032705,"Carroll, Iowa"
Carroll,Kentucky,38.66599534,-85.12601074,"Carroll, Kentucky"
Carroll,Maryland,39.56453592,-77.02373735,"Carroll, Maryland"
Carroll,Mississippi,33.44834567,-89.91994479,"Carroll, Mississippi"
Carroll,Missouri,39.42762566,-93.50626255,"Carroll, Missouri"
Carroll,New Hampshire,43.87498583,-71.20430216,"Carroll, New Hampshire"
Carroll,Ohio,40.5789686,-81.09178213,"Carroll, Ohio"
Carroll,Tennessee,35.97366108,-88.45189331,"Carroll, Tennessee"
Carroll,Virginia,36.73066666,-80.73455942,"Carroll, Virginia"
Carson,Texas,35.40365929,-101.3542669,"Carson, Texas"
Carson City,Nevada,39.15509045,-119.7480219,"Carson City, Nevada"
Carter,Kentucky,38.31690743,-83.05092385,"Carter, Kentucky"
Carter,Missouri,36.94160441,-90.96051322,"Carter, Missouri"
Carter,Montana,45.5197966,-104.5395536,"Carter, Montana"
Carter,Oklahoma,34.25103751,-97.28552485,"Carter, Oklahoma"
Carter,Tennessee,36.28969086,-82.12588974,"Carter, Tennessee"
Carteret,North Carolina,34.8932941,-76.54120135,"Carteret, North Carolina"
Carver,Minnesota,44.82017001,-93.8009918,"Carver, Minnesota"
Cascade,Montana,47.30797024,-111.3467922,"Cascade, Montana"
Casey,Kentucky,37.32533118,-84.92726209,"Casey, Kentucky"
Cass,Illinois,39.96991073,-90.24734436,"Cass, Illinois"
Cass,Indiana,40.76135835,-86.34830753,"Cass, Indiana"
Cass,Iowa,41.33149454,-94.92792482,"Cass, Iowa"
Cass,Michigan,41.91522292,-85.99405727,"Cass, Michigan"
Cass,Minnesota,46.95043611,-94.32603968,"Cass, Minnesota"
Cass,Missouri,38.64789422,-94.353399,"Cass, Missouri"
Cass,Nebraska,40.90899107,-96.13971217,"Cass, Nebraska"
Cass,North Dakota,46.93201724,-97.2444719,"Cass, North Dakota"
Cass,Texas,33.07499881,-94.34646905,"Cass, Texas"
Cassia,Idaho,42.28347888,-113.6012409,"Cassia, Idaho"
Castro,Texas,34.53016752,-102.2617243,"Castro, Texas"
Caswell,North Carolina,36.39312665,-79.33353281,"Caswell, North Carolina"
Catahoula,Louisiana,31.66778967,-91.84526385,"Catahoula, Louisiana"
Catawba,North Carolina,35.66211129,-81.2132617,"Catawba, North Carolina"
Catoosa,Georgia,34.89872298,-85.13757014,"Catoosa, Georgia"
Catron,New Mexico,33.91514144,-108.4046587,"Catron, New Mexico"
Cattaraugus,New York,42.24778241,-78.67923096,"Cattaraugus, New York"
Cavalier,North Dakota,48.77286211,-98.46685243,"Cavalier, North Dakota"
Cayuga,New York,42.91261714,-76.55731592,"Cayuga, New York"
Cecil,Maryland,39.56647682,-75.94627411,"Cecil, Maryland"
Cedar,Iowa,41.77233777,-91.13246684,"Cedar, Iowa"
Cedar,Missouri,37.72391475,-93.85445441,"Cedar, Missouri"
Cedar,Nebraska,42.5988851,-97.25311951,"Cedar, Nebraska"
Centre,Pennsylvania,40.92058903,-77.82200624,"Centre, Pennsylvania"
Cerro Gordo,Iowa,43.08177563,-93.2612239,"Cerro Gordo, Iowa"
Chaffee,Colorado,38.74745778,-106.1926573,"Chaffee, Colorado"
Chambers,Alabama,32.91360079,-85.39072749,"Chambers, Alabama"
Chambers,Texas,29.70972016,-94.67154501,"Chambers, Texas"
Champaign,Illinois,40.13919438,-88.20046615,"Champaign, Illinois"
Champaign,Ohio,40.13923427,-83.76875242,"Champaign, Ohio"
Chariton,Missouri,39.51499357,-92.9629191,"Chariton, Missouri"
Charles,Maryland,38.51092331,-76.98580666,"Charles, Maryland"
Charles City,Virginia,37.35358063,-77.05634116,"Charles City, Virginia"
Charles Mix,South Dakota,43.20660134,-98.58856175,"Charles Mix, South Dakota"
Charleston,South Carolina,32.82487866,-79.96512315,"Charleston, South Carolina"
Charlevoix,Michigan,45.37790017,-85.19614053,"Charlevoix, Michigan"
Charlotte,Florida,26.90131002,-81.92949121,"Charlotte, Florida"
Charlotte,Virginia,37.01909701,-78.66314092,"Charlotte, Virginia"
Charlottesville,Virginia,38.03527919,-78.48569588,"Charlottesville, Virginia"
Charlton,Georgia,30.78371028,-82.13951596,"Charlton, Georgia"
Chase,Kansas,38.30292938,-96.59563862,"Chase, Kansas"
Chase,Nebraska,40.5237198,-101.6978026,"Chase, Nebraska"
Chatham,Georgia,32.00043026,-81.12489526,"Chatham, Georgia"
Chatham,North Carolina,35.70394416,-79.25541492,"Chatham, North Carolina"
Chattahoochee,Georgia,32.34341231,-84.78809239,"Chattahoochee, Georgia"
Chattooga,Georgia,34.47197698,-85.34535662,"Chattooga, Georgia"
Chautauqua,Kansas,37.14994405,-96.2454192,"Chautauqua, Kansas"
Chautauqua,New York,42.2276921,-79.36691763,"Chautauqua, New York"
Chaves,New Mexico,33.36406072,-104.4665365,"Chaves, New Mexico"
Cheatham,Tennessee,36.26136216,-87.08903581,"Cheatham, Tennessee"
Cheboygan,Michigan,45.44787015,-84.50122149,"Cheboygan, Michigan"
Chelan,Washington,47.87046092,-120.6173956,"Chelan, Washington"
Chemung,New York,42.13891056,-76.7638805,"Chemung, New York"
Chenango,New York,42.49430041,-75.60887553,"Chenango, New York"
Cherokee,Alabama,34.17805983,-85.60638968,"Cherokee, Alabama"
Cherokee,Georgia,34.24393976,-84.47431861,"Cherokee, Georgia"
Cherokee,Iowa,42.73538914,-95.62389402,"Cherokee, Iowa"
Cherokee,Kansas,37.16928494,-94.8462897,"Cherokee, Kansas"
Cherokee,North Carolina,35.1349263,-84.05970864,"Cherokee, North Carolina"
Cherokee,Oklahoma,35.90692775,-94.99980896,"Cherokee, Oklahoma"
Cherokee,South Carolina,35.05122251,-81.61828622,"Cherokee, South Carolina"
Cherokee,Texas,31.837258,-95.16559897,"Cherokee, Texas"
Cherry,Nebraska,42.54502621,-101.1244332,"Cherry, Nebraska"
Chesapeake,Virginia,36.67670048,-76.30545744,"Chesapeake, Virginia"
Cheshire,New Hampshire,42.92015988,-72.25311043,"Cheshire, New Hampshire"
Chester,Pennsylvania,39.97291773,-75.74768357,"Chester, Pennsylvania"
Chester,South Carolina,34.69249168,-81.1583216,"Chester, South Carolina"
Chester,Tennessee,35.42527478,-88.6095842,"Chester, Tennessee"
Chesterfield,South Carolina,34.64137396,-80.1564014,"Chesterfield, South Carolina"
Chesterfield,Virginia,37.37373208,-77.5868014,"Chesterfield, Virginia"
Cheyenne,Colorado,38.82777431,-102.6032558,"Cheyenne, Colorado"
Cheyenne,Kansas,39.78580976,-101.7318201,"Cheyenne, Kansas"
Cheyenne,Nebraska,41.21999357,-102.9941693,"Cheyenne, Nebraska"
Chickasaw,Iowa,43.06001295,-92.31773347,"Chickasaw, Iowa"
Chickasaw,Mississippi,33.91983202,-88.9481545,"Chickasaw, Mississippi"
Chicot,Arkansas,33.26458973,-91.29539209,"Chicot, Arkansas"
Childress,Texas,34.5293041,-100.2077916,"Childress, Texas"
Chilton,Alabama,32.85044126,-86.7173256,"Chilton, Alabama"
Chippewa,Michigan,46.29552653,-84.54353449,"Chippewa, Michigan"
Chippewa,Minnesota,45.02343421,-95.56403693,"Chippewa, Minnesota"
Chippewa,Wisconsin,45.06939744,-91.28068855,"Chippewa, Wisconsin"
Chisago,Minnesota,45.5021011,-92.90861945,"Chisago, Minnesota"
Chittenden,Vermont,44.46322849,-73.08359212,"Chittenden, Vermont"
Choctaw,Alabama,32.02227341,-88.2656443,"Choctaw, Alabama"
Choctaw,Mississippi,33.34598242,-89.24809382,"Choctaw, Mississippi"
Choctaw,Oklahoma,34.02807439,-95.54771129,"Choctaw, Oklahoma"
Chouteau,Montana,47.88084126,-110.4353362,"Chouteau, Montana"
Chowan,North Carolina,36.12908077,-76.60118385,"Chowan, North Carolina"
Christian,Illinois,39.54581621,-89.27780482,"Christian, Illinois"
Christian,Kentucky,36.89267803,-87.49055367,"Christian, Kentucky"
Christian,Missouri,36.9711783,-93.18537118,"Christian, Missouri"
Churchill,Nevada,39.58105744,-118.3394607,"Churchill, Nevada"
Cibola,New Mexico,34.91131525,-107.998876,"Cibola, New Mexico"
Cimarron,Oklahoma,36.74817177,-102.5173885,"Cimarron, Oklahoma"
Citrus,Florida,28.84804315,-82.47614748,"Citrus, Florida"
Clackamas,Oregon,45.18787398,-122.2179634,"Clackamas, Oregon"
Claiborne,Louisiana,32.82308512,-92.99526883,"Claiborne, Louisiana"
Claiborne,Mississippi,31.97061673,-90.90702196,"Claiborne, Mississippi"
Claiborne,Tennessee,36.48319149,-83.65947309,"Claiborne, Tennessee"
Clallam,Washington,48.04754642,-123.9226319,"Clallam, Washington"
Clare,Michigan,43.98794227,-84.8481986,"Clare, Michigan"
Clarendon,South Carolina,33.66610974,-80.21647898,"Clarendon, South Carolina"
Clarion,Pennsylvania,41.19265812,-79.42413524,"Clarion, Pennsylvania"
Clark,Arkansas,34.04613432,-93.17484713,"Clark, Arkansas"
Clark,Idaho,44.28496071,-112.3505704,"Clark, Idaho"
Clark,Illinois,39.33425789,-87.78705622,"Clark, Illinois"
Clark,Indiana,38.48015445,-85.70510334,"Clark, Indiana"
Clark,Kansas,37.23577007,-99.81883015,"Clark, Kansas"
Clark,Kentucky,37.9689263,-84.14615986,"Clark, Kentucky"
Clark,Missouri,40.41040752,-91.73661677,"Clark, Missouri"
Clark,Nevada,36.21458855,-115.0130241,"Clark, Nevada"
Clark,Ohio,39.91592258,-83.78498252,"Clark, Ohio"
Clark,South Dakota,44.85834507,-97.72925109,"Clark, South Dakota"
Clark,Washington,45.77568046,-122.4829204,"Clark, Washington"
Clark,Wisconsin,44.73483377,-90.61207486,"Clark, Wisconsin"
Clarke,Alabama,31.68099859,-87.83548597,"Clarke, Alabama"
Clarke,Georgia,33.95436462,-83.37124007,"Clarke, Georgia"
Clarke,Iowa,41.02868181,-93.78499767,"Clarke, Iowa"
Clarke,Mississippi,32.04158545,-88.6889622,"Clarke, Mississippi"
Clarke,Virginia,39.11271747,-77.99199425,"Clarke, Virginia"
Clatsop,Oregon,45.99712889,-123.660711,"Clatsop, Oregon"
Clay,Alabama,33.26984193,-85.85836077,"Clay, Alabama"
Clay,Arkansas,36.36826212,-90.4148172,"Clay, Arkansas"
Clay,Florida,29.98319144,-81.85609986,"Clay, Florida"
Clay,Georgia,31.62221166,-84.97713865,"Clay, Georgia"
Clay,Illinois,38.75388572,-88.48914513,"Clay, Illinois"
Clay,Indiana,39.39561833,-87.11723506,"Clay, Indiana"
Clay,Iowa,43.08247182,-95.15096481,"Clay, Iowa"
Clay,Kansas,39.34948772,-97.16518128,"Clay, Kansas"
Clay,Kentucky,37.16451126,-83.712575,"Clay, Kentucky"
Clay,Minnesota,46.89289518,-96.48761922,"Clay, Minnesota"
Clay,Mississippi,33.65358105,-88.77784255,"Clay, Mississippi"
Clay,Missouri,39.31132056,-94.41850862,"Clay, Missouri"
Clay,Nebraska,40.52439441,-98.05126296,"Clay, Nebraska"
Clay,North Carolina,35.05704275,-83.74353633,"Clay, North Carolina"
Clay,South Dakota,42.91296147,-96.97656917,"Clay, South Dakota"
Clay,Tennessee,36.55151008,-85.53930419,"Clay, Tennessee"
Clay,Texas,33.78686685,-98.20771198,"Clay, Texas"
Clay,West Virginia,38.46231092,-81.07652217,"Clay, West Virginia"
Clayton,Georgia,33.54187245,-84.35594188,"Clayton, Georgia"
Clayton,Iowa,42.84443388,-91.34133693,"Clayton, Iowa"
Clear Creek,Colorado,39.68864463,-105.6463118,"Clear Creek, Colorado"
Clearfield,Pennsylvania,41.00110782,-78.47592663,"Clearfield, Pennsylvania"
Clearwater,Idaho,46.67459924,-115.6622393,"Clearwater, Idaho"
Clearwater,Minnesota,47.57992111,-95.37790562,"Clearwater, Minnesota"
Cleburne,Alabama,33.67679204,-85.52005899,"Cleburne, Alabama"
Cleburne,Arkansas,35.53864922,-92.02640019,"Cleburne, Arkansas"
Clermont,Ohio,39.04847534,-84.15375786,"Clermont, Ohio"
Cleveland,Arkansas,33.89723187,-92.18537045,"Cleveland, Arkansas"
Cleveland,North Carolina,35.33553364,-81.55204486,"Cleveland, North Carolina"
Cleveland,Oklahoma,35.20413532,-97.32519562,"Cleveland, Oklahoma"
Clinch,Georgia,30.91395822,-82.70432472,"Clinch, Georgia"
Clinton,Illinois,38.60704876,-89.42385254,"Clinton, Illinois"
Clinton,Indiana,40.30319754,-86.47277257,"Clinton, Indiana"
Clinton,Iowa,41.89981633,-90.53275096,"Clinton, Iowa"
Clinton,Kentucky,36.72581156,-85.13377529,"Clinton, Kentucky"
Clinton,Michigan,42.94400871,-84.60145248,"Clinton, Michigan"
Clinton,Missouri,39.6013098,-94.40465394,"Clinton, Missouri"
Clinton,New York,44.74530905,-73.67875352,"Clinton, New York"
Clinton,Ohio,39.41485808,-83.80852286,"Clinton, Ohio"
Clinton,Pennsylvania,41.23255967,-77.63785995,"Clinton, Pennsylvania"
Cloud,Kansas,39.48028352,-97.64925343,"Cloud, Kansas"
Coahoma,Mississippi,34.22772299,-90.60415045,"Coahoma, Mississippi"
Coal,Oklahoma,34.58840127,-96.29798747,"Coal, Oklahoma"
Cobb,Georgia,33.94243204,-84.5761255,"Cobb, Georgia"
Cochise,Arizona,31.87934684,-109.7516088,"Cochise, Arizona"
Cochran,Texas,33.60425307,-102.8284499,"Cochran, Texas"
Cocke,Tennessee,35.9278914,-83.11828725,"Cocke, Tennessee"
Coconino,Arizona,35.83883429,-111.7707178,"Coconino, Arizona"
Codington,South Dakota,44.97788119,-97.18827677,"Codington, South Dakota"
Coffee,Alabama,31.39932826,-85.98901039,"Coffee, Alabama"
Coffee,Georgia,31.54892966,-82.8549206,"Coffee, Georgia"
Coffee,Tennessee,35.49090731,-86.07311784,"Coffee, Tennessee"
Coffey,Kansas,38.2365018,-95.73379515,"Coffey, Kansas"
Coke,Texas,31.88911733,-100.5297533,"Coke, Texas"
Colbert,Alabama,34.69847452,-87.80168544,"Colbert, Alabama"
Cole,Missouri,38.50455671,-92.27860244,"Cole, Missouri"
Coleman,Texas,31.76736834,-99.45240766,"Coleman, Texas"
Coles,Illinois,39.51949084,-88.22358557,"Coles, Illinois"
Colfax,Nebraska,41.57486951,-97.0868542,"Colfax, Nebraska"
Colfax,New Mexico,36.60569702,-104.6472674,"Colfax, New Mexico"
Colleton,South Carolina,32.87582989,-80.67641292,"Colleton, South Carolina"
Collier,Florida,26.11091986,-81.34687065,"Collier, Florida"
Collin,Texas,33.18820114,-96.57264368,"Collin, Texas"
Collingsworth,Texas,34.96489496,-100.2700111,"Collingsworth, Texas"
Colonial Heights,Virginia,37.26420587,-77.39609676,"Colonial Heights, Virginia"
Colorado,Texas,29.622098,-96.5273805,"Colorado, Texas"
Colquitt,Georgia,31.18810588,-83.7677946,"Colquitt, Georgia"
Columbia,Arkansas,33.21230701,-93.22642793,"Columbia, Arkansas"
Columbia,Florida,30.22509788,-82.62160164,"Columbia, Florida"
Columbia,Georgia,33.54534185,-82.263524,"Columbia, Georgia"
Columbia,New York,42.24819348,-73.63089095,"Columbia, New York"
Columbia,Oregon,45.94464254,-123.0890898,"Columbia, Oregon"
Columbia,Pennsylvania,41.04821986,-76.40565017,"Columbia, Pennsylvania"
Columbia,Washington,46.29442881,-117.9051983,"Columbia, Washington"
Columbia,Wisconsin,43.46492199,-89.33589004,"Columbia, Wisconsin"
Columbiana,Ohio,40.76932373,-80.78094576,"Columbiana, Ohio"
Columbus,North Carolina,34.26744084,-78.65801424,"Columbus, North Carolina"
Colusa,California,39.17881957,-122.2331726,"Colusa, California"
Comal,Texas,29.80811278,-98.27647225,"Comal, Texas"
Comanche,Kansas,37.1911452,-99.27113247,"Comanche, Kansas"
Comanche,Oklahoma,34.65973764,-98.47195055,"Comanche, Oklahoma"
Comanche,Texas,31.94854689,-98.55876441,"Comanche, Texas"
Concho,Texas,31.32635934,-99.86473038,"Concho, Texas"
Concordia,Louisiana,31.44817835,-91.63814433,"Concordia, Louisiana"
Conecuh,Alabama,31.43401703,-86.99320044,"Conecuh, Alabama"
Conejos,Colorado,37.201606,-106.1917488,"Conejos, Colorado"
Contra Costa,California,37.91923498,-121.9289527,"Contra Costa, California"
Converse,Wyoming,42.97272268,-105.5081848,"Converse, Wyoming"
Conway,Arkansas,35.26205537,-92.70506566,"Conway, Arkansas"
Cook,Georgia,31.16068491,-83.42947229,"Cook, Georgia"
Cook,Illinois,41.84144849,-87.81658794,"Cook, Illinois"
Cook,Minnesota,47.90504893,-90.52629546,"Cook, Minnesota"
Cooke,Texas,33.63979567,-97.21240912,"Cooke, Texas"
Cooper,Missouri,38.844478,-92.80896081,"Cooper, Missouri"
Coos,New Hampshire,44.69063265,-71.30633239,"Coos, New Hampshire"
Coos,Oregon,43.17406868,-124.0594514,"Coos, Oregon"
Coosa,Alabama,32.93690146,-86.24847739,"Coosa, Alabama"
Copiah,Mississippi,31.86977774,-90.44565118,"Copiah, Mississippi"
Corson,South Dakota,45.70889983,-101.1970473,"Corson, South Dakota"
Cortland,New York,42.59509207,-76.07048931,"Cortland, New York"
Coryell,Texas,31.39078397,-97.79936155,"Coryell, Texas"
Coshocton,Ohio,40.30096166,-81.91729018,"Coshocton, Ohio"
Costilla,Colorado,37.27732493,-105.4276548,"Costilla, Colorado"
Cottle,Texas,34.07783319,-100.2785062,"Cottle, Texas"
Cotton,Oklahoma,34.28845626,-98.37053567,"Cotton, Oklahoma"
Cottonwood,Minnesota,44.00715262,-95.18138802,"Cottonwood, Minnesota"
Covington,Alabama,31.2477854,-86.45050893,"Covington, Alabama"
Covington,Mississippi,31.63225413,-89.55389939,"Covington, Mississippi"
Covington,Virginia,37.7824656,-79.98631446,"Covington, Virginia"
Coweta,Georgia,33.35334302,-84.76129976,"Coweta, Georgia"
Cowley,Kansas,37.23781842,-96.83776647,"Cowley, Kansas"
Cowlitz,Washington,46.19074721,-122.6782231,"Cowlitz, Washington"
Craig,Oklahoma,36.76268118,-95.20916602,"Craig, Oklahoma"
Craig,Virginia,37.48133648,-80.21072274,"Craig, Virginia"
Craighead,Arkansas,35.83018283,-90.63235729,"Craighead, Arkansas"
Crane,Texas,31.43052248,-102.5143314,"Crane, Texas"
Craven,North Carolina,35.11833364,-77.08398081,"Craven, North Carolina"
Crawford,Arkansas,35.58928601,-94.2446814,"Crawford, Arkansas"
Crawford,Georgia,32.71391813,-83.98061238,"Crawford, Georgia"
Crawford,Illinois,39.0032229,-87.75954624,"Crawford, Illinois"
Crawford,Indiana,38.28814402,-86.44518825,"Crawford, Indiana"
Crawford,Iowa,42.03718237,-95.3819718,"Crawford, Iowa"
Crawford,Kansas,37.50675523,-94.85245778,"Crawford, Kansas"
Crawford,Michigan,44.68255561,-84.61006219,"Crawford, Michigan"
Crawford,Missouri,37.97663738,-91.30528104,"Crawford, Missouri"
Crawford,Ohio,40.85065156,-82.91989099,"Crawford, Ohio"
Crawford,Pennsylvania,41.68447709,-80.10760592,"Crawford, Pennsylvania"
Crawford,Wisconsin,43.23870316,-90.93073686,"Crawford, Wisconsin"
Creek,Oklahoma,35.90230551,-96.37086028,"Creek, Oklahoma"
Crenshaw,Alabama,31.72941803,-86.31593104,"Crenshaw, Alabama"
Crisp,Georgia,31.92289565,-83.76811843,"Crisp, Georgia"
Crittenden,Arkansas,35.21247318,-90.30839406,"Crittenden, Arkansas"
Crittenden,Kentucky,37.35839237,-88.0882609,"Crittenden, Kentucky"
Crockett,Tennessee,35.81830662,-89.14916269,"Crockett, Tennessee"
Crockett,Texas,30.72367027,-101.4134238,"Crockett, Texas"
Crook,Oregon,44.14230227,-120.356297,"Crook, Oregon"
Crook,Wyoming,44.58855102,-104.5697705,"Crook, Wyoming"
Crosby,Texas,33.61431553,-101.3000364,"Crosby, Texas"
Cross,Arkansas,35.29631396,-90.77185818,"Cross, Arkansas"
Crow Wing,Minnesota,46.48096553,-94.06755609,"Crow Wing, Minnesota"
Crowley,Colorado,38.32608609,-103.7844965,"Crowley, Colorado"
Culberson,Texas,31.44506775,-104.5185739,"Culberson, Texas"
Cullman,Alabama,34.13020303,-86.86888037,"Cullman, Alabama"
Culpeper,Virginia,38.48199985,-77.9563087,"Culpeper, Virginia"
Cumberland,Illinois,39.27432424,-88.2401158,"Cumberland, Illinois"
Cumberland,Kentucky,36.78926125,-85.39050034,"Cumberland, Kentucky"
Cumberland,Maine,43.8370751,-70.37226999,"Cumberland, Maine"
Cumberland,New Jersey,39.37199394,-75.10712559,"Cumberland, New Jersey"
Cumberland,North Carolina,35.04762133,-78.82623165,"Cumberland, North Carolina"
Cumberland,Pennsylvania,40.1625372,-77.26130755,"Cumberland, Pennsylvania"
Cumberland,Tennessee,35.95271721,-84.99840585,"Cumberland, Tennessee"
Cumberland,Virginia,37.51328851,-78.24398086,"Cumberland, Virginia"
Cuming,Nebraska,41.91637624,-96.78730772,"Cuming, Nebraska"
Currituck,North Carolina,36.36123664,-75.95876401,"Currituck, North Carolina"
Curry,New Mexico,34.57421077,-103.3468876,"Curry, New Mexico"
Curry,Oregon,42.45911325,-124.157282,"Curry, Oregon"
Custer,Colorado,38.10883162,-105.3683478,"Custer, Colorado"
Custer,Idaho,44.24186819,-114.2855494,"Custer, Idaho"
Custer,Montana,46.25319932,-105.5737526,"Custer, Montana"
Custer,Nebraska,41.39374521,-99.72805369,"Custer, Nebraska"
Custer,Oklahoma,35.63853802,-99.00170785,"Custer, Oklahoma"
Custer,South Dakota,43.67741105,-103.4534521,"Custer, South Dakota"
Cuyahoga,Ohio,41.424119,-81.65918339,"Cuyahoga, Ohio"
Dade,Georgia,34.8549167,-85.50490424,"Dade, Georgia"
Dade,Missouri,37.431814,-93.8503345,"Dade, Missouri"
Daggett,Utah,40.88798265,-109.5121093,"Daggett, Utah"
Dakota,Minnesota,44.67172617,-93.06299363,"Dakota, Minnesota"
Dakota,Nebraska,42.39040144,-96.56656425,"Dakota, Nebraska"
Dale,Alabama,31.43037123,-85.61095742,"Dale, Alabama"
Dallam,Texas,36.27787176,-102.6020725,"Dallam, Texas"
Dallas,Alabama,32.32688101,-87.1086671,"Dallas, Alabama"
Dallas,Arkansas,33.97042763,-92.65167437,"Dallas, Arkansas"
Dallas,Iowa,41.68560356,-94.04127625,"Dallas, Iowa"
Dallas,Missouri,37.6811355,-93.02127031,"Dallas, Missouri"
Dallas,Texas,32.76670599,-96.7779605,"Dallas, Texas"
Dane,Wisconsin,43.06601594,-89.41733797,"Dane, Wisconsin"
Daniels,Montana,48.78420029,-105.5476343,"Daniels, Montana"
Danville,Virginia,36.58022376,-79.40395668,"Danville, Virginia"
Dare,North Carolina,35.66520691,-75.71767334,"Dare, North Carolina"
Darke,Ohio,40.13412966,-84.6194517,"Darke, Ohio"
Darlington,South Carolina,34.33358335,-79.96027485,"Darlington, South Carolina"
Dauphin,Pennsylvania,40.41377078,-76.77993242,"Dauphin, Pennsylvania"
Davidson,North Carolina,35.79115496,-80.21256572,"Davidson, North Carolina"
Davidson,Tennessee,36.17007426,-86.78646056,"Davidson, Tennessee"
Davie,North Carolina,35.93099927,-80.54496571,"Davie, North Carolina"
Daviess,Indiana,38.70186039,-87.07185406,"Daviess, Indiana"
Daviess,Kentucky,37.73028906,-87.0901948,"Daviess, Kentucky"
Daviess,Missouri,39.96145298,-93.98519678,"Daviess, Missouri"
Davis,Iowa,40.74773536,-92.41005468,"Davis, Iowa"
Davis,Utah,40.99001837,-112.1139997,"Davis, Utah"
Davison,South Dakota,43.67490933,-98.14458906,"Davison, South Dakota"
Dawes,Nebraska,42.71985036,-103.1313774,"Dawes, Nebraska"
Dawson,Georgia,34.44244079,-84.16964071,"Dawson, Georgia"
Dawson,Montana,47.26584855,-104.8944417,"Dawson, Montana"
Dawson,Nebraska,40.87028216,-99.8201461,"Dawson, Nebraska"
Dawson,Texas,32.74255572,-101.9477242,"Dawson, Texas"
Day,South Dakota,45.367281,-97.60737498,"Day, South Dakota"
De Baca,New Mexico,34.34274529,-104.4117842,"De Baca, New Mexico"
De Soto,Louisiana,32.05457447,-93.74130302,"De Soto, Louisiana"
De Witt,Illinois,40.17514519,-88.90959682,"De Witt, Illinois"
DeKalb,Alabama,34.45946862,-85.80782906,"DeKalb, Alabama"
DeKalb,Georgia,33.76944049,-84.22396017,"DeKalb, Georgia"
DeKalb,Illinois,41.89373302,-88.76958483,"DeKalb, Illinois"
DeKalb,Indiana,41.39804622,-84.99906934,"DeKalb, Indiana"
DeKalb,Missouri,39.89201062,-94.40476508,"DeKalb, Missouri"
DeKalb,Tennessee,35.97616272,-85.83689361,"DeKalb, Tennessee"
DeSoto,Florida,27.18677893,-81.80941373,"DeSoto, Florida"
DeSoto,Mississippi,34.87625235,-89.99091418,"DeSoto, Mississippi"
DeWitt,Texas,29.08101855,-97.3568117,"DeWitt, Texas"
Deaf Smith,Texas,34.96522957,-102.6054267,"Deaf Smith, Texas"
Dearborn,Indiana,39.14647946,-84.97333539,"Dearborn, Indiana"
Decatur,Georgia,30.87967778,-84.57619536,"Decatur, Georgia"
Decatur,Indiana,39.30712658,-85.50087166,"Decatur, Indiana"
Decatur,Iowa,40.73742757,-93.78645949,"Decatur, Iowa"
Decatur,Kansas,39.78468441,-100.4594081,"Decatur, Kansas"
Decatur,Tennessee,35.60048904,-88.11043779,"Decatur, Tennessee"
Deer Lodge,Montana,46.05953325,-113.073353,"Deer Lodge, Montana"
Defiance,Ohio,41.32398837,-84.49076944,"Defiance, Ohio"
Del Norte,California,41.74228275,-123.8974063,"Del Norte, California"
Delaware,Indiana,40.22787247,-85.39732772,"Delaware, Indiana"
Delaware,Iowa,42.47104597,-91.3664492,"Delaware, Iowa"
Delaware,New York,42.19837623,-74.96709306,"Delaware, New York"
Delaware,Ohio,40.27942393,-83.00457058,"Delaware, Ohio"
Delaware,Oklahoma,36.40823634,-94.80325046,"Delaware, Oklahoma"
Delaware,Pennsylvania,39.91680171,-75.40243663,"Delaware, Pennsylvania"
Delta,Colorado,38.86246243,-107.8631342,"Delta, Colorado"
Delta,Michigan,45.9048491,-86.9080745,"Delta, Michigan"
Delta,Texas,33.38570922,-95.66921122,"Delta, Texas"
Denali,Alaska,63.67264044,-150.0076108,"Denali, Alaska"
Dent,Missouri,37.60663134,-91.50790473,"Dent, Missouri"
Denton,Texas,33.20521901,-97.11691153,"Denton, Texas"
Denver,Colorado,39.76018276,-104.8725695,"Denver, Colorado"
Des Moines,Iowa,40.92012606,-91.18326592,"Des Moines, Iowa"
Deschutes,Oregon,43.91570171,-121.2289121,"Deschutes, Oregon"
Desha,Arkansas,33.83011025,-91.25500948,"Desha, Arkansas"
Deuel,Nebraska,41.11168186,-102.3333331,"Deuel, Nebraska"
Deuel,South Dakota,44.75994309,-96.66943645,"Deuel, South Dakota"
Dewey,Oklahoma,35.98772922,-99.00730714,"Dewey, Oklahoma"
Dewey,South Dakota,45.15639647,-100.8709139,"Dewey, South Dakota"
Dickens,Texas,33.61616822,-100.7788855,"Dickens, Texas"
Dickenson,Virginia,37.12560977,-82.35124171,"Dickenson, Virginia"
Dickey,North Dakota,46.11017712,-98.5049008,"Dickey, North Dakota"
Dickinson,Iowa,43.37787725,-95.1510206,"Dickinson, Iowa"
Dickinson,Kansas,38.86600962,-97.15532383,"Dickinson, Kansas"
Dickinson,Michigan,46.00999672,-87.86961634,"Dickinson, Michigan"
Dickson,Tennessee,36.14669837,-87.35891709,"Dickson, Tennessee"
Dillingham,Alaska,59.79603738,-158.2381942,"Dillingham, Alaska"
Dillon,South Carolina,34.39007791,-79.37741872,"Dillon, South Carolina"
Dimmit,Texas,28.42270064,-99.75645095,"Dimmit, Texas"
Dinwiddie,Virginia,37.07544585,-77.63451754,"Dinwiddie, Virginia"
District of Columbia,District of Columbia,38.90417773,-77.01655992,"District of Columbia, District of Columbia"
Divide,North Dakota,48.8149387,-103.4873611,"Divide, North Dakota"
Dixie,Florida,29.60631086,-83.15724673,"Dixie, Florida"
Dixon,Nebraska,42.49188363,-96.86782408,"Dixon, Nebraska"
Doddridge,West Virginia,39.27057157,-80.70671527,"Doddridge, West Virginia"
Dodge,Georgia,32.17265114,-83.16948926,"Dodge, Georgia"
Dodge,Minnesota,44.02238415,-92.86244324,"Dodge, Minnesota"
Dodge,Nebraska,41.58071748,-96.65598179,"Dodge, Nebraska"
Dodge,Wisconsin,43.41576662,-88.70928178,"Dodge, Wisconsin"
Dolores,Colorado,37.75208676,-108.5211585,"Dolores, Colorado"
Dona Ana,New Mexico,32.35275771,-106.8329387,"Dona Ana, New Mexico"
Doniphan,Kansas,39.79067154,-95.14056866,"Doniphan, Kansas"
Donley,Texas,34.96517499,-100.8140093,"Donley, Texas"
Dooly,Georgia,32.15630737,-83.79746561,"Dooly, Georgia"
Door,Wisconsin,44.95856458,-87.30002707,"Door, Wisconsin"
Dorchester,Maryland,38.45413522,-76.02752426,"Dorchester, Maryland"
Dorchester,South Carolina,33.0794369,-80.40502652,"Dorchester, South Carolina"
Dougherty,Georgia,31.53328528,-84.21722377,"Dougherty, Georgia"
Douglas,Colorado,39.33133796,-104.930001,"Douglas, Colorado"
Douglas,Georgia,33.70291126,-84.77026156,"Douglas, Georgia"
Douglas,Illinois,39.76768052,-88.21854195,"Douglas, Illinois"
Douglas,Kansas,38.88503636,-95.2925121,"Douglas, Kansas"
Douglas,Minnesota,45.93348491,-95.45335469,"Douglas, Minnesota"
Douglas,Missouri,36.9325593,-92.49905109,"Douglas, Missouri"
Douglas,Nebraska,41.29518299,-96.15085305,"Douglas, Nebraska"
Douglas,Nevada,38.912862,-119.6171333,"Douglas, Nevada"
Douglas,Oregon,43.27941273,-123.167291,"Douglas, Oregon"
Douglas,South Dakota,43.38520741,-98.36978007,"Douglas, South Dakota"
Douglas,Washington,47.7361335,-119.692937,"Douglas, Washington"
Douglas,Wisconsin,46.43222285,-91.91595768,"Douglas, Wisconsin"
Doa Ana,New Mexico,32.35275771,-106.8329387,"Doa Ana, New Mexico"
Drew,Arkansas,33.59035001,-91.71777921,"Drew, Arkansas"
DuPage,Illinois,41.85116968,-88.08642662,"DuPage, Illinois"
Dubois,Indiana,38.36597551,-86.8792417,"Dubois, Indiana"
Dubuque,Iowa,42.46815349,-90.88181925,"Dubuque, Iowa"
Duchesne,Utah,40.29772254,-110.425237,"Duchesne, Utah"
Dukes,Massachusetts,41.40674725,-70.68763497,"Dukes, Massachusetts"
Dukes and Nantucket,Massachusetts,41.40674725,-70.68763497,"Dukes and Nantucket, Massachusetts"
Dundy,Nebraska,40.17638677,-101.6876522,"Dundy, Nebraska"
Dunklin,Missouri,36.27167174,-90.09122243,"Dunklin, Missouri"
Dunn,North Dakota,47.35423935,-102.6160468,"Dunn, North Dakota"
Dunn,Wisconsin,44.94562799,-91.8962481,"Dunn, Wisconsin"
Duplin,North Carolina,34.93449805,-77.93140529,"Duplin, North Carolina"
Durham,North Carolina,36.03638492,-78.87608331,"Durham, North Carolina"
Dutchess,New York,41.7648606,-73.74356679,"Dutchess, New York"
Duval,Florida,30.33225875,-81.66976468,"Duval, Florida"
Duval,Texas,27.68184592,-98.50864568,"Duval, Texas"
Dyer,Tennessee,36.05931946,-89.41542855,"Dyer, Tennessee"
Eagle,Colorado,39.62754308,-106.6933637,"Eagle, Colorado"
Early,Georgia,31.32155345,-84.90255207,"Early, Georgia"
East Baton Rouge,Louisiana,30.53842039,-91.09777565,"East Baton Rouge, Louisiana"
East Carroll,Louisiana,32.73926954,-91.23425694,"East Carroll, Louisiana"
East Feliciana,Louisiana,30.84425359,-91.04976723,"East Feliciana, Louisiana"
Eastland,Texas,32.32743996,-98.83243566,"Eastland, Texas"
Eaton,Michigan,42.59599185,-84.83740035,"Eaton, Michigan"
Eau Claire,Wisconsin,44.726614,-91.28609183,"Eau Claire, Wisconsin"
Echols,Georgia,30.71101099,-82.89687287,"Echols, Georgia"
Ector,Texas,31.86898877,-102.5429428,"Ector, Texas"
Eddy,New Mexico,32.47167456,-104.3053527,"Eddy, New Mexico"
Eddy,North Dakota,47.71701474,-98.90432337,"Eddy, North Dakota"
Edgar,Illinois,39.6809186,-87.74759563,"Edgar, Illinois"
Edgecombe,North Carolina,35.91230639,-77.59436892,"Edgecombe, North Carolina"
Edgefield,South Carolina,33.77221995,-81.96231108,"Edgefield, South Carolina"
Edmonson,Kentucky,37.21218923,-86.23955613,"Edmonson, Kentucky"
Edmunds,South Dakota,45.41846445,-99.21545423,"Edmunds, South Dakota"
Edwards,Illinois,38.41353228,-88.05720863,"Edwards, Illinois"
Edwards,Kansas,37.88735543,-99.31263309,"Edwards, Kansas"
Edwards,Texas,29.98202582,-100.304252,"Edwards, Texas"
Effingham,Georgia,32.36616021,-81.34280942,"Effingham, Georgia"
Effingham,Illinois,39.05935711,-88.58969584,"Effingham, Illinois"
El Dorado,California,38.77965956,-120.5233166,"El Dorado, California"
El Paso,Colorado,38.83240149,-104.5251411,"El Paso, Colorado"
El Paso,Texas,31.76980765,-106.2363275,"El Paso, Texas"
Elbert,Colorado,39.28656773,-104.1358721,"Elbert, Colorado"
Elbert,Georgia,34.11302332,-82.83936148,"Elbert, Georgia"
Elk,Kansas,37.45338105,-96.24369667,"Elk, Kansas"
Elk,Pennsylvania,41.42822061,-78.64524744,"Elk, Pennsylvania"
Elkhart,Indiana,41.59761169,-85.85875695,"Elkhart, Indiana"
Elko,Nevada,41.14531606,-115.3577619,"Elko, Nevada"
Elko County,Nevada,41.14531606,-115.3577619,"Elko County, Nevada"
Elliott,Kentucky,38.11624059,-83.09771563,"Elliott, Kentucky"
Ellis,Kansas,38.91458712,-99.31751551,"Ellis, Kansas"
Ellis,Oklahoma,36.2180194,-99.75324573,"Ellis, Oklahoma"
Ellis,Texas,32.34894117,-96.79371841,"Ellis, Texas"
Ellsworth,Kansas,38.69677695,-98.20462799,"Ellsworth, Kansas"
Elmore,Alabama,32.59785413,-86.14415284,"Elmore, Alabama"
Elmore,Idaho,43.3507101,-115.4701578,"Elmore, Idaho"
Emanuel,Georgia,32.59221302,-82.30239915,"Emanuel, Georgia"
Emery,Utah,38.99617072,-110.7013958,"Emery, Utah"
Emmet,Iowa,43.37782951,-94.67858943,"Emmet, Iowa"
Emmet,Michigan,45.52625509,-84.89083249,"Emmet, Michigan"
Emmons,North Dakota,46.28398398,-100.2389766,"Emmons, North Dakota"
Emporia,Virginia,36.69455571,-77.53406129,"Emporia, Virginia"
Erath,Texas,32.23602653,-98.21773417,"Erath, Texas"
Erie,New York,42.76249024,-78.73063652,"Erie, New York"
Erie,Ohio,41.36796058,-82.62904521,"Erie, Ohio"
Erie,Pennsylvania,41.99253829,-80.03301954,"Erie, Pennsylvania"
Escambia,Alabama,31.1256789,-87.15918694,"Escambia, Alabama"
Escambia,Florida,30.67652764,-87.37284571,"Escambia, Florida"
Esmeralda,Nevada,37.78436681,-117.6319999,"Esmeralda, Nevada"
Essex,Massachusetts,42.6687626,-70.94687179,"Essex, Massachusetts"
Essex,New Jersey,40.78681335,-74.24657979,"Essex, New Jersey"
Essex,New York,44.11630765,-73.77297842,"Essex, New York"
Essex,Vermont,44.72736416,-71.73579864,"Essex, Vermont"
Essex,Virginia,37.93357639,-76.94230311,"Essex, Virginia"
Estill,Kentucky,37.69241417,-83.95956369,"Estill, Kentucky"
Etowah,Alabama,34.04567266,-86.04051873,"Etowah, Alabama"
Eureka,Nevada,39.98100864,-116.2683204,"Eureka, Nevada"
Evangeline,Louisiana,30.72985248,-92.39915924,"Evangeline, Louisiana"
Evans,Georgia,32.15328841,-81.8870105,"Evans, Georgia"
Fairbanks North Star,Alaska,64.80726247,-146.5692662,"Fairbanks North Star, Alaska"
Fairfax,Virginia,38.83677558,-77.27565836,"Fairfax, Virginia"
Fairfax City,Virginia,38.85157547,-77.2977964,"Fairfax City, Virginia"
Fairfield,Connecticut,41.26809896,-73.3881171,"Fairfield, Connecticut"
Fairfield,Ohio,39.75107189,-82.63088163,"Fairfield, Ohio"
Fairfield,South Carolina,34.39287073,-81.1195624,"Fairfield, South Carolina"
Fall River,South Dakota,43.23929297,-103.5275691,"Fall River, South Dakota"
Fallon,Montana,46.33478338,-104.4183565,"Fallon, Montana"
Falls,Texas,31.25350609,-96.93630086,"Falls, Texas"
Falls Church,Virginia,38.88485255,-77.17560759,"Falls Church, Virginia"
Fannin,Georgia,34.86430205,-84.316964,"Fannin, Georgia"
Fannin,Texas,33.59564294,-96.10751083,"Fannin, Texas"
Faribault,Minnesota,43.67381499,-93.94787458,"Faribault, Minnesota"
Faulk,South Dakota,45.07082625,-99.14535601,"Faulk, South Dakota"
Faulkner,Arkansas,35.14719007,-92.33717519,"Faulkner, Arkansas"
Fauquier,Virginia,38.73564842,-77.80647472,"Fauquier, Virginia"
Fayette,Alabama,33.72076938,-87.73886638,"Fayette, Alabama"
Fayette,Georgia,33.41357794,-84.49089434,"Fayette, Georgia"
Fayette,Illinois,39.00072038,-89.02452658,"Fayette, Illinois"
Fayette,Indiana,39.63684962,-85.17797541,"Fayette, Indiana"
Fayette,Iowa,42.86271799,-91.8441231,"Fayette, Iowa"
Fayette,Kentucky,38.0368225,-84.45576892,"Fayette, Kentucky"
Fayette,Ohio,39.56021306,-83.4562016,"Fayette, Ohio"
Fayette,Pennsylvania,39.92041012,-79.64291195,"Fayette, Pennsylvania"
Fayette,Tennessee,35.19615831,-89.41399032,"Fayette, Tennessee"
Fayette,Texas,29.87788372,-96.92076062,"Fayette, Texas"
Fayette,West Virginia,38.02974928,-81.08286634,"Fayette, West Virginia"
Fentress,Tennessee,36.38128818,-84.92870012,"Fentress, Tennessee"
Fergus,Montana,47.26331584,-109.2245206,"Fergus, Montana"
Ferry,Washington,48.4711431,-118.5154041,"Ferry, Washington"
Fillmore,Minnesota,43.67394126,-92.08980382,"Fillmore, Minnesota"
Fillmore,Nebraska,40.52458567,-97.59646937,"Fillmore, Nebraska"
Finney,Kansas,38.04340344,-100.7381938,"Finney, Kansas"
Fisher,Texas,32.74281316,-100.4019302,"Fisher, Texas"
Flagler,Florida,29.45933576,-81.31508595,"Flagler, Florida"
Flathead,Montana,48.29575866,-114.0520569,"Flathead, Montana"
Fleming,Kentucky,38.36758311,-83.69657514,"Fleming, Kentucky"
Florence,South Carolina,34.02361754,-79.70189312,"Florence, South Carolina"
Florence,Wisconsin,45.84963535,-88.39804137,"Florence, Wisconsin"
Floyd,Georgia,34.26268279,-85.21577392,"Floyd, Georgia"
Floyd,Indiana,38.32117957,-85.90385377,"Floyd, Indiana"
Floyd,Iowa,43.0600053,-92.78940097,"Floyd, Iowa"
Floyd,Kentucky,37.56213922,-82.74750924,"Floyd, Kentucky"
Floyd,Texas,34.07227468,-101.3031546,"Floyd, Texas"
Floyd,Virginia,36.9302126,-80.36738849,"Floyd, Virginia"
Fluvanna,Virginia,37.84157909,-78.27715475,"Fluvanna, Virginia"
Foard,Texas,33.97308618,-99.7767797,"Foard, Texas"
Fond du Lac,Wisconsin,43.75354908,-88.48885325,"Fond du Lac, Wisconsin"
Ford,Illinois,40.59706922,-88.22350769,"Ford, Illinois"
Ford,Kansas,37.69200114,-99.88825298,"Ford, Kansas"
Forest,Pennsylvania,41.51095103,-79.23229292,"Forest, Pennsylvania"
Forest,Wisconsin,45.66678019,-88.77084892,"Forest, Wisconsin"
Forrest,Mississippi,31.18961454,-89.25832496,"Forrest, Mississippi"
Forsyth,Georgia,34.22604035,-84.1231513,"Forsyth, Georgia"
Forsyth,North Carolina,36.12859861,-80.25459052,"Forsyth, North Carolina"
Fort Bend,Texas,29.52704478,-95.77219463,"Fort Bend, Texas"
Foster,North Dakota,47.4571084,-98.88279923,"Foster, North Dakota"
Fountain,Indiana,40.12361933,-87.24217689,"Fountain, Indiana"
Franklin,Alabama,34.44235334,-87.84289505,"Franklin, Alabama"
Franklin,Arkansas,35.51202821,-93.89299569,"Franklin, Arkansas"
Franklin,Florida,29.83791238,-84.82731662,"Franklin, Florida"
Franklin,Georgia,34.37525597,-83.23159927,"Franklin, Georgia"
Franklin,Idaho,42.18332217,-111.8149666,"Franklin, Idaho"
Franklin,Illinois,37.99189086,-88.92567818,"Franklin, Illinois"
Franklin,Indiana,39.4142482,-85.06062647,"Franklin, Indiana"
Franklin,Iowa,42.73270384,-93.26256925,"Franklin, Iowa"
Franklin,Kansas,38.56443815,-95.28644341,"Franklin, Kansas"
Franklin,Kentucky,38.2379395,-84.87962551,"Franklin, Kentucky"
Franklin,Louisiana,32.13675181,-91.67589857,"Franklin, Louisiana"
Franklin,Maine,44.97330019,-70.44381045,"Franklin, Maine"
Franklin,Massachusetts,42.58119713,-72.58602547,"Franklin, Massachusetts"
Franklin,Mississippi,31.47786634,-90.89672989,"Franklin, Mississippi"
Franklin,Missouri,38.41127108,-91.07522826,"Franklin, Missouri"
Franklin,Nebraska,40.17636348,-98.95299073,"Franklin, Nebraska"
Franklin,New York,44.59040891,-74.29926032,"Franklin, New York"
Franklin,North Carolina,36.081519,-78.28708884,"Franklin, North Carolina"
Franklin,Ohio,39.96995815,-83.01115755,"Franklin, Ohio"
Franklin,Pennsylvania,39.92956518,-77.72157791,"Franklin, Pennsylvania"
Franklin,Tennessee,35.15634626,-86.09201039,"Franklin, Tennessee"
Franklin,Texas,33.17653242,-95.21917243,"Franklin, Texas"
Franklin,Vermont,44.85627605,-72.91249563,"Franklin, Vermont"
Franklin,Virginia,36.99536167,-79.88023649,"Franklin, Virginia"
Franklin,Washington,46.53351425,-118.9018212,"Franklin, Washington"
Franklin City,Virginia,36.6831435,-76.93859681,"Franklin City, Virginia"
Frederick,Maryland,39.47296601,-77.39999394,"Frederick, Maryland"
Frederick,Virginia,39.20172582,-78.25974949,"Frederick, Virginia"
Fredericksburg,Virginia,38.2977863,-77.4922454,"Fredericksburg, Virginia"
Freeborn,Minnesota,43.67385583,-93.34884422,"Freeborn, Minnesota"
Freestone,Texas,31.70422788,-96.15072516,"Freestone, Texas"
Fremont,Colorado,38.47362326,-105.4399667,"Fremont, Colorado"
Fremont,Idaho,44.22800938,-111.4809943,"Fremont, Idaho"
Fremont,Iowa,40.7454272,-95.60129045,"Fremont, Iowa"
Fremont,Wyoming,43.04183996,-108.6296893,"Fremont, Wyoming"
Fresno,California,36.75733899,-119.6466953,"Fresno, California"
Frio,Texas,28.86751206,-99.10804207,"Frio, Texas"
Frontier,Nebraska,40.52993007,-100.3924658,"Frontier, Nebraska"
Fulton,Arkansas,36.38177105,-91.81729127,"Fulton, Arkansas"
Fulton,Georgia,33.79216944,-84.46319413,"Fulton, Georgia"
Fulton,Illinois,40.47289135,-90.20862357,"Fulton, Illinois"
Fulton,Indiana,41.0469907,-86.26252745,"Fulton, Indiana"
Fulton,Kentucky,36.55238827,-89.20140068,"Fulton, Kentucky"
Fulton,New York,43.11363907,-74.41798804,"Fulton, New York"
Fulton,Ohio,41.60213491,-84.12571393,"Fulton, Ohio"
Fulton,Pennsylvania,39.92913544,-78.11163677,"Fulton, Pennsylvania"
Furnas,Nebraska,40.17642064,-99.91247454,"Furnas, Nebraska"
Gadsden,Florida,30.57796289,-84.61915825,"Gadsden, Florida"
Gage,Nebraska,40.26186809,-96.68946704,"Gage, Nebraska"
Gaines,Texas,32.74055318,-102.6353295,"Gaines, Texas"
Galax,Virginia,36.66601852,-80.91703124,"Galax, Virginia"
Gallatin,Illinois,37.76430935,-88.22953869,"Gallatin, Illinois"
Gallatin,Kentucky,38.75398691,-84.8558382,"Gallatin, Kentucky"
Gallatin,Montana,45.54486106,-111.1692571,"Gallatin, Montana"
Gallia,Ohio,38.82708533,-82.31647569,"Gallia, Ohio"
Galveston,Texas,29.40167322,-94.90469073,"Galveston, Texas"
Garden,Nebraska,41.61703149,-102.3313973,"Garden, Nebraska"
Garfield,Colorado,39.59921777,-107.902708,"Garfield, Colorado"
Garfield,Montana,47.27545948,-107.0002351,"Garfield, Montana"
Garfield,Nebraska,41.91428955,-98.99111827,"Garfield, Nebraska"
Garfield,Oklahoma,36.3791334,-97.78265517,"Garfield, Oklahoma"
Garfield,Utah,37.85447192,-111.4418764,"Garfield, Utah"
Garfield,Washington,46.43197502,-117.5454032,"Garfield, Washington"
Garland,Arkansas,34.57692074,-93.14921604,"Garland, Arkansas"
Garrard,Kentucky,37.6388668,-84.53289319,"Garrard, Kentucky"
Garrett,Maryland,39.52786077,-79.27355126,"Garrett, Maryland"
Garvin,Oklahoma,34.70418038,-97.30811132,"Garvin, Oklahoma"
Garza,Texas,33.17969345,-101.2984114,"Garza, Texas"
Gasconade,Missouri,38.43947277,-91.50847147,"Gasconade, Missouri"
Gaston,North Carolina,35.29373559,-81.17477045,"Gaston, North Carolina"
Gates,North Carolina,36.44667547,-76.69749701,"Gates, North Carolina"
Geary,Kansas,38.99871131,-96.7577178,"Geary, Kansas"
Geauga,Ohio,41.49952319,-81.17935342,"Geauga, Ohio"
Gem,Idaho,44.06482372,-116.398376,"Gem, Idaho"
Genesee,Michigan,43.02244215,-83.70589709,"Genesee, Michigan"
Genesee,New York,43.0022601,-78.19135193,"Genesee, New York"
Geneva,Alabama,31.09389027,-85.83572839,"Geneva, Alabama"
Gentry,Missouri,40.21097916,-94.40944419,"Gentry, Missouri"
George,Mississippi,30.86259065,-88.64436789,"George, Mississippi"
Georgetown,South Carolina,33.43443342,-79.33202141,"Georgetown, South Carolina"
Gibson,Indiana,38.30393723,-87.58054938,"Gibson, Indiana"
Gibson,Tennessee,35.99438059,-88.93358327,"Gibson, Tennessee"
Gila,Arizona,33.80190085,-110.8132779,"Gila, Arizona"
Gilchrist,Florida,29.72856978,-82.79880657,"Gilchrist, Florida"
Giles,Tennessee,35.20222469,-87.03992678,"Giles, Tennessee"
Giles,Virginia,37.31234791,-80.70636931,"Giles, Virginia"
Gillespie,Texas,30.31824095,-98.94676915,"Gillespie, Texas"
Gilliam,Oregon,45.37160076,-120.2048869,"Gilliam, Oregon"
Gilmer,Georgia,34.69316688,-84.45802506,"Gilmer, Georgia"
Gilmer,West Virginia,38.9251277,-80.85952723,"Gilmer, West Virginia"
Gilpin,Colorado,39.85646523,-105.5252597,"Gilpin, Colorado"
Glacier,Montana,48.70513576,-112.9934235,"Glacier, Montana"
Glades,Florida,26.95635849,-81.18996211,"Glades, Florida"
Gladwin,Michigan,43.98901072,-84.38774817,"Gladwin, Michigan"
Glascock,Georgia,33.22879932,-82.61297636,"Glascock, Georgia"
Glasscock,Texas,31.86942909,-101.5207776,"Glasscock, Texas"
Glenn,California,39.59875897,-122.3938452,"Glenn, California"
Gloucester,New Jersey,39.71581067,-75.13995546,"Gloucester, New Jersey"
Gloucester,Virginia,37.40809042,-76.53524337,"Gloucester, Virginia"
Glynn,Georgia,31.23279254,-81.53811412,"Glynn, Georgia"
Gogebic,Michigan,46.40862701,-89.69377193,"Gogebic, Michigan"
Golden Valley,Montana,46.3816474,-109.1768522,"Golden Valley, Montana"
Golden Valley,North Dakota,46.94022281,-103.8465421,"Golden Valley, North Dakota"
Goliad,Texas,28.65696592,-97.42760647,"Goliad, Texas"
Gonzales,Texas,29.45634206,-97.49424032,"Gonzales, Texas"
Goochland,Virginia,37.71714806,-77.90381514,"Goochland, Virginia"
Goodhue,Minnesota,44.40849741,-92.7234195,"Goodhue, Minnesota"
Gooding,Idaho,42.96927962,-114.8108306,"Gooding, Idaho"
Gordon,Georgia,34.50487351,-84.87296253,"Gordon, Georgia"
Goshen,Wyoming,42.08798185,-104.3534743,"Goshen, Wyoming"
Gosper,Nebraska,40.51481965,-99.83020279,"Gosper, Nebraska"
Gove,Kansas,38.91588178,-100.4829321,"Gove, Kansas"
Grady,Georgia,30.87454847,-84.23418364,"Grady, Georgia"
Grady,Oklahoma,35.0167709,-97.88339847,"Grady, Oklahoma"
Grafton,New Hampshire,43.93779815,-71.82057197,"Grafton, New Hampshire"
Graham,Arizona,32.93166885,-109.8882178,"Graham, Arizona"
Graham,Kansas,39.34987223,-99.88332493,"Graham, Kansas"
Graham,North Carolina,35.3506925,-83.83369267,"Graham, North Carolina"
Grainger,Tennessee,36.27469206,-83.51254721,"Grainger, Tennessee"
Grand,Colorado,40.10603347,-106.1178042,"Grand, Colorado"
Grand,Utah,38.98103848,-109.5704487,"Grand, Utah"
Grand Forks,North Dakota,47.92093639,-97.45450447,"Grand Forks, North Dakota"
Grand Isle,Vermont,44.7975824,-73.29679772,"Grand Isle, Vermont"
Grand Traverse,Michigan,44.69565625,-85.55585247,"Grand Traverse, Michigan"
Granite,Montana,46.4060522,-113.4414186,"Granite, Montana"
Grant,Arkansas,34.29017991,-92.42320562,"Grant, Arkansas"
Grant,Indiana,40.51587228,-85.65468702,"Grant, Indiana"
Grant,Kansas,37.56227336,-101.3079758,"Grant, Kansas"
Grant,Kentucky,38.64962758,-84.62415957,"Grant, Kentucky"
Grant,Louisiana,31.59882456,-92.56124347,"Grant, Louisiana"
Grant,Minnesota,45.93424769,-96.01139609,"Grant, Minnesota"
Grant,Nebraska,41.91528587,-101.740701,"Grant, Nebraska"
Grant,New Mexico,32.73911281,-108.3827845,"Grant, New Mexico"
Grant,North Dakota,46.35821257,-101.6390013,"Grant, North Dakota"
Grant,Oklahoma,36.796297,-97.78638765,"Grant, Oklahoma"
Grant,Oregon,44.49024544,-119.0068631,"Grant, Oregon"
Grant,South Dakota,45.1723937,-96.77002276,"Grant, South Dakota"
Grant,Washington,47.20753737,-119.4500749,"Grant, Washington"
Grant,West Virginia,39.10314817,-79.19440518,"Grant, West Virginia"
Grant,Wisconsin,42.8671731,-90.7063218,"Grant, Wisconsin"
Granville,North Carolina,36.30337451,-78.65184241,"Granville, North Carolina"
Gratiot,Michigan,43.29265605,-84.60505416,"Gratiot, Michigan"
Graves,Kentucky,36.72292505,-88.65143315,"Graves, Kentucky"
Gray,Kansas,37.73836671,-100.4369088,"Gray, Kansas"
Gray,Texas,35.40081878,-100.8129222,"Gray, Texas"
Grays Harbor,Washington,47.14003705,-123.7820567,"Grays Harbor, Washington"
Grayson,Kentucky,37.46231118,-86.34248968,"Grayson, Kentucky"
Grayson,Texas,33.62744998,-96.67753461,"Grayson, Texas"
Grayson,Virginia,36.65677234,-81.23215889,"Grayson, Virginia"
Greeley,Kansas,38.4808095,-101.8061079,"Greeley, Kansas"
Greeley,Nebraska,41.56742671,-98.52150266,"Greeley, Nebraska"
Green,Kentucky,37.26484328,-85.5540745,"Green, Kentucky"
Green,Wisconsin,42.6794956,-89.60243287,"Green, Wisconsin"
Green Lake,Wisconsin,43.80025981,-89.04679553,"Green Lake, Wisconsin"
Greenbrier,West Virginia,37.9463652,-80.45335881,"Greenbrier, West Virginia"
Greene,Alabama,32.85504247,-87.95684022,"Greene, Alabama"
Greene,Arkansas,36.1173546,-90.55832668,"Greene, Arkansas"
Greene,Georgia,33.5769205,-83.17139104,"Greene, Georgia"
Greene,Illinois,39.35907414,-90.388865,"Greene, Illinois"
Greene,Indiana,39.03630547,-86.96223202,"Greene, Indiana"
Greene,Iowa,42.03614551,-94.39658081,"Greene, Iowa"
Greene,Mississippi,31.21444233,-88.63922281,"Greene, Mississippi"
Greene,Missouri,37.2575872,-93.34230916,"Greene, Missouri"
Greene,New York,42.275797,-74.12384884,"Greene, New York"
Greene,North Carolina,35.48544173,-77.67578087,"Greene, North Carolina"
Greene,Ohio,39.69116283,-83.89032084,"Greene, Ohio"
Greene,Pennsylvania,39.85746531,-80.22357106,"Greene, Pennsylvania"
Greene,Tennessee,36.17470125,-82.84691273,"Greene, Tennessee"
Greene,Virginia,38.29545894,-78.46525378,"Greene, Virginia"
Greenlee,Arizona,33.21498827,-109.2405279,"Greenlee, Arizona"
Greensville,Virginia,36.67878901,-77.56351439,"Greensville, Virginia"
Greenup,Kentucky,38.54332505,-82.9215658,"Greenup, Kentucky"
Greenville,South Carolina,34.89502264,-82.37295012,"Greenville, South Carolina"
Greenwood,Kansas,37.8774388,-96.23250453,"Greenwood, Kansas"
Greenwood,South Carolina,34.15272415,-82.12715789,"Greenwood, South Carolina"
Greer,Oklahoma,34.93535801,-99.5605612,"Greer, Oklahoma"
Gregg,Texas,32.47940482,-94.81591935,"Gregg, Texas"
Gregory,South Dakota,43.19419064,-99.18883902,"Gregory, South Dakota"
Grenada,Mississippi,33.77036166,-89.80245083,"Grenada, Mississippi"
Griggs,North Dakota,47.45785838,-98.23850925,"Griggs, North Dakota"
Grimes,Texas,30.54579585,-95.98902499,"Grimes, Texas"
Grundy,Illinois,41.28569601,-88.41905692,"Grundy, Illinois"
Grundy,Iowa,42.40183723,-92.78829551,"Grundy, Iowa"
Grundy,Missouri,40.11406587,-93.56509276,"Grundy, Missouri"
Grundy,Tennessee,35.38433717,-85.72142731,"Grundy, Tennessee"
Guadalupe,New Mexico,34.86319296,-104.790669,"Guadalupe, New Mexico"
Guadalupe,Texas,29.58165339,-97.94786822,"Guadalupe, Texas"
Guernsey,Ohio,40.05026529,-81.49248905,"Guernsey, Ohio"
Guilford,North Carolina,36.07959451,-79.78824948,"Guilford, North Carolina"
Gulf,Florida,29.93543004,-85.2427099,"Gulf, Florida"
Gunnison,Colorado,38.66611652,-107.0320729,"Gunnison, Colorado"
Guthrie,Iowa,41.68378965,-94.50111014,"Guthrie, Iowa"
Gwinnett,Georgia,33.96044201,-84.02137802,"Gwinnett, Georgia"
Haakon,South Dakota,44.29299053,-101.539099,"Haakon, South Dakota"
Habersham,Georgia,34.63331566,-83.53094677,"Habersham, Georgia"
Haines,Alaska,59.09893571,-135.4679843,"Haines, Alaska"
Hale,Alabama,32.76039258,-87.63284988,"Hale, Alabama"
Hale,Texas,34.07044901,-101.8268114,"Hale, Texas"
Halifax,North Carolina,36.25669272,-77.6556109,"Halifax, North Carolina"
Halifax,Virginia,36.76654925,-78.93512622,"Halifax, Virginia"
Hall,Georgia,34.32207823,-83.81896936,"Hall, Georgia"
Hall,Nebraska,40.87257079,-98.50218293,"Hall, Nebraska"
Hall,Texas,34.5307555,-100.6813852,"Hall, Texas"
Hamblen,Tennessee,36.21990035,-83.26586179,"Hamblen, Tennessee"
Hamilton,Florida,30.49673973,-82.94998918,"Hamilton, Florida"
Hamilton,Illinois,38.08163641,-88.53883373,"Hamilton, Illinois"
Hamilton,Indiana,40.07306535,-86.05244729,"Hamilton, Indiana"
Hamilton,Iowa,42.38382428,-93.70197703,"Hamilton, Iowa"
Hamilton,Kansas,37.99978709,-101.7921066,"Hamilton, Kansas"
Hamilton,Nebraska,40.87349452,-98.02099117,"Hamilton, Nebraska"
Hamilton,New York,43.66146647,-74.49721957,"Hamilton, New York"
Hamilton,Ohio,39.19673558,-84.54502924,"Hamilton, Ohio"
Hamilton,Tennessee,35.17670231,-85.16652245,"Hamilton, Tennessee"
Hamilton,Texas,31.70470573,-98.11083887,"Hamilton, Texas"
Hamlin,South Dakota,44.67385954,-97.18829593,"Hamlin, South Dakota"
Hampden,Massachusetts,42.13440424,-72.63235561,"Hampden, Massachusetts"
Hampshire,Massachusetts,42.33997957,-72.65898478,"Hampshire, Massachusetts"
Hampshire,West Virginia,39.32103553,-78.60826476,"Hampshire, West Virginia"
Hampton,South Carolina,32.77419582,-81.13845571,"Hampton, South Carolina"
Hampton,Virginia,37.03513786,-76.35879121,"Hampton, Virginia"
Hancock,Georgia,33.2721566,-82.99766919,"Hancock, Georgia"
Hancock,Illinois,40.40423981,-91.16313899,"Hancock, Illinois"
Hancock,Indiana,39.82304555,-85.77566351,"Hancock, Indiana"
Hancock,Iowa,43.08178477,-93.73454884,"Hancock, Iowa"
Hancock,Kentucky,37.83766422,-86.78280584,"Hancock, Kentucky"
Hancock,Maine,44.59816444,-68.38401854,"Hancock, Maine"
Hancock,Mississippi,30.41830223,-89.48851033,"Hancock, Mississippi"
Hancock,Ohio,41.00250487,-83.66838948,"Hancock, Ohio"
Hancock,Tennessee,36.52692871,-83.22375847,"Hancock, Tennessee"
Hancock,West Virginia,40.51943859,-80.57461608,"Hancock, West Virginia"
Hand,South Dakota,44.54708407,-99.00386459,"Hand, South Dakota"
Hanover,Virginia,37.7583355,-77.49464673,"Hanover, Virginia"
Hansford,Texas,36.27743284,-101.3545796,"Hansford, Texas"
Hanson,South Dakota,43.6746384,-97.78715148,"Hanson, South Dakota"
Haralson,Georgia,33.79602175,-85.21005667,"Haralson, Georgia"
Hardee,Florida,27.49293939,-81.80956574,"Hardee, Florida"
Hardeman,Tennessee,35.20772017,-88.99161161,"Hardeman, Tennessee"
Hardeman,Texas,34.28944521,-99.74632408,"Hardeman, Texas"
Hardin,Illinois,37.51810645,-88.26873022,"Hardin, Illinois"
Hardin,Iowa,42.38353877,-93.23654611,"Hardin, Iowa"
Hardin,Kentucky,37.6976111,-85.96319251,"Hardin, Kentucky"
Hardin,Ohio,40.66015414,-83.65929931,"Hardin, Ohio"
Hardin,Tennessee,35.19732531,-88.18593755,"Hardin, Tennessee"
Hardin,Texas,30.33364686,-94.38931817,"Hardin, Texas"
Harding,New Mexico,35.85751555,-103.8220938,"Harding, New Mexico"
Harding,South Dakota,45.58015551,-103.4958629,"Harding, South Dakota"
Hardy,West Virginia,39.00683177,-78.85855301,"Hardy, West Virginia"
Harford,Maryland,39.55010644,-76.3077594,"Harford, Maryland"
Harlan,Kentucky,36.85699301,-83.21899516,"Harlan, Kentucky"
Harlan,Nebraska,40.17658508,-99.40438879,"Harlan, Nebraska"
Harmon,Oklahoma,34.7440135,-99.84741652,"Harmon, Oklahoma"
Harnett,North Carolina,35.36731853,-78.87243571,"Harnett, North Carolina"
Harney,Oregon,43.06422669,-118.9666306,"Harney, Oregon"
Harper,Kansas,37.19175361,-98.07578384,"Harper, Kansas"
Harper,Oklahoma,36.78836519,-99.6679804,"Harper, Oklahoma"
Harris,Georgia,32.73709786,-84.90538572,"Harris, Georgia"
Harris,Texas,29.85864939,-95.39339521,"Harris, Texas"
Harrison,Indiana,38.19467379,-86.10948271,"Harrison, Indiana"
Harrison,Iowa,41.68330137,-95.81558439,"Harrison, Iowa"
Harrison,Kentucky,38.44188174,-84.32869741,"Harrison, Kentucky"
Harrison,Mississippi,30.51359752,-89.12467576,"Harrison, Mississippi"
Harrison,Missouri,40.35570088,-93.99222144,"Harrison, Missouri"
Harrison,Ohio,40.29380509,-81.09068544,"Harrison, Ohio"
Harrison,Texas,32.54935988,-94.36934071,"Harrison, Texas"
Harrison,West Virginia,39.2853852,-80.37919577,"Harrison, West Virginia"
Harrisonburg,Virginia,38.43542574,-78.87536254,"Harrisonburg, Virginia"
Hart,Georgia,34.34626973,-82.96567682,"Hart, Georgia"
Hart,Kentucky,37.29943898,-85.88461055,"Hart, Kentucky"
Hartford,Connecticut,41.80283011,-72.73103891,"Hartford, Connecticut"
Hartley,Texas,35.84008013,-102.6029022,"Hartley, Texas"
Harvey,Kansas,38.04293782,-97.42747573,"Harvey, Kansas"
Haskell,Kansas,37.5620394,-100.8710738,"Haskell, Kansas"
Haskell,Oklahoma,35.222576,-95.11513306,"Haskell, Oklahoma"
Haskell,Texas,33.17823584,-99.73037358,"Haskell, Texas"
Hawaii,Hawaii,19.60121157,-155.5210167,"Hawaii, Hawaii"
Hawkins,Tennessee,36.44355426,-82.94885298,"Hawkins, Tennessee"
Hayes,Nebraska,40.52451972,-101.0603568,"Hayes, Nebraska"
Hays,Texas,30.05669873,-98.02944344,"Hays, Texas"
Haywood,North Carolina,35.55269063,-82.98196486,"Haywood, North Carolina"
Haywood,Tennessee,35.58332824,-89.28536625,"Haywood, Tennessee"
Heard,Georgia,33.29686567,-85.12886832,"Heard, Georgia"
Hemphill,Texas,35.83764858,-100.2703577,"Hemphill, Texas"
Hempstead,Arkansas,33.73325583,-93.66935133,"Hempstead, Arkansas"
Henderson,Illinois,40.81908672,-90.92491462,"Henderson, Illinois"
Henderson,Kentucky,37.79344553,-87.57392021,"Henderson, Kentucky"
Henderson,North Carolina,35.33788927,-82.4766782,"Henderson, North Carolina"
Henderson,Tennessee,35.65581134,-88.38600175,"Henderson, Tennessee"
Henderson,Texas,32.21128872,-95.85846587,"Henderson, Texas"
Hendricks,Indiana,39.76719009,-86.51037283,"Hendricks, Indiana"
Hendry,Florida,26.55386945,-81.16469006,"Hendry, Florida"
Hennepin,Minnesota,45.00761521,-93.47694895,"Hennepin, Minnesota"
Henrico,Virginia,37.53460572,-77.39326555,"Henrico, Virginia"
Henry,Alabama,31.51148016,-85.24267944,"Henry, Alabama"
Henry,Georgia,33.4533428,-84.1481466,"Henry, Georgia"
Henry,Illinois,41.3533994,-90.13296166,"Henry, Illinois"
Henry,Indiana,39.93029017,-85.39625719,"Henry, Indiana"
Henry,Iowa,40.98767962,-91.54436349,"Henry, Iowa"
Henry,Kentucky,38.44942688,-85.11587507,"Henry, Kentucky"
Henry,Missouri,38.38482826,-93.79293734,"Henry, Missouri"
Henry,Ohio,41.3339642,-84.06830637,"Henry, Ohio"
Henry,Tennessee,36.33160906,-88.30121797,"Henry, Tennessee"
Henry,Virginia,36.68542395,-79.87634026,"Henry, Virginia"
Herkimer,New York,43.42034246,-74.96145307,"Herkimer, New York"
Hernando,Florida,28.55364461,-82.42700204,"Hernando, Florida"
Hertford,North Carolina,36.3607755,-76.98104134,"Hertford, North Carolina"
Hettinger,North Dakota,46.43375068,-102.4632417,"Hettinger, North Dakota"
Hickman,Kentucky,36.6794808,-88.97875928,"Hickman, Kentucky"
Hickman,Tennessee,35.80609681,-87.47643507,"Hickman, Tennessee"
Hickory,Missouri,37.94163617,-93.3203037,"Hickory, Missouri"
Hidalgo,New Mexico,31.91383467,-108.7151824,"Hidalgo, New Mexico"
Hidalgo,Texas,26.39418217,-98.18299696,"Hidalgo, Texas"
Highland,Ohio,39.1839264,-83.60331456,"Highland, Ohio"
Highland,Virginia,38.35799465,-79.56124594,"Highland, Virginia"
Highlands,Florida,27.34254618,-81.34071957,"Highlands, Florida"
Hill,Montana,48.62879827,-110.1129252,"Hill, Montana"
Hill,Texas,31.99045053,-97.13423143,"Hill, Texas"
Hillsborough,Florida,27.9276559,-82.32013172,"Hillsborough, Florida"
Hillsborough,New Hampshire,42.91537785,-71.7200253,"Hillsborough, New Hampshire"
Hillsdale,Michigan,41.88753639,-84.59312019,"Hillsdale, Michigan"
Hinds,Mississippi,32.2656285,-90.44435448,"Hinds, Mississippi"
Hinsdale,Colorado,37.82247444,-107.3004345,"Hinsdale, Colorado"
Hitchcock,Nebraska,40.17609175,-101.0416477,"Hitchcock, Nebraska"
Hocking,Ohio,39.49537927,-82.47991446,"Hocking, Ohio"
Hockley,Texas,33.60771256,-102.3431676,"Hockley, Texas"
Hodgeman,Kansas,38.08780079,-99.89829881,"Hodgeman, Kansas"
Hoke,North Carolina,35.01888303,-79.23651674,"Hoke, North Carolina"
Holmes,Florida,30.86747479,-85.81319222,"Holmes, Florida"
Holmes,Mississippi,33.12345854,-90.08923538,"Holmes, Mississippi"
Holmes,Ohio,40.56163713,-81.92635677,"Holmes, Ohio"
Holt,Missouri,40.09799248,-95.2163888,"Holt, Missouri"
Holt,Nebraska,42.45522056,-98.78402558,"Holt, Nebraska"
Honolulu,Hawaii,21.45803166,-157.9712182,"Honolulu, Hawaii"
Hood,Texas,32.42990927,-97.83242024,"Hood, Texas"
Hood River,Oregon,45.51872811,-121.6552036,"Hood River, Oregon"
Hooker,Nebraska,41.91586243,-101.1354293,"Hooker, Nebraska"
Hoonah-Angoon,Alaska,58.29307365,-135.6424424,"Hoonah-Angoon, Alaska"
Hopewell,Virginia,37.29186313,-77.29754684,"Hopewell, Virginia"
Hopkins,Kentucky,37.30939025,-87.54670406,"Hopkins, Kentucky"
Hopkins,Texas,33.14875072,-95.56351139,"Hopkins, Texas"
Horry,South Carolina,33.9212828,-78.99555293,"Horry, South Carolina"
Hot Spring,Arkansas,34.31709259,-92.95396325,"Hot Spring, Arkansas"
Hot Springs,Wyoming,43.71930657,-108.4423174,"Hot Springs, Wyoming"
Houghton,Michigan,46.89988536,-88.68495385,"Houghton, Michigan"
Houston,Alabama,31.15197924,-85.29939599,"Houston, Alabama"
Houston,Georgia,32.45802497,-83.66879087,"Houston, Georgia"
Houston,Minnesota,43.67129565,-91.49143057,"Houston, Minnesota"
Houston,Tennessee,36.28872054,-87.71878828,"Houston, Tennessee"
Houston,Texas,31.31925973,-95.42226208,"Houston, Texas"
Howard,Arkansas,34.09007427,-93.9934871,"Howard, Arkansas"
Howard,Indiana,40.48527731,-86.11351892,"Howard, Indiana"
Howard,Iowa,43.35671042,-92.31702714,"Howard, Iowa"
Howard,Maryland,39.25305293,-76.93126208,"Howard, Maryland"
Howard,Missouri,39.1435761,-92.69756691,"Howard, Missouri"
Howard,Nebraska,41.2200529,-98.5166499,"Howard, Nebraska"
Howard,Texas,32.30621324,-101.4356444,"Howard, Texas"
Howell,Missouri,36.77383887,-91.88683935,"Howell, Missouri"
Hubbard,Minnesota,47.10778564,-94.91693868,"Hubbard, Minnesota"
Hudson,New Jersey,40.73766234,-74.07515667,"Hudson, New Jersey"
Hudspeth,Texas,31.45628381,-105.388178,"Hudspeth, Texas"
Huerfano,Colorado,37.68473101,-104.9612585,"Huerfano, Colorado"
Hughes,Oklahoma,35.04912569,-96.24921145,"Hughes, Oklahoma"
Hughes,South Dakota,44.39091534,-99.99661148,"Hughes, South Dakota"
Humboldt,California,40.69923009,-123.876044,"Humboldt, California"
Humboldt,Iowa,42.7764426,-94.20722537,"Humboldt, Iowa"
Humboldt,Nevada,41.40692186,-118.1109427,"Humboldt, Nevada"
Humphreys,Mississippi,33.12825718,-90.52252707,"Humphreys, Mississippi"
Humphreys,Tennessee,36.03958805,-87.77992872,"Humphreys, Tennessee"
Hunt,Texas,33.12351514,-96.08551032,"Hunt, Texas"
Hunterdon,New Jersey,40.56335249,-74.91284156,"Hunterdon, New Jersey"
Huntingdon,Pennsylvania,40.42162652,-77.97673273,"Huntingdon, Pennsylvania"
Huntington,Indiana,40.82907273,-85.48822092,"Huntington, Indiana"
Huron,Michigan,43.83353985,-83.04078453,"Huron, Michigan"
Huron,Ohio,41.14651175,-82.59867951,"Huron, Ohio"
Hutchinson,South Dakota,43.33449012,-97.75536441,"Hutchinson, South Dakota"
Hutchinson,Texas,35.84006574,-101.3546643,"Hutchinson, Texas"
Hyde,North Carolina,35.42017674,-76.15180542,"Hyde, North Carolina"
Hyde,South Dakota,44.54747703,-99.48572582,"Hyde, South Dakota"
Iberia,Louisiana,29.86803617,-91.75871777,"Iberia, Louisiana"
Iberville,Louisiana,30.25734305,-91.3499598,"Iberville, Louisiana"
Ida,Iowa,42.38696136,-95.51355387,"Ida, Iowa"
Idaho,Idaho,45.84721541,-115.4634436,"Idaho, Idaho"
Imperial,California,33.0393082,-115.3669042,"Imperial, California"
Independence,Arkansas,35.74242707,-91.57001641,"Independence, Arkansas"
Indian River,Florida,27.69308961,-80.60556721,"Indian River, Florida"
Indiana,Pennsylvania,40.65241041,-79.08963285,"Indiana, Pennsylvania"
Ingham,Michigan,42.59716886,-84.37472069,"Ingham, Michigan"
Inyo,California,36.51112084,-117.4111978,"Inyo, California"
Ionia,Michigan,42.94502238,-85.07413319,"Ionia, Michigan"
Iosco,Michigan,44.35486835,-83.63484895,"Iosco, Michigan"
Iowa,Iowa,41.68630265,-92.0643373,"Iowa, Iowa"
Iowa,Wisconsin,43.00050278,-90.13469017,"Iowa, Wisconsin"
Iredell,North Carolina,35.80950511,-80.8743128,"Iredell, North Carolina"
Irion,Texas,31.30375559,-100.982439,"Irion, Texas"
Iron,Michigan,46.20974132,-88.53136251,"Iron, Michigan"
Iron,Missouri,37.55487945,-90.7735296,"Iron, Missouri"
Iron,Utah,37.8590362,-113.2897381,"Iron, Utah"
Iron,Wisconsin,46.26302338,-90.24295041,"Iron, Wisconsin"
Iroquois,Illinois,40.74717633,-87.82466784,"Iroquois, Illinois"
Irwin,Georgia,31.60213036,-83.27501387,"Irwin, Georgia"
Isabella,Michigan,43.64060976,-84.84664923,"Isabella, Michigan"
Isanti,Minnesota,45.56181234,-93.29487636,"Isanti, Minnesota"
Island,Washington,48.14713305,-122.5216407,"Island, Washington"
Isle of Wight,Virginia,36.90579348,-76.70842863,"Isle of Wight, Virginia"
Issaquena,Mississippi,32.72531359,-90.97392828,"Issaquena, Mississippi"
Itasca,Minnesota,47.51009045,-93.63092229,"Itasca, Minnesota"
Itawamba,Mississippi,34.27993475,-88.3606733,"Itawamba, Mississippi"
Izard,Arkansas,36.09604046,-91.90847954,"Izard, Arkansas"
Jack,Texas,33.23377248,-98.17283469,"Jack, Texas"
Jackson,Alabama,34.78144169,-85.99750489,"Jackson, Alabama"
Jackson,Arkansas,35.59802983,-91.21494602,"Jackson, Arkansas"
Jackson,Colorado,40.6659387,-106.3408905,"Jackson, Colorado"
Jackson,Florida,30.7954597,-85.21500423,"Jackson, Florida"
Jackson,Georgia,34.13794553,-83.56814788,"Jackson, Georgia"
Jackson,Illinois,37.78595185,-89.38232563,"Jackson, Illinois"
Jackson,Indiana,38.9091582,-86.03851889,"Jackson, Indiana"
Jackson,Iowa,42.17178824,-90.57354837,"Jackson, Iowa"
Jackson,Kansas,39.41673394,-95.79356799,"Jackson, Kansas"
Jackson,Kentucky,37.41866422,-83.99825483,"Jackson, Kentucky"
Jackson,Louisiana,32.30251776,-92.55692092,"Jackson, Louisiana"
Jackson,Michigan,42.24807035,-84.42258681,"Jackson, Michigan"
Jackson,Minnesota,43.67423373,-95.15398258,"Jackson, Minnesota"
Jackson,Mississippi,30.54020656,-88.64184064,"Jackson, Mississippi"
Jackson,Missouri,39.01002188,-94.34724536,"Jackson, Missouri"
Jackson,North Carolina,35.28814273,-83.14093385,"Jackson, North Carolina"
Jackson,Ohio,39.01914254,-82.6181856,"Jackson, Ohio"
Jackson,Oklahoma,34.58781741,-99.41138784,"Jackson, Oklahoma"
Jackson,Oregon,42.43201126,-122.7289309,"Jackson, Oregon"
Jackson,South Dakota,43.69318385,-101.6255063,"Jackson, South Dakota"
Jackson,Tennessee,36.36380466,-85.67239905,"Jackson, Tennessee"
Jackson,Texas,28.95472367,-96.57749563,"Jackson, Texas"
Jackson,West Virginia,38.84263974,-81.68148753,"Jackson, West Virginia"
Jackson,Wisconsin,44.31864893,-90.80566792,"Jackson, Wisconsin"
James City,Virginia,37.31156958,-76.76950618,"James City, Virginia"
Jasper,Georgia,33.31535543,-83.68844964,"Jasper, Georgia"
Jasper,Illinois,39.01054275,-88.15437049,"Jasper, Illinois"
Jasper,Indiana,41.02078733,-87.11553319,"Jasper, Indiana"
Jasper,Iowa,41.68576082,-93.05567785,"Jasper, Iowa"
Jasper,Mississippi,32.01922104,-89.11786866,"Jasper, Mississippi"
Jasper,Missouri,37.20351921,-94.34050458,"Jasper, Missouri"
Jasper,South Carolina,32.43171982,-81.02487495,"Jasper, South Carolina"
Jasper,Texas,30.74685667,-94.02667579,"Jasper, Texas"
Jay,Indiana,40.43781032,-85.00576229,"Jay, Indiana"
Jeff Davis,Georgia,31.80405727,-82.6372487,"Jeff Davis, Georgia"
Jeff Davis,Texas,30.71490589,-104.1399973,"Jeff Davis, Texas"
Jefferson,Alabama,33.55554728,-86.895063,"Jefferson, Alabama"
Jefferson,Arkansas,34.26767081,-91.92619839,"Jefferson, Arkansas"
Jefferson,Colorado,39.58635604,-105.2517692,"Jefferson, Colorado"
Jefferson,Florida,30.43669112,-83.89442308,"Jefferson, Florida"
Jefferson,Georgia,33.05867328,-82.41609057,"Jefferson, Georgia"
Jefferson,Idaho,43.82078483,-112.3131749,"Jefferson, Idaho"
Jefferson,Illinois,38.29980057,-88.9240025,"Jefferson, Illinois"
Jefferson,Indiana,38.78576239,-85.43633383,"Jefferson, Indiana"
Jefferson,Iowa,41.03192394,-91.94849466,"Jefferson, Iowa"
Jefferson,Kansas,39.2347941,-95.38289232,"Jefferson, Kansas"
Jefferson,Kentucky,38.18664655,-85.65931031,"Jefferson, Kentucky"
Jefferson,Louisiana,29.74075478,-90.11115756,"Jefferson, Louisiana"
Jefferson,Mississippi,31.73397872,-91.03764977,"Jefferson, Mississippi"
Jefferson,Missouri,38.25926778,-90.53870896,"Jefferson, Missouri"
Jefferson,Montana,46.14907081,-112.094396,"Jefferson, Montana"
Jefferson,Nebraska,40.17584531,-97.142601,"Jefferson, Nebraska"
Jefferson,New York,44.04200959,-75.94653457,"Jefferson, New York"
Jefferson,Ohio,40.38614126,-80.76259514,"Jefferson, Ohio"
Jefferson,Oklahoma,34.11130184,-97.83182974,"Jefferson, Oklahoma"
Jefferson,Oregon,44.62806839,-121.17832,"Jefferson, Oregon"
Jefferson,Pennsylvania,41.12913106,-78.9986361,"Jefferson, Pennsylvania"
Jefferson,Tennessee,36.04818632,-83.45148924,"Jefferson, Tennessee"
Jefferson,Texas,29.8832777,-94.16434171,"Jefferson, Texas"
Jefferson,Washington,47.75003077,-123.5609704,"Jefferson, Washington"
Jefferson,West Virginia,39.30776166,-77.86014147,"Jefferson, West Virginia"
Jefferson,Wisconsin,43.02054068,-88.77529134,"Jefferson, Wisconsin"
Jefferson Davis,Louisiana,30.26896765,-92.81210004,"Jefferson Davis, Louisiana"
Jefferson Davis,Mississippi,31.56884708,-89.8267099,"Jefferson Davis, Mississippi"
Jenkins,Georgia,32.79248718,-81.96040187,"Jenkins, Georgia"
Jennings,Indiana,38.99588883,-85.62710784,"Jennings, Indiana"
Jerauld,South Dakota,44.06637798,-98.62965972,"Jerauld, South Dakota"
Jerome,Idaho,42.68891267,-114.2655033,"Jerome, Idaho"
Jersey,Illinois,39.08869046,-90.35393073,"Jersey, Illinois"
Jessamine,Kentucky,37.87119786,-84.58252003,"Jessamine, Kentucky"
Jewell,Kansas,39.78470589,-98.21820662,"Jewell, Kansas"
Jim Hogg,Texas,27.04453923,-98.6968187,"Jim Hogg, Texas"
Jim Wells,Texas,27.73103938,-98.0904705,"Jim Wells, Texas"
Jo Daviess,Illinois,42.36542373,-90.21094405,"Jo Daviess, Illinois"
Johnson,Arkansas,35.56759135,-93.46036368,"Johnson, Arkansas"
Johnson,Georgia,32.70211082,-82.66166794,"Johnson, Georgia"
Johnson,Illinois,37.45939802,-88.88165419,"Johnson, Illinois"
Johnson,Indiana,39.48994426,-86.10149107,"Johnson, Indiana"
Johnson,Iowa,41.67169354,-91.58754744,"Johnson, Iowa"
Johnson,Kansas,38.88548175,-94.82250877,"Johnson, Kansas"
Johnson,Kentucky,37.85106355,-82.8264322,"Johnson, Kentucky"
Johnson,Missouri,38.74719601,-93.80691168,"Johnson, Missouri"
Johnson,Nebraska,40.39257596,-96.26522753,"Johnson, Nebraska"
Johnson,Tennessee,36.4552395,-81.84886538,"Johnson, Tennessee"
Johnson,Texas,32.37877812,-97.36615819,"Johnson, Texas"
Johnson,Wyoming,44.04057166,-106.5845174,"Johnson, Wyoming"
Johnston,North Carolina,35.51745004,-78.36622717,"Johnston, North Carolina"
Johnston,Oklahoma,34.31440473,-96.66011537,"Johnston, Oklahoma"
Jones,Georgia,33.02512137,-83.56019163,"Jones, Georgia"
Jones,Iowa,42.12118609,-91.13139641,"Jones, Iowa"
Jones,Mississippi,31.62257767,-89.168969,"Jones, Mississippi"
Jones,North Carolina,35.02254606,-77.35870791,"Jones, North Carolina"
Jones,South Dakota,43.96278565,-100.6940008,"Jones, South Dakota"
Jones,Texas,32.73997145,-99.87861576,"Jones, Texas"
Josephine,Oregon,42.3665549,-123.5561938,"Josephine, Oregon"
Juab,Utah,39.70208397,-112.7809245,"Juab, Utah"
Judith Basin,Montana,47.04581276,-110.2660688,"Judith Basin, Montana"
Juneau,Alaska,58.45031811,-134.200436,"Juneau, Alaska"
Juneau,Wisconsin,43.92456975,-90.11120239,"Juneau, Wisconsin"
Juniata,Pennsylvania,40.53358749,-77.3997513,"Juniata, Pennsylvania"
Kalamazoo,Michigan,42.24542231,-85.53038622,"Kalamazoo, Michigan"
Kalawao,Hawaii,21.17882515,-156.9583592,"Kalawao, Hawaii"
Kalkaska,Michigan,44.68512729,-85.09085699,"Kalkaska, Michigan"
Kanabec,Minnesota,45.9459309,-93.29275192,"Kanabec, Minnesota"
Kanawha,West Virginia,38.33860077,-81.52857054,"Kanawha, West Virginia"
Kandiyohi,Minnesota,45.1526059,-95.00586446,"Kandiyohi, Minnesota"
Kane,Illinois,41.93842729,-88.42861412,"Kane, Illinois"
Kane,Utah,37.28507306,-111.8861752,"Kane, Utah"
Kankakee,Illinois,41.13746989,-87.86205334,"Kankakee, Illinois"
Kansas City,Missouri,39.0997,-94.5786,"Kansas City, Missouri"
Karnes,Texas,28.90705334,-97.85960149,"Karnes, Texas"
Kauai,Hawaii,22.03935037,-159.5966786,"Kauai, Hawaii"
Kaufman,Texas,32.5991417,-96.28734728,"Kaufman, Texas"
Kay,Oklahoma,36.81799745,-97.14421435,"Kay, Oklahoma"
Kearney,Nebraska,40.50663314,-98.94877182,"Kearney, Nebraska"
Kearny,Kansas,38.00017981,-101.321681,"Kearny, Kansas"
Keith,Nebraska,41.19930341,-101.6620164,"Keith, Nebraska"
Kemper,Mississippi,32.75462946,-88.64105766,"Kemper, Mississippi"
Kenai Peninsula,Alaska,60.24429722,-151.5388884,"Kenai Peninsula, Alaska"
Kendall,Illinois,41.59081014,-88.42869583,"Kendall, Illinois"
Kendall,Texas,29.94414155,-98.7113588,"Kendall, Texas"
Kenedy,Texas,26.92601662,-97.66413984,"Kenedy, Texas"
Kennebec,Maine,44.40759555,-69.76738544,"Kennebec, Maine"
Kenosha,Wisconsin,42.57639354,-88.04051686,"Kenosha, Wisconsin"
Kent,Delaware,39.08646628,-75.56884914,"Kent, Delaware"
Kent,Maryland,39.24976208,-76.04741541,"Kent, Maryland"
Kent,Michigan,43.03197711,-85.54934642,"Kent, Michigan"
Kent,Rhode Island,41.67106337,-71.57641596,"Kent, Rhode Island"
Kent,Texas,33.18104136,-100.7780939,"Kent, Texas"
Kenton,Kentucky,38.93950319,-84.53241199,"Kenton, Kentucky"
Keokuk,Iowa,41.33649833,-92.1785067,"Keokuk, Iowa"
Kern,California,35.34329425,-118.7277796,"Kern, California"
Kerr,Texas,30.06040006,-99.34930144,"Kerr, Texas"
Kershaw,South Carolina,34.33988254,-80.58763164,"Kershaw, South Carolina"
Ketchikan Gateway,Alaska,55.57445008,-130.975561,"Ketchikan Gateway, Alaska"
Kewaunee,Wisconsin,44.51727459,-87.61468386,"Kewaunee, Wisconsin"
Keweenaw,Michigan,47.63197653,-88.41434263,"Keweenaw, Michigan"
Keya Paha,Nebraska,42.87990694,-99.71343729,"Keya Paha, Nebraska"
Kidder,North Dakota,46.97830064,-99.77507857,"Kidder, North Dakota"
Kimball,Nebraska,41.19774275,-103.7148131,"Kimball, Nebraska"
Kimble,Texas,30.48678918,-99.74856473,"Kimble, Texas"
King,Texas,33.61643847,-100.2558057,"King, Texas"
King,Washington,47.49137892,-121.8346131,"King, Washington"
King George,Virginia,38.26818502,-77.15852768,"King George, Virginia"
King William,Virginia,37.70965316,-77.09384941,"King William, Virginia"
King and Queen,Virginia,37.71044922,-76.88689628,"King and Queen, Virginia"
Kingfisher,Oklahoma,35.94530008,-97.94193268,"Kingfisher, Oklahoma"
Kingman,Kansas,37.55909527,-98.13638678,"Kingman, Kansas"
Kings,California,36.07409056,-119.8159973,"Kings, California"
Kings,New York,40.6361825,-73.94935552,"Kings, New York"
Kingsbury,South Dakota,44.36956169,-97.4913945,"Kingsbury, South Dakota"
Kinney,Texas,29.34967888,-100.4186638,"Kinney, Texas"
Kiowa,Colorado,38.43260896,-102.7392145,"Kiowa, Colorado"
Kiowa,Kansas,37.55848695,-99.2856537,"Kiowa, Kansas"
Kiowa,Oklahoma,34.91671958,-98.97720696,"Kiowa, Oklahoma"
Kit Carson,Colorado,39.30497777,-102.6022199,"Kit Carson, Colorado"
Kitsap,Washington,47.63479026,-122.6436061,"Kitsap, Washington"
Kittitas,Washington,47.12521214,-120.679439,"Kittitas, Washington"
Kittson,Minnesota,48.77754106,-96.78317184,"Kittson, Minnesota"
Klamath,Oregon,42.68762984,-121.6496461,"Klamath, Oregon"
Kleberg,Texas,27.42435506,-97.69894948,"Kleberg, Texas"
Klickitat,Washington,45.87325839,-120.7913598,"Klickitat, Washington"
Knott,Kentucky,37.35388197,-82.94981134,"Knott, Kentucky"
Knox,Illinois,40.93148779,-90.2133034,"Knox, Illinois"
Knox,Indiana,38.68861576,-87.4194665,"Knox, Indiana"
Knox,Kentucky,36.89225732,-83.85403396,"Knox, Kentucky"
Knox,Maine,44.11486325,-69.10529169,"Knox, Maine"
Knox,Missouri,40.12699751,-92.14780832,"Knox, Missouri"
Knox,Nebraska,42.63758421,-97.89178836,"Knox, Nebraska"
Knox,Ohio,40.39830217,-82.42027563,"Knox, Ohio"
Knox,Tennessee,35.99508821,-83.94635435,"Knox, Tennessee"
Knox,Texas,33.60519951,-99.7422906,"Knox, Texas"
Kodiak Island,Alaska,57.65529415,-153.7493579,"Kodiak Island, Alaska"
Koochiching,Minnesota,48.24539665,-93.78352843,"Koochiching, Minnesota"
Kootenai,Idaho,47.67282258,-116.7020872,"Kootenai, Idaho"
Kosciusko,Indiana,41.24521668,-85.86312322,"Kosciusko, Indiana"
Kossuth,Iowa,43.20405458,-94.20691791,"Kossuth, Iowa"
Kusilvak,Alaska,62.1542916,-163.3967883,"Kusilvak, Alaska"
La Crosse,Wisconsin,43.90632465,-91.11451093,"La Crosse, Wisconsin"
La Paz,Arizona,33.72854224,-113.9810029,"La Paz, Arizona"
La Plata,Colorado,37.28632032,-107.8429014,"La Plata, Colorado"
La Salle,Texas,28.34453111,-99.09908775,"La Salle, Texas"
LaGrange,Indiana,41.64232188,-85.42674232,"LaGrange, Indiana"
LaMoure,North Dakota,46.45681054,-98.53542355,"LaMoure, North Dakota"
LaPorte,Indiana,41.54366008,-86.74072188,"LaPorte, Indiana"
LaSalle,Illinois,41.3442613,-88.88633881,"LaSalle, Illinois"
LaSalle,Louisiana,31.67884782,-92.15907765,"LaSalle, Louisiana"
Labette,Kansas,37.19113093,-95.29849679,"Labette, Kansas"
Lac qui Parle,Minnesota,44.9973857,-96.17488219,"Lac qui Parle, Minnesota"
Lackawanna,Pennsylvania,41.43564672,-75.60379201,"Lackawanna, Pennsylvania"
Laclede,Missouri,37.65896829,-92.5888493,"Laclede, Missouri"
Lafayette,Arkansas,33.24116713,-93.60677071,"Lafayette, Arkansas"
Lafayette,Florida,29.98484137,-83.18166636,"Lafayette, Florida"
Lafayette,Louisiana,30.2049055,-92.06959876,"Lafayette, Louisiana"
Lafayette,Mississippi,34.35687874,-89.48490961,"Lafayette, Mississippi"
Lafayette,Missouri,39.06986886,-93.78076396,"Lafayette, Missouri"
Lafayette,Wisconsin,42.66005229,-90.1317729,"Lafayette, Wisconsin"
Lafourche,Louisiana,29.52470226,-90.40976986,"Lafourche, Louisiana"
Lake,California,39.10124298,-122.7536244,"Lake, California"
Lake,Colorado,39.20278823,-106.3555697,"Lake, Colorado"
Lake,Florida,28.76202069,-81.7125123,"Lake, Florida"
Lake,Illinois,42.3224907,-88.00367925,"Lake, Illinois"
Lake,Indiana,41.41874274,-87.38277575,"Lake, Indiana"
Lake,Michigan,43.99050893,-85.802173,"Lake, Michigan"
Lake,Minnesota,47.64270764,-91.44557998,"Lake, Minnesota"
Lake,Montana,47.64514965,-114.0898013,"Lake, Montana"
Lake,Ohio,41.69710807,-81.23676539,"Lake, Ohio"
Lake,Oregon,42.79246693,-120.3850163,"Lake, Oregon"
Lake,South Dakota,44.02193107,-97.12926365,"Lake, South Dakota"
Lake,Tennessee,36.3418017,-89.48921915,"Lake, Tennessee"
Lake and Peninsula,Alaska,58.62403337,-156.2140589,"Lake and Peninsula, Alaska"
Lake of the Woods,Minnesota,48.77217001,-94.90274472,"Lake of the Woods, Minnesota"
Lamar,Alabama,33.77995024,-88.09668032,"Lamar, Alabama"
Lamar,Georgia,33.07841647,-84.14263877,"Lamar, Georgia"
Lamar,Mississippi,31.20572971,-89.5077704,"Lamar, Mississippi"
Lamar,Texas,33.66981763,-95.57404777,"Lamar, Texas"
Lamb,Texas,34.06859623,-102.3516289,"Lamb, Texas"
Lamoille,Vermont,44.60353043,-72.64356694,"Lamoille, Vermont"
Lampasas,Texas,31.19531316,-98.24206613,"Lampasas, Texas"
Lancaster,Nebraska,40.78416049,-96.68777155,"Lancaster, Nebraska"
Lancaster,Pennsylvania,40.03904563,-76.24770128,"Lancaster, Pennsylvania"
Lancaster,South Carolina,34.68270843,-80.70513032,"Lancaster, South Carolina"
Lancaster,Virginia,37.71889653,-76.46400482,"Lancaster, Virginia"
Lander,Nevada,39.9332233,-117.0397075,"Lander, Nevada"
Lane,Kansas,38.48119447,-100.4660754,"Lane, Kansas"
Lane,Oregon,43.93727035,-122.847753,"Lane, Oregon"
Langlade,Wisconsin,45.26271619,-89.07483625,"Langlade, Wisconsin"
Lanier,Georgia,31.0382857,-83.06472457,"Lanier, Georgia"
Lapeer,Michigan,43.09052506,-83.22153148,"Lapeer, Michigan"
Laramie,Wyoming,41.3070252,-104.6887497,"Laramie, Wyoming"
Larimer,Colorado,40.66671597,-105.4625784,"Larimer, Colorado"
Larue,Kentucky,37.54567114,-85.70138352,"Larue, Kentucky"
Las Animas,Colorado,37.3153406,-104.0376458,"Las Animas, Colorado"
Lassen,California,40.67311306,-120.5935099,"Lassen, California"
Latah,Idaho,46.81587887,-116.7113698,"Latah, Idaho"
Latimer,Oklahoma,34.87844729,-95.25215049,"Latimer, Oklahoma"
Lauderdale,Alabama,34.90171875,-87.65624729,"Lauderdale, Alabama"
Lauderdale,Mississippi,32.40419769,-88.66229662,"Lauderdale, Mississippi"
Lauderdale,Tennessee,35.75893438,-89.6301591,"Lauderdale, Tennessee"
Laurel,Kentucky,37.10975748,-84.11321779,"Laurel, Kentucky"
Laurens,Georgia,32.46325233,-82.92221316,"Laurens, Georgia"
Laurens,South Carolina,34.48244419,-82.00490796,"Laurens, South Carolina"
Lavaca,Texas,29.38508402,-96.93186692,"Lavaca, Texas"
Lawrence,Alabama,34.52041498,-87.31069453,"Lawrence, Alabama"
Lawrence,Arkansas,36.04188196,-91.10867198,"Lawrence, Arkansas"
Lawrence,Illinois,38.71987914,-87.72884035,"Lawrence, Illinois"
Lawrence,Indiana,38.84112637,-86.48361629,"Lawrence, Indiana"
Lawrence,Kentucky,38.07136018,-82.72882223,"Lawrence, Kentucky"
Lawrence,Mississippi,31.55147224,-90.10841127,"Lawrence, Mississippi"
Lawrence,Missouri,37.10626634,-93.83293097,"Lawrence, Missouri"
Lawrence,Ohio,38.59743452,-82.53466552,"Lawrence, Ohio"
Lawrence,Pennsylvania,40.99206278,-80.33393706,"Lawrence, Pennsylvania"
Lawrence,South Dakota,44.35919441,-103.7929428,"Lawrence, South Dakota"
Lawrence,Tennessee,35.21675201,-87.39787695,"Lawrence, Tennessee"
Le Flore,Oklahoma,34.89851864,-94.70392124,"Le Flore, Oklahoma"
Le Sueur,Minnesota,44.37136597,-93.72844721,"Le Sueur, Minnesota"
Lea,New Mexico,32.79215361,-103.4123733,"Lea, New Mexico"
Leake,Mississippi,32.7536828,-89.52402044,"Leake, Mississippi"
Leavenworth,Kansas,39.20183497,-95.03620809,"Leavenworth, Kansas"
Lebanon,Pennsylvania,40.36680311,-76.45651841,"Lebanon, Pennsylvania"
Lee,Alabama,32.60154883,-85.35132246,"Lee, Alabama"
Lee,Arkansas,34.78498904,-90.78383866,"Lee, Arkansas"
Lee,Florida,26.58410348,-81.88399313,"Lee, Florida"
Lee,Georgia,31.7793306,-84.14324253,"Lee, Georgia"
Lee,Illinois,41.74583951,-89.29977132,"Lee, Illinois"
Lee,Iowa,40.64181461,-91.48183025,"Lee, Iowa"
Lee,Kentucky,37.59645942,-83.71513901,"Lee, Kentucky"
Lee,Mississippi,34.2918775,-88.68149954,"Lee, Mississippi"
Lee,North Carolina,35.47623147,-79.17569362,"Lee, North Carolina"
Lee,South Carolina,34.16393091,-80.25690731,"Lee, South Carolina"
Lee,Texas,30.31120597,-96.97045773,"Lee, Texas"
Lee,Virginia,36.70586667,-83.12606515,"Lee, Virginia"
Leelanau,Michigan,44.94430054,-85.80150326,"Leelanau, Michigan"
Leflore,Mississippi,33.55545125,-90.29900733,"Leflore, Mississippi"
Lehigh,Pennsylvania,40.6154815,-75.59435245,"Lehigh, Pennsylvania"
Lemhi,Idaho,44.9438088,-113.9309747,"Lemhi, Idaho"
Lenawee,Michigan,41.89475156,-84.06603727,"Lenawee, Michigan"
Lenoir,North Carolina,35.2403259,-77.64245615,"Lenoir, North Carolina"
Leon,Florida,30.45955727,-84.27491114,"Leon, Florida"
Leon,Texas,31.29872538,-95.9936328,"Leon, Texas"
Leslie,Kentucky,37.09246661,-83.37999606,"Leslie, Kentucky"
Letcher,Kentucky,37.12306748,-82.85346474,"Letcher, Kentucky"
Levy,Florida,29.31829741,-82.74007147,"Levy, Florida"
Lewis,Idaho,46.23315327,-116.434146,"Lewis, Idaho"
Lewis,Kentucky,38.53184419,-83.37735618,"Lewis, Kentucky"
Lewis,Missouri,40.09673161,-91.72070156,"Lewis, Missouri"
Lewis,New York,43.7844157,-75.44903992,"Lewis, New York"
Lewis,Tennessee,35.52853208,-87.49022694,"Lewis, Tennessee"
Lewis,Washington,46.57756476,-122.3925769,"Lewis, Washington"
Lewis,West Virginia,38.9947249,-80.49988181,"Lewis, West Virginia"
Lewis and Clark,Montana,47.12610041,-112.394698,"Lewis and Clark, Montana"
Lexington,South Carolina,33.89665987,-81.27146426,"Lexington, South Carolina"
Lexington,Virginia,37.78258621,-79.44262866,"Lexington, Virginia"
Liberty,Florida,30.23766008,-84.8829258,"Liberty, Florida"
Liberty,Georgia,31.82588896,-81.49251135,"Liberty, Georgia"
Liberty,Montana,48.56084317,-111.024307,"Liberty, Montana"
Liberty,Texas,30.15152688,-94.81205615,"Liberty, Texas"
Licking,Ohio,40.09136236,-82.48185785,"Licking, Ohio"
Limestone,Alabama,34.81185586,-86.98310072,"Limestone, Alabama"
Limestone,Texas,31.5454767,-96.58095444,"Limestone, Texas"
Lincoln,Arkansas,33.95317155,-91.74002806,"Lincoln, Arkansas"
Lincoln,Colorado,38.98749519,-103.5136649,"Lincoln, Colorado"
Lincoln,Georgia,33.79201475,-82.45024131,"Lincoln, Georgia"
Lincoln,Idaho,43.0012336,-114.1358773,"Lincoln, Idaho"
Lincoln,Kansas,39.04549684,-98.20756994,"Lincoln, Kansas"
Lincoln,Kentucky,37.45475628,-84.6565327,"Lincoln, Kentucky"
Lincoln,Louisiana,32.6003154,-92.6659741,"Lincoln, Louisiana"
Lincoln,Maine,44.05996956,-69.54227124,"Lincoln, Maine"
Lincoln,Minnesota,44.41311883,-96.26688165,"Lincoln, Minnesota"
Lincoln,Mississippi,31.53288662,-90.45391915,"Lincoln, Mississippi"
Lincoln,Missouri,39.05345619,-90.95588181,"Lincoln, Missouri"
Lincoln,Montana,48.54265777,-115.4046155,"Lincoln, Montana"
Lincoln,Nebraska,41.04658298,-100.7475374,"Lincoln, Nebraska"
Lincoln,Nevada,37.64268459,-114.8790388,"Lincoln, Nevada"
Lincoln,New Mexico,33.74526079,-105.4586166,"Lincoln, New Mexico"
Lincoln,North Carolina,35.48508185,-81.21740317,"Lincoln, North Carolina"
Lincoln,Oklahoma,35.70270942,-96.8812462,"Lincoln, Oklahoma"
Lincoln,Oregon,44.64252874,-123.869912,"Lincoln, Oregon"
Lincoln,South Dakota,43.27841182,-96.7203905,"Lincoln, South Dakota"
Lincoln,Tennessee,35.13738622,-86.58910106,"Lincoln, Tennessee"
Lincoln,Washington,47.57705241,-118.4194388,"Lincoln, Washington"
Lincoln,West Virginia,38.172154,-82.07017953,"Lincoln, West Virginia"
Lincoln,Wisconsin,45.33737523,-89.73411273,"Lincoln, Wisconsin"
Lincoln,Wyoming,42.26376367,-110.6563997,"Lincoln, Wyoming"
Linn,Iowa,42.07923082,-91.59809485,"Linn, Iowa"
Linn,Kansas,38.21267844,-94.84254089,"Linn, Kansas"
Linn,Missouri,39.87001769,-93.10704106,"Linn, Missouri"
Linn,Oregon,44.48899494,-122.5373154,"Linn, Oregon"
Lipscomb,Texas,36.27783108,-100.2733151,"Lipscomb, Texas"
Litchfield,Connecticut,41.7937534,-73.2451475,"Litchfield, Connecticut"
Little River,Arkansas,33.70375665,-94.23468591,"Little River, Arkansas"
Live Oak,Texas,28.35101362,-98.1246786,"Live Oak, Texas"
Livingston,Illinois,40.89188292,-88.55784752,"Livingston, Illinois"
Livingston,Kentucky,37.21137452,-88.34797529,"Livingston, Kentucky"
Livingston,Louisiana,30.44143993,-90.73061664,"Livingston, Louisiana"
Livingston,Michigan,42.60302282,-83.91297209,"Livingston, Michigan"
Livingston,Missouri,39.78110272,-93.54645978,"Livingston, Missouri"
Livingston,New York,42.72596275,-77.77966158,"Livingston, New York"
Llano,Texas,30.70645047,-98.68475262,"Llano, Texas"
Logan,Arkansas,35.21413234,-93.71951016,"Logan, Arkansas"
Logan,Colorado,40.7249637,-103.110817,"Logan, Colorado"
Logan,Illinois,40.12581572,-89.36638784,"Logan, Illinois"
Logan,Kansas,38.91735806,-101.148475,"Logan, Kansas"
Logan,Kentucky,36.85949479,-86.877635,"Logan, Kentucky"
Logan,Nebraska,41.56650314,-100.4817851,"Logan, Nebraska"
Logan,North Dakota,46.45729487,-99.47719806,"Logan, North Dakota"
Logan,Ohio,40.38996525,-83.76784341,"Logan, Ohio"
Logan,Oklahoma,35.91899576,-97.44352845,"Logan, Oklahoma"
Logan,West Virginia,37.8299889,-81.93528571,"Logan, West Virginia"
Long,Georgia,31.75218791,-81.74952375,"Long, Georgia"
Lonoke,Arkansas,34.75392199,-91.88742357,"Lonoke, Arkansas"
Lorain,Ohio,41.29553751,-82.15083537,"Lorain, Ohio"
Los Alamos,New Mexico,35.86631386,-106.3134985,"Los Alamos, New Mexico"
Los Angeles,California,34.30828379,-118.2282411,"Los Angeles, California"
Loudon,Tennessee,35.73939663,-84.31145275,"Loudon, Tennessee"
Loudoun,Virginia,39.08990083,-77.63481877,"Loudoun, Virginia"
Louisa,Iowa,41.21842119,-91.26102611,"Louisa, Iowa"
Louisa,Virginia,37.97850256,-77.96274807,"Louisa, Virginia"
Loup,Nebraska,41.91371961,-99.45440415,"Loup, Nebraska"
Love,Oklahoma,33.95273467,-97.23906784,"Love, Oklahoma"
Loving,Texas,31.84947612,-103.5818571,"Loving, Texas"
Lowndes,Alabama,32.1597283,-86.65158371,"Lowndes, Alabama"
Lowndes,Georgia,30.83568832,-83.27056716,"Lowndes, Georgia"
Lowndes,Mississippi,33.47386518,-88.4419153,"Lowndes, Mississippi"
Lubbock,Texas,33.61008596,-101.8204789,"Lubbock, Texas"
Lucas,Iowa,41.02958964,-93.32780803,"Lucas, Iowa"
Lucas,Ohio,41.62101218,-83.65468618,"Lucas, Ohio"
Luce,Michigan,46.47227431,-85.54471223,"Luce, Michigan"
Lumpkin,Georgia,34.57286511,-84.00425681,"Lumpkin, Georgia"
Luna,New Mexico,32.18179341,-107.7508826,"Luna, New Mexico"
Lunenburg,Virginia,36.94618528,-78.24133319,"Lunenburg, Virginia"
Luzerne,Pennsylvania,41.17823008,-75.98447579,"Luzerne, Pennsylvania"
Lycoming,Pennsylvania,41.34310539,-77.06629984,"Lycoming, Pennsylvania"
Lyman,South Dakota,43.89522709,-99.85201878,"Lyman, South Dakota"
Lynchburg,Virginia,37.40021399,-79.19888138,"Lynchburg, Virginia"
Lynn,Texas,33.17657705,-101.8162849,"Lynn, Texas"
Lyon,Iowa,43.38107862,-96.20926845,"Lyon, Iowa"
Lyon,Kansas,38.45576156,-96.15275715,"Lyon, Kansas"
Lyon,Kentucky,37.02080035,-88.07886257,"Lyon, Kentucky"
Lyon,Minnesota,44.41327865,-95.83806103,"Lyon, Minnesota"
Lyon,Nevada,39.01777974,-119.1870479,"Lyon, Nevada"
Mackinac,Michigan,46.07028979,-85.04980537,"Mackinac, Michigan"
Macomb,Michigan,42.69158356,-82.92752801,"Macomb, Michigan"
Macon,Alabama,32.38759944,-85.69267724,"Macon, Alabama"
Macon,Georgia,32.35207048,-84.04234127,"Macon, Georgia"
Macon,Illinois,39.86064913,-88.96342505,"Macon, Illinois"
Macon,Missouri,39.83049768,-92.56453089,"Macon, Missouri"
Macon,North Carolina,35.14867843,-83.41696617,"Macon, North Carolina"
Macon,Tennessee,36.53157855,-86.00778595,"Macon, Tennessee"
Macoupin,Illinois,39.26119767,-89.92424028,"Macoupin, Illinois"
Madera,California,37.21513971,-119.7665589,"Madera, California"
Madison,Alabama,34.76327133,-86.55069633,"Madison, Alabama"
Madison,Arkansas,36.01038185,-93.72524943,"Madison, Arkansas"
Madison,Florida,30.44396917,-83.47398594,"Madison, Florida"
Madison,Georgia,34.12920917,-83.21218732,"Madison, Georgia"
Madison,Idaho,43.78141028,-111.6538474,"Madison, Idaho"
Madison,Illinois,38.83042506,-89.90422563,"Madison, Illinois"
Madison,Indiana,40.16143691,-85.71964711,"Madison, Indiana"
Madison,Iowa,41.33081904,-94.01554631,"Madison, Iowa"
Madison,Kentucky,37.71659336,-84.27220275,"Madison, Kentucky"
Madison,Louisiana,32.36918118,-91.23973355,"Madison, Louisiana"
Madison,Mississippi,32.63389156,-90.03513564,"Madison, Mississippi"
Madison,Missouri,37.47865134,-90.3467143,"Madison, Missouri"
Madison,Montana,45.30080065,-111.9173017,"Madison, Montana"
Madison,Nebraska,41.91676024,-97.6005481,"Madison, Nebraska"
Madison,New York,42.91653905,-75.67266639,"Madison, New York"
Madison,North Carolina,35.85402722,-82.71346418,"Madison, North Carolina"
Madison,Ohio,39.89381073,-83.40178317,"Madison, Ohio"
Madison,Tennessee,35.61181957,-88.84076036,"Madison, Tennessee"
Madison,Texas,30.96694679,-95.93003775,"Madison, Texas"
Madison,Virginia,38.41531222,-78.28220331,"Madison, Virginia"
Magoffin,Kentucky,37.70820545,-83.0657714,"Magoffin, Kentucky"
Mahaska,Iowa,41.33521503,-92.64083907,"Mahaska, Iowa"
Mahnomen,Minnesota,47.32557075,-95.80921485,"Mahnomen, Minnesota"
Mahoning,Ohio,41.01631101,-80.77287029,"Mahoning, Ohio"
Major,Oklahoma,36.31149996,-98.53467076,"Major, Oklahoma"
Malheur,Oregon,43.1937027,-117.6227395,"Malheur, Oregon"
Manassas,Virginia,38.7464321,-77.48509905,"Manassas, Virginia"
Manassas Park,Virginia,38.77058531,-77.44399307,"Manassas Park, Virginia"
Manatee,Florida,27.47196942,-82.31831044,"Manatee, Florida"
Manistee,Michigan,44.33352407,-86.05626916,"Manistee, Michigan"
Manitowoc,Wisconsin,44.11946801,-87.80928853,"Manitowoc, Wisconsin"
Marathon,Wisconsin,44.89792533,-89.75863384,"Marathon, Wisconsin"
Marengo,Alabama,32.24767634,-87.78796182,"Marengo, Alabama"
Maricopa,Arizona,33.34835867,-112.4918154,"Maricopa, Arizona"
Maries,Missouri,38.16193985,-91.92249662,"Maries, Missouri"
Marin,California,38.07122463,-122.7210631,"Marin, California"
Marinette,Wisconsin,45.38553432,-88.033246,"Marinette, Wisconsin"
Marion,Alabama,34.13697363,-87.88704173,"Marion, Alabama"
Marion,Arkansas,36.26844485,-92.68451899,"Marion, Arkansas"
Marion,Florida,29.21227113,-82.05803627,"Marion, Florida"
Marion,Georgia,32.3483402,-84.52733571,"Marion, Georgia"
Marion,Illinois,38.64963204,-88.91899208,"Marion, Illinois"
Marion,Indiana,39.78163624,-86.13826325,"Marion, Indiana"
Marion,Iowa,41.33445101,-93.09934783,"Marion, Iowa"
Marion,Kansas,38.35855394,-97.0985251,"Marion, Kansas"
Marion,Kentucky,37.55218078,-85.26898542,"Marion, Kentucky"
Marion,Mississippi,31.23132643,-89.8209217,"Marion, Mississippi"
Marion,Missouri,39.80601912,-91.62203062,"Marion, Missouri"
Marion,Ohio,40.58610662,-83.15736305,"Marion, Ohio"
Marion,Oregon,44.90287942,-122.5815117,"Marion, Oregon"
Marion,South Carolina,34.07859748,-79.36400756,"Marion, South Carolina"
Marion,Tennessee,35.12997174,-85.62265895,"Marion, Tennessee"
Marion,Texas,32.79868409,-94.3566123,"Marion, Texas"
Marion,West Virginia,39.50984542,-80.24244659,"Marion, West Virginia"
Mariposa,California,37.57978556,-119.9073334,"Mariposa, California"
Marlboro,South Carolina,34.59905577,-79.67561152,"Marlboro, South Carolina"
Marquette,Michigan,46.4338914,-87.64043701,"Marquette, Michigan"
Marquette,Wisconsin,43.81911946,-89.40073763,"Marquette, Wisconsin"
Marshall,Alabama,34.36975964,-86.30486727,"Marshall, Alabama"
Marshall,Illinois,41.0327901,-89.34510444,"Marshall, Illinois"
Marshall,Indiana,41.32467367,-86.26185087,"Marshall, Indiana"
Marshall,Iowa,42.03586837,-92.9990819,"Marshall, Iowa"
Marshall,Kansas,39.78359669,-96.52278974,"Marshall, Kansas"
Marshall,Kentucky,36.8800707,-88.32803576,"Marshall, Kentucky"
Marshall,Minnesota,48.35825983,-96.37017407,"Marshall, Minnesota"
Marshall,Mississippi,34.76216286,-89.50299462,"Marshall, Mississippi"
Marshall,Oklahoma,34.02311222,-96.76855464,"Marshall, Oklahoma"
Marshall,South Dakota,45.75870838,-97.59855639,"Marshall, South Dakota"
Marshall,Tennessee,35.45798777,-86.76420988,"Marshall, Tennessee"
Marshall,West Virginia,39.86064362,-80.66591062,"Marshall, West Virginia"
Martin,Florida,27.0772071,-80.43109784,"Martin, Florida"
Martin,Indiana,38.7099921,-86.80373186,"Martin, Indiana"
Martin,Kentucky,37.79990579,-82.51247478,"Martin, Kentucky"
Martin,Minnesota,43.67429718,-94.55099908,"Martin, Minnesota"
Martin,North Carolina,35.84326734,-77.10860251,"Martin, North Carolina"
Martin,Texas,32.30600051,-101.9513518,"Martin, Texas"
Martinsville,Virginia,36.68212094,-79.86352771,"Martinsville, Virginia"
Mason,Illinois,40.23917274,-89.91824452,"Mason, Illinois"
Mason,Kentucky,38.59471935,-83.82151043,"Mason, Kentucky"
Mason,Michigan,43.99509218,-86.24988902,"Mason, Michigan"
Mason,Texas,30.71780434,-99.22629416,"Mason, Texas"
Mason,Washington,47.35007586,-123.1863685,"Mason, Washington"
Mason,West Virginia,38.77071799,-82.02524219,"Mason, West Virginia"
Massac,Illinois,37.22078441,-88.71036614,"Massac, Illinois"
Matagorda,Texas,28.81955746,-96.01230294,"Matagorda, Texas"
Matanuska-Susitna,Alaska,62.31305045,-149.5741743,"Matanuska-Susitna, Alaska"
Mathews,Virginia,37.44164146,-76.34098896,"Mathews, Virginia"
Maui,Hawaii,20.86399628,-156.5689097,"Maui, Hawaii"
Maury,Tennessee,35.6187413,-87.07462444,"Maury, Tennessee"
Maverick,Texas,28.7429195,-100.3157686,"Maverick, Texas"
Mayes,Oklahoma,36.30179091,-95.23175116,"Mayes, Oklahoma"
McClain,Oklahoma,35.01123903,-97.44572302,"McClain, Oklahoma"
McCone,Montana,47.64469406,-105.7944994,"McCone, Montana"
McCook,South Dakota,43.6742571,-97.36863144,"McCook, South Dakota"
McCormick,South Carolina,33.90161443,-82.30794338,"McCormick, South Carolina"
McCracken,Kentucky,37.05350953,-88.70445755,"McCracken, Kentucky"
McCreary,Kentucky,36.73874143,-84.48102924,"McCreary, Kentucky"
McCulloch,Texas,31.1925468,-99.34682807,"McCulloch, Texas"
McCurtain,Oklahoma,34.11664328,-94.77222373,"McCurtain, Oklahoma"
McDonald,Missouri,36.62869595,-94.34867205,"McDonald, Missouri"
McDonough,Illinois,40.45674722,-90.67775541,"McDonough, Illinois"
McDowell,North Carolina,35.67736232,-82.0482425,"McDowell, North Carolina"
McDowell,West Virginia,37.38002939,-81.65083669,"McDowell, West Virginia"
McDuffie,Georgia,33.47851918,-82.48252774,"McDuffie, Georgia"
McHenry,Illinois,42.32451172,-88.45248227,"McHenry, Illinois"
McHenry,North Dakota,48.23104458,-100.6324822,"McHenry, North Dakota"
McIntosh,Georgia,31.49683595,-81.40163426,"McIntosh, Georgia"
McIntosh,North Dakota,46.11182017,-99.44145858,"McIntosh, North Dakota"
McIntosh,Oklahoma,35.37235506,-95.66599306,"McIntosh, Oklahoma"
McKean,Pennsylvania,41.80938602,-78.56478358,"McKean, Pennsylvania"
McKenzie,North Dakota,47.7413337,-103.395905,"McKenzie, North Dakota"
McKinley,New Mexico,35.5800772,-108.262245,"McKinley, New Mexico"
McLean,Illinois,40.48996987,-88.84621113,"McLean, Illinois"
McLean,Kentucky,37.5301951,-87.26803443,"McLean, Kentucky"
McLean,North Dakota,47.60766714,-101.3182418,"McLean, North Dakota"
McLennan,Texas,31.55255453,-97.20217694,"McLennan, Texas"
McLeod,Minnesota,44.82367677,-94.27287017,"McLeod, Minnesota"
McMinn,Tennessee,35.42812616,-84.61520715,"McMinn, Tennessee"
McMullen,Texas,28.35251708,-98.56769164,"McMullen, Texas"
McNairy,Tennessee,35.17468549,-88.5647812,"McNairy, Tennessee"
McPherson,Kansas,38.39184858,-97.64769869,"McPherson, Kansas"
McPherson,Nebraska,41.56797682,-101.0599362,"McPherson, Nebraska"
McPherson,South Dakota,45.76626028,-99.22118798,"McPherson, South Dakota"
Meade,Kansas,37.23859987,-100.364831,"Meade, Kansas"
Meade,Kentucky,37.96163597,-86.21028219,"Meade, Kentucky"
Meade,South Dakota,44.56676791,-102.7162741,"Meade, South Dakota"
Meagher,Montana,46.59907074,-110.8898557,"Meagher, Montana"
Mecklenburg,North Carolina,35.24469268,-80.8317671,"Mecklenburg, North Carolina"
Mecklenburg,Virginia,36.67882005,-78.36131056,"Mecklenburg, Virginia"
Mecosta,Michigan,43.64064262,-85.32463223,"Mecosta, Michigan"
Medina,Ohio,41.11770589,-81.8998621,"Medina, Ohio"
Medina,Texas,29.3557301,-99.11030298,"Medina, Texas"
Meeker,Minnesota,45.12328869,-94.52839455,"Meeker, Minnesota"
Meigs,Ohio,39.09224872,-82.0305041,"Meigs, Ohio"
Meigs,Tennessee,35.51558739,-84.81482914,"Meigs, Tennessee"
Mellette,South Dakota,43.58078848,-100.7563186,"Mellette, South Dakota"
Menard,Illinois,40.02742725,-89.80246001,"Menard, Illinois"
Menard,Texas,30.88990665,-99.8204794,"Menard, Texas"
Mendocino,California,39.4381191,-123.3911313,"Mendocino, California"
Menifee,Kentucky,37.94090733,-83.59985712,"Menifee, Kentucky"
Menominee,Michigan,45.58038692,-87.55370409,"Menominee, Michigan"
Menominee,Wisconsin,45.00422544,-88.70950714,"Menominee, Wisconsin"
Merced,California,37.18922369,-120.7209035,"Merced, California"
Mercer,Illinois,41.20596782,-90.74290052,"Mercer, Illinois"
Mercer,Kentucky,37.81474237,-84.87488475,"Mercer, Kentucky"
Mercer,Missouri,40.42212303,-93.5682959,"Mercer, Missouri"
Mercer,New Jersey,40.28047017,-74.70479631,"Mercer, New Jersey"
Mercer,North Dakota,47.31213126,-101.8318399,"Mercer, North Dakota"
Mercer,Ohio,40.54043046,-84.62912742,"Mercer, Ohio"
Mercer,Pennsylvania,41.30248872,-80.25816981,"Mercer, Pennsylvania"
Mercer,West Virginia,37.40481169,-81.11023142,"Mercer, West Virginia"
Meriwether,Georgia,33.04163534,-84.68859732,"Meriwether, Georgia"
Merrick,Nebraska,41.16624273,-98.0374887,"Merrick, Nebraska"
Merrimack,New Hampshire,43.29662971,-71.6811573,"Merrimack, New Hampshire"
Mesa,Colorado,39.01787888,-108.469799,"Mesa, Colorado"
Metcalfe,Kentucky,36.99459295,-85.63123699,"Metcalfe, Kentucky"
Miami,Indiana,40.76940965,-86.04525048,"Miami, Indiana"
Miami,Kansas,38.56383358,-94.83832189,"Miami, Kansas"
Miami,Ohio,40.0543329,-84.22871271,"Miami, Ohio"
Miami-Dade,Florida,25.6112362,-80.55170587,"Miami-Dade, Florida"
Middlesex,Connecticut,41.45949668,-72.53714864,"Middlesex, Connecticut"
Middlesex,Massachusetts,42.48607732,-71.39049229,"Middlesex, Massachusetts"
Middlesex,New Jersey,40.43629879,-74.41426991,"Middlesex, New Jersey"
Middlesex,Virginia,37.63191998,-76.55064617,"Middlesex, Virginia"
Midland,Michigan,43.64330771,-84.38804374,"Midland, Michigan"
Midland,Texas,31.86904128,-102.0315682,"Midland, Texas"
Mifflin,Pennsylvania,40.61116939,-77.61070738,"Mifflin, Pennsylvania"
Milam,Texas,30.7858183,-96.97718698,"Milam, Texas"
Millard,Utah,39.0729209,-113.1020328,"Millard, Utah"
Mille Lacs,Minnesota,45.93705297,-93.63236823,"Mille Lacs, Minnesota"
Miller,Arkansas,33.31403423,-93.89285258,"Miller, Arkansas"
Miller,Georgia,31.16568912,-84.73151117,"Miller, Georgia"
Miller,Missouri,38.21450288,-92.42610898,"Miller, Missouri"
Mills,Iowa,41.03299766,-95.61920963,"Mills, Iowa"
Mills,Texas,31.49557106,-98.59272068,"Mills, Texas"
Milwaukee,Wisconsin,43.00486062,-87.96733172,"Milwaukee, Wisconsin"
Miner,South Dakota,44.02197882,-97.60992207,"Miner, South Dakota"
Mineral,Colorado,37.66954283,-106.9281698,"Mineral, Colorado"
Mineral,Montana,47.15283992,-115.0015239,"Mineral, Montana"
Mineral,Nevada,38.53841696,-118.4344506,"Mineral, Nevada"
Mineral,West Virginia,39.41561583,-78.94104895,"Mineral, West Virginia"
Mingo,West Virginia,37.73048351,-82.13338365,"Mingo, West Virginia"
Minidoka,Idaho,42.85518524,-113.6357257,"Minidoka, Idaho"
Minnehaha,South Dakota,43.67441641,-96.7910885,"Minnehaha, South Dakota"
Missaukee,Michigan,44.33772443,-85.09256478,"Missaukee, Michigan"
Mississippi,Arkansas,35.76271485,-90.0519437,"Mississippi, Arkansas"
Mississippi,Missouri,36.82516239,-89.29505753,"Mississippi, Missouri"
Missoula,Montana,47.03728583,-113.9213508,"Missoula, Montana"
Mitchell,Georgia,31.22483255,-84.19381821,"Mitchell, Georgia"
Mitchell,Iowa,43.35638371,-92.78887719,"Mitchell, Iowa"
Mitchell,Kansas,39.39331582,-98.20906732,"Mitchell, Kansas"
Mitchell,North Carolina,36.01059309,-82.1582442,"Mitchell, North Carolina"
Mitchell,Texas,32.30623474,-100.9212058,"Mitchell, Texas"
Mobile,Alabama,30.78472347,-88.20842409,"Mobile, Alabama"
Modoc,California,41.58965602,-120.7244817,"Modoc, California"
Moffat,Colorado,40.61810999,-108.2070876,"Moffat, Colorado"
Mohave,Arizona,35.70471703,-113.7577902,"Mohave, Arizona"
Moniteau,Missouri,38.63571781,-92.57976951,"Moniteau, Missouri"
Monmouth,New Jersey,40.26549699,-74.22240686,"Monmouth, New Jersey"
Mono,California,37.93899289,-118.8872409,"Mono, California"
Monona,Iowa,42.05220391,-95.95743843,"Monona, Iowa"
Monongalia,West Virginia,39.63218457,-80.04766838,"Monongalia, West Virginia"
Monroe,Alabama,31.56729412,-87.36995001,"Monroe, Alabama"
Monroe,Arkansas,34.6815935,-91.20540287,"Monroe, Arkansas"
Monroe,Florida,25.20904673,-81.07812416,"Monroe, Florida"
Monroe,Georgia,33.014289,-83.92097166,"Monroe, Georgia"
Monroe,Illinois,38.27594376,-90.17761038,"Monroe, Illinois"
Monroe,Indiana,39.16130004,-86.52414358,"Monroe, Indiana"
Monroe,Iowa,41.02988815,-92.8690667,"Monroe, Iowa"
Monroe,Kentucky,36.71225341,-85.71596443,"Monroe, Kentucky"
Monroe,Michigan,41.92734151,-83.53749864,"Monroe, Michigan"
Monroe,Mississippi,33.89236763,-88.4808438,"Monroe, Mississippi"
Monroe,Missouri,39.49593978,-92.00043978,"Monroe, Missouri"
Monroe,New York,43.14638895,-77.69322942,"Monroe, New York"
Monroe,Ohio,39.72984936,-81.08464734,"Monroe, Ohio"
Monroe,Pennsylvania,41.05934058,-75.34031025,"Monroe, Pennsylvania"
Monroe,Tennessee,35.44550387,-84.24902965,"Monroe, Tennessee"
Monroe,West Virginia,37.56274716,-80.54577965,"Monroe, West Virginia"
Monroe,Wisconsin,43.94641218,-90.618819,"Monroe, Wisconsin"
Montague,Texas,33.67521893,-97.72500958,"Montague, Texas"
Montcalm,Michigan,43.31082541,-85.15252824,"Montcalm, Michigan"
Monterey,California,36.21862405,-121.2413397,"Monterey, California"
Montezuma,Colorado,37.33859579,-108.5958857,"Montezuma, Colorado"
Montgomery,Alabama,32.2206831,-86.20969272,"Montgomery, Alabama"
Montgomery,Arkansas,34.53704874,-93.65824478,"Montgomery, Arkansas"
Montgomery,Georgia,32.17201038,-82.53527476,"Montgomery, Georgia"
Montgomery,Illinois,39.23198845,-89.47809254,"Montgomery, Illinois"
Montgomery,Indiana,40.04034823,-86.89335024,"Montgomery, Indiana"
Montgomery,Iowa,41.03018714,-95.15642896,"Montgomery, Iowa"
Montgomery,Kansas,37.19236568,-95.74329258,"Montgomery, Kansas"
Montgomery,Kentucky,38.03253032,-83.9145241,"Montgomery, Kentucky"
Montgomery,Maryland,39.13676329,-77.20358245,"Montgomery, Maryland"
Montgomery,Mississippi,33.49419589,-89.61729103,"Montgomery, Mississippi"
Montgomery,Missouri,38.94022054,-91.47000721,"Montgomery, Missouri"
Montgomery,New York,42.90123494,-74.44011632,"Montgomery, New York"
Montgomery,North Carolina,35.33155144,-79.90416657,"Montgomery, North Carolina"
Montgomery,Ohio,39.75394919,-84.29050975,"Montgomery, Ohio"
Montgomery,Pennsylvania,40.21053671,-75.36652296,"Montgomery, Pennsylvania"
Montgomery,Tennessee,36.49609412,-87.38550661,"Montgomery, Tennessee"
Montgomery,Texas,30.30079133,-95.50572772,"Montgomery, Texas"
Montgomery,Virginia,37.17746986,-80.37868691,"Montgomery, Virginia"
Montmorency,Michigan,45.0275929,-84.12696227,"Montmorency, Michigan"
Montour,Pennsylvania,41.03023987,-76.66345939,"Montour, Pennsylvania"
Montrose,Colorado,38.40214114,-108.2639022,"Montrose, Colorado"
Moody,South Dakota,44.02266214,-96.67081159,"Moody, South Dakota"
Moore,North Carolina,35.30885257,-79.48474178,"Moore, North Carolina"
Moore,Tennessee,35.27724699,-86.36230578,"Moore, Tennessee"
Moore,Texas,35.83769242,-101.8930281,"Moore, Texas"
Mora,New Mexico,36.01095101,-104.9497716,"Mora, New Mexico"
Morehouse,Louisiana,32.81686191,-91.80421614,"Morehouse, Louisiana"
Morgan,Alabama,34.45500589,-86.85475946,"Morgan, Alabama"
Morgan,Colorado,40.2627981,-103.8093302,"Morgan, Colorado"
Morgan,Georgia,33.59232073,-83.49129491,"Morgan, Georgia"
Morgan,Illinois,39.71654544,-90.20255104,"Morgan, Illinois"
Morgan,Indiana,39.47899078,-86.44573375,"Morgan, Indiana"
Morgan,Kentucky,37.92465657,-83.25558245,"Morgan, Kentucky"
Morgan,Missouri,38.4181765,-92.88791859,"Morgan, Missouri"
Morgan,Ohio,39.62081738,-81.85308173,"Morgan, Ohio"
Morgan,Tennessee,36.13248031,-84.64880098,"Morgan, Tennessee"
Morgan,Utah,41.08830262,-111.5727723,"Morgan, Utah"
Morgan,West Virginia,39.55439028,-78.26311676,"Morgan, West Virginia"
Morrill,Nebraska,41.71711774,-103.0061405,"Morrill, Nebraska"
Morris,Kansas,38.68827511,-96.65128437,"Morris, Kansas"
Morris,New Jersey,40.86095313,-74.5455371,"Morris, New Jersey"
Morris,Texas,33.11304005,-94.73255695,"Morris, Texas"
Morrison,Minnesota,46.01265363,-94.27341528,"Morrison, Minnesota"
Morrow,Ohio,40.5236356,-82.7892599,"Morrow, Ohio"
Morrow,Oregon,45.41846568,-119.584546,"Morrow, Oregon"
Morton,Kansas,37.19141121,-101.7992519,"Morton, Kansas"
Morton,North Dakota,46.71681782,-101.2822377,"Morton, North Dakota"
Motley,Texas,34.07408766,-100.779722,"Motley, Texas"
Moultrie,Illinois,39.64187451,-88.62099969,"Moultrie, Illinois"
Mountrail,North Dakota,48.20197971,-102.3555315,"Mountrail, North Dakota"
Mower,Minnesota,43.67142874,-92.75234549,"Mower, Minnesota"
Muhlenberg,Kentucky,37.21425819,-87.14632053,"Muhlenberg, Kentucky"
Multnomah,Oregon,45.54747959,-122.4169351,"Multnomah, Oregon"
Murray,Georgia,34.78897608,-84.74993177,"Murray, Georgia"
Murray,Minnesota,44.02216709,-95.76328482,"Murray, Minnesota"
Murray,Oklahoma,34.48116015,-97.06826283,"Murray, Oklahoma"
Muscatine,Iowa,41.48370744,-91.1121697,"Muscatine, Iowa"
Muscogee,Georgia,32.50931999,-84.87142262,"Muscogee, Georgia"
Muskegon,Michigan,43.29123859,-86.15176712,"Muskegon, Michigan"
Muskingum,Ohio,39.96575964,-81.94363275,"Muskingum, Ohio"
Muskogee,Oklahoma,35.61318461,-95.37802952,"Muskogee, Oklahoma"
Musselshell,Montana,46.49684637,-108.39498,"Musselshell, Montana"
Nacogdoches,Texas,31.62017125,-94.61803994,"Nacogdoches, Texas"
Nance,Nebraska,41.39750195,-97.99327291,"Nance, Nebraska"
Nantucket,Massachusetts,41.2942019,-70.08774729,"Nantucket, Massachusetts"
Napa,California,38.50735751,-122.332839,"Napa, California"
Nash,North Carolina,35.96575634,-77.98422508,"Nash, North Carolina"
Nassau,Florida,30.61037141,-81.80297522,"Nassau, Florida"
Nassau,New York,40.74066522,-73.58941873,"Nassau, New York"
Natchitoches,Louisiana,31.72321584,-93.09816516,"Natchitoches, Louisiana"
Natrona,Wyoming,42.96180148,-106.797885,"Natrona, Wyoming"
Navajo,Arizona,35.3997715,-110.3218983,"Navajo, Arizona"
Navarro,Texas,32.04620681,-96.47428766,"Navarro, Texas"
Nelson,Kentucky,37.80335779,-85.4657193,"Nelson, Kentucky"
Nelson,North Dakota,47.9226426,-98.19038437,"Nelson, North Dakota"
Nelson,Virginia,37.78790447,-78.88498513,"Nelson, Virginia"
Nemaha,Kansas,39.78345387,-96.01392079,"Nemaha, Kansas"
Nemaha,Nebraska,40.38514847,-95.85433992,"Nemaha, Nebraska"
Neosho,Kansas,37.55862897,-95.30670046,"Neosho, Kansas"
Neshoba,Mississippi,32.75339664,-89.11726492,"Neshoba, Mississippi"
Ness,Kansas,38.47974157,-99.91547333,"Ness, Kansas"
Nevada,Arkansas,33.66340119,-93.30632432,"Nevada, Arkansas"
Nevada,California,39.30394768,-120.7627281,"Nevada, California"
New Castle,Delaware,39.57992638,-75.64054974,"New Castle, Delaware"
New Hanover,North Carolina,34.25758282,-77.87075626,"New Hanover, North Carolina"
New Haven,Connecticut,41.4080325,-72.93620426,"New Haven, Connecticut"
New Kent,Virginia,37.50694406,-76.99828634,"New Kent, Virginia"
New London,Connecticut,41.48896435,-72.10430976,"New London, Connecticut"
New Madrid,Missouri,36.59666326,-89.66070007,"New Madrid, Missouri"
New York City,New York,40.7672726,-73.97152637,"New York City, New York"
Newaygo,Michigan,43.554374,-85.80070107,"Newaygo, Michigan"
Newberry,South Carolina,34.28629098,-81.59935761,"Newberry, South Carolina"
Newport,Rhode Island,41.5642026,-71.26569799,"Newport, Rhode Island"
Newport News,Virginia,37.08166899,-76.51754109,"Newport News, Virginia"
Newton,Arkansas,35.91947491,-93.21612969,"Newton, Arkansas"
Newton,Georgia,33.55514538,-83.8454714,"Newton, Georgia"
Newton,Indiana,40.95610449,-87.39635768,"Newton, Indiana"
Newton,Mississippi,32.40021118,-89.11843336,"Newton, Mississippi"
Newton,Missouri,36.90519407,-94.3394104,"Newton, Missouri"
Newton,Texas,30.78548982,-93.74408813,"Newton, Texas"
Nez Perce,Idaho,46.32638236,-116.7500975,"Nez Perce, Idaho"
Niagara,New York,43.19898042,-78.74777412,"Niagara, New York"
Nicholas,Kentucky,38.33342292,-84.01889177,"Nicholas, Kentucky"
Nicholas,West Virginia,38.29617706,-80.79759588,"Nicholas, West Virginia"
Nicollet,Minnesota,44.35291112,-94.24710352,"Nicollet, Minnesota"
Niobrara,Wyoming,43.05607708,-104.4758896,"Niobrara, Wyoming"
Noble,Indiana,41.39672484,-85.41966713,"Noble, Indiana"
Noble,Ohio,39.76818851,-81.45937183,"Noble, Ohio"
Noble,Oklahoma,36.38953329,-97.22928674,"Noble, Oklahoma"
Nobles,Minnesota,43.67434621,-95.75329576,"Nobles, Minnesota"
Nodaway,Missouri,40.36079813,-94.88133008,"Nodaway, Missouri"
Nolan,Texas,32.30365282,-100.4060208,"Nolan, Texas"
Nome,Alaska,64.90320724,-164.0353804,"Nome, Alaska"
Norfolk,Massachusetts,42.16073095,-71.20530408,"Norfolk, Massachusetts"
Norfolk,Virginia,36.89934014,-76.26420872,"Norfolk, Virginia"
Norman,Minnesota,47.32628443,-96.45620947,"Norman, Minnesota"
North Slope,Alaska,69.31479216,-153.4836093,"North Slope, Alaska"
Northampton,North Carolina,36.41736238,-77.39769443,"Northampton, North Carolina"
Northampton,Pennsylvania,40.75182733,-75.30471829,"Northampton, Pennsylvania"
Northampton,Virginia,37.34062933,-75.87751591,"Northampton, Virginia"
Northumberland,Pennsylvania,40.84785433,-76.70798222,"Northumberland, Pennsylvania"
Northumberland,Virginia,37.89202088,-76.41949732,"Northumberland, Virginia"
Northwest Arctic,Alaska,67.04919196,-159.7503946,"Northwest Arctic, Alaska"
Norton,Kansas,39.78443827,-99.90286639,"Norton, Kansas"
Norton,Virginia,36.93357076,-82.62750411,"Norton, Virginia"
Nottoway,Virginia,37.1435975,-78.05065922,"Nottoway, Virginia"
Nowata,Oklahoma,36.79843529,-95.61902331,"Nowata, Oklahoma"
Noxubee,Mississippi,33.11009499,-88.56949061,"Noxubee, Mississippi"
Nuckolls,Nebraska,40.17637905,-98.04743961,"Nuckolls, Nebraska"
Nueces,Texas,27.736286,-97.5433285,"Nueces, Texas"
Nye,Nevada,38.04264256,-116.4722702,"Nye, Nevada"
O'Brien,Iowa,43.08310673,-95.62474482,"O'Brien, Iowa"
Oakland,Michigan,42.66090111,-83.38595416,"Oakland, Michigan"
Obion,Tennessee,36.35732446,-89.14921589,"Obion, Tennessee"
Ocean,New Jersey,39.8895449,-74.28089251,"Ocean, New Jersey"
Oceana,Michigan,43.64124435,-86.26726673,"Oceana, Michigan"
Ochiltree,Texas,36.27829105,-100.8158184,"Ochiltree, Texas"
Oconee,Georgia,33.83749973,-83.43679568,"Oconee, Georgia"
Oconee,South Carolina,34.75225169,-83.06742317,"Oconee, South Carolina"
Oconto,Wisconsin,45.02715345,-88.26807503,"Oconto, Wisconsin"
Ogemaw,Michigan,44.33481032,-84.12725175,"Ogemaw, Michigan"
Oglala Lakota,South Dakota,43.33749164,-102.5555498,"Oglala Lakota, South Dakota"
Ogle,Illinois,42.04165196,-89.32184679,"Ogle, Illinois"
Oglethorpe,Georgia,33.8786296,-83.08278123,"Oglethorpe, Georgia"
Ohio,Indiana,38.955305,-84.96515993,"Ohio, Indiana"
Ohio,Kentucky,37.47751843,-86.85368087,"Ohio, Kentucky"
Ohio,West Virginia,40.0955451,-80.62203992,"Ohio, West Virginia"
Okaloosa,Florida,30.69143028,-86.59267105,"Okaloosa, Florida"
Okanogan,Washington,48.54855019,-119.7387224,"Okanogan, Washington"
Okeechobee,Florida,27.3863362,-80.88944347,"Okeechobee, Florida"
Okfuskee,Oklahoma,35.46485198,-96.32639984,"Okfuskee, Oklahoma"
Oklahoma,Oklahoma,35.55140095,-97.40716948,"Oklahoma, Oklahoma"
Okmulgee,Oklahoma,35.64661916,-95.96432828,"Okmulgee, Oklahoma"
Oktibbeha,Mississippi,33.42491685,-88.87905132,"Oktibbeha, Mississippi"
Oldham,Kentucky,38.39791089,-85.448222,"Oldham, Kentucky"
Oldham,Texas,35.40425596,-102.6027606,"Oldham, Texas"
Oliver,North Dakota,47.11530482,-101.3406158,"Oliver, North Dakota"
Olmsted,Minnesota,44.00374114,-92.40209944,"Olmsted, Minnesota"
Oneida,Idaho,42.1949428,-112.5407838,"Oneida, Idaho"
Oneida,New York,43.24375382,-75.43710392,"Oneida, New York"
Oneida,Wisconsin,45.70677897,-89.51944105,"Oneida, Wisconsin"
Onondaga,New York,43.00491923,-76.19971155,"Onondaga, New York"
Onslow,North Carolina,34.72607366,-77.42908179,"Onslow, North Carolina"
Ontario,New York,42.85145728,-77.30874425,"Ontario, New York"
Ontonagon,Michigan,46.6652262,-89.31390481,"Ontonagon, Michigan"
Orange,California,33.70147516,-117.7645998,"Orange, California"
Orange,Florida,28.51367621,-81.31799498,"Orange, Florida"
Orange,Indiana,38.5411892,-86.49523093,"Orange, Indiana"
Orange,New York,41.40337468,-74.30240757,"Orange, New York"
Orange,North Carolina,36.06092947,-79.12167935,"Orange, North Carolina"
Orange,Texas,30.11879481,-93.89412775,"Orange, Texas"
Orange,Vermont,44.00470222,-72.37640104,"Orange, Vermont"
Orange,Virginia,38.24530219,-78.015604,"Orange, Virginia"
Orangeburg,South Carolina,33.4391073,-80.79886287,"Orangeburg, South Carolina"
Oregon,Missouri,36.68710164,-91.4033755,"Oregon, Missouri"
Orleans,Louisiana,30.06971951,-89.92660315,"Orleans, Louisiana"
Orleans,New York,43.2516977,-78.2320066,"Orleans, New York"
Orleans,Vermont,44.82964024,-72.24562697,"Orleans, Vermont"
Osage,Kansas,38.65235984,-95.72707998,"Osage, Kansas"
Osage,Missouri,38.46036182,-91.8613635,"Osage, Missouri"
Osage,Oklahoma,36.62888819,-96.39635704,"Osage, Oklahoma"
Osborne,Kansas,39.3503437,-98.76753828,"Osborne, Kansas"
Osceola,Florida,28.06312234,-81.14882926,"Osceola, Florida"
Osceola,Iowa,43.37824276,-95.62422844,"Osceola, Iowa"
Osceola,Michigan,43.98992088,-85.32566756,"Osceola, Michigan"
Oscoda,Michigan,44.68192279,-84.12939244,"Oscoda, Michigan"
Oswego,New York,43.42778894,-76.14635194,"Oswego, New York"
Otero,Colorado,37.9014485,-103.7173385,"Otero, Colorado"
Otero,New Mexico,32.61348406,-105.7417604,"Otero, New Mexico"
Otoe,Nebraska,40.64843556,-96.13374142,"Otoe, Nebraska"
Otsego,Michigan,45.02085831,-84.59898295,"Otsego, Michigan"
Otsego,New York,42.63492579,-75.03151402,"Otsego, New York"
Ottawa,Kansas,39.13237408,-97.65020313,"Ottawa, Kansas"
Ottawa,Michigan,42.95996803,-85.9969107,"Ottawa, Michigan"
Ottawa,Ohio,41.53781826,-83.0940185,"Ottawa, Ohio"
Ottawa,Oklahoma,36.83532655,-94.81011909,"Ottawa, Oklahoma"
Otter Tail,Minnesota,46.40846929,-95.70835255,"Otter Tail, Minnesota"
Ouachita,Arkansas,33.58839816,-92.87795984,"Ouachita, Arkansas"
Ouachita,Louisiana,32.47645559,-92.15704172,"Ouachita, Louisiana"
Ouray,Colorado,38.14717457,-107.7675136,"Ouray, Colorado"
Out of MI,Michigan,0,0,"Out of MI, Michigan"
Out of TN,Tennessee,0,0,"Out of TN, Tennessee"
Out of UT,Utah,0,0,"Out of UT, Utah"
Outagamie,Wisconsin,44.41578887,-88.46565023,"Outagamie, Wisconsin"
Overton,Tennessee,36.34117832,-85.28989535,"Overton, Tennessee"
Owen,Indiana,39.31145587,-86.83900724,"Owen, Indiana"
Owen,Kentucky,38.51679143,-84.82404619,"Owen, Kentucky"
Owsley,Kentucky,37.42823949,-83.68811419,"Owsley, Kentucky"
Owyhee,Idaho,42.58016894,-116.1693871,"Owyhee, Idaho"
Oxford,Maine,44.49952995,-70.75682123,"Oxford, Maine"
Ozark,Missouri,36.64916339,-92.44459066,"Ozark, Missouri"
Ozaukee,Wisconsin,43.38352225,-87.94625009,"Ozaukee, Wisconsin"
Pacific,Washington,46.55418369,-123.7285716,"Pacific, Washington"
Page,Iowa,40.7393172,-95.1497813,"Page, Iowa"
Page,Virginia,38.61807452,-78.48797204,"Page, Virginia"
Palm Beach,Florida,26.64676272,-80.46536002,"Palm Beach, Florida"
Palo Alto,Iowa,43.08193849,-94.67824621,"Palo Alto, Iowa"
Palo Pinto,Texas,32.75310985,-98.31319001,"Palo Pinto, Texas"
Pamlico,North Carolina,35.15253315,-76.66559823,"Pamlico, North Carolina"
Panola,Mississippi,34.36398677,-89.95064249,"Panola, Mississippi"
Panola,Texas,32.1639596,-94.30552481,"Panola, Texas"
Park,Colorado,39.120926,-105.7182065,"Park, Colorado"
Park,Montana,45.48965095,-110.5264394,"Park, Montana"
Park,Wyoming,44.52157546,-109.5852825,"Park, Wyoming"
Parke,Indiana,39.77202286,-87.20375833,"Parke, Indiana"
Parker,Texas,32.77757172,-97.80500621,"Parker, Texas"
Parmer,Texas,34.52993409,-102.7844668,"Parmer, Texas"
Pasco,Florida,28.30810945,-82.40227529,"Pasco, Florida"
Pasquotank,North Carolina,36.26723798,-76.25134778,"Pasquotank, North Carolina"
Passaic,New Jersey,41.03238628,-74.29954144,"Passaic, New Jersey"
Patrick,Virginia,36.6801638,-80.2865648,"Patrick, Virginia"
Paulding,Georgia,33.91969522,-84.86848792,"Paulding, Georgia"
Paulding,Ohio,41.11676341,-84.5801017,"Paulding, Ohio"
Pawnee,Kansas,38.18108732,-99.23692334,"Pawnee, Kansas"
Pawnee,Nebraska,40.13141096,-96.23705437,"Pawnee, Nebraska"
Pawnee,Oklahoma,36.31743373,-96.7033176,"Pawnee, Oklahoma"
Payette,Idaho,44.00545243,-116.7647695,"Payette, Idaho"
Payne,Oklahoma,36.07695283,-96.97584944,"Payne, Oklahoma"
Peach,Georgia,32.56934316,-83.82937,"Peach, Georgia"
Pearl River,Mississippi,30.77090935,-89.58677275,"Pearl River, Mississippi"
Pecos,Texas,30.78097267,-102.7241261,"Pecos, Texas"
Pembina,North Dakota,48.76623521,-97.5523809,"Pembina, North Dakota"
Pemiscot,Missouri,36.2130572,-89.78742322,"Pemiscot, Missouri"
Pend Oreille,Washington,48.53234021,-117.2741804,"Pend Oreille, Washington"
Pender,North Carolina,34.52265624,-77.90352133,"Pender, North Carolina"
Pendleton,Kentucky,38.69607718,-84.35599463,"Pendleton, Kentucky"
Pendleton,West Virginia,38.68314479,-79.35084086,"Pendleton, West Virginia"
Pennington,Minnesota,48.06642577,-96.0370814,"Pennington, Minnesota"
Pennington,South Dakota,44.0025835,-102.8240777,"Pennington, South Dakota"
Penobscot,Maine,45.40194593,-68.65020455,"Penobscot, Maine"
Peoria,Illinois,40.78702156,-89.76078901,"Peoria, Illinois"
Pepin,Wisconsin,44.58307413,-91.99949611,"Pepin, Wisconsin"
Perkins,Nebraska,40.85082525,-101.6502942,"Perkins, Nebraska"
Perkins,South Dakota,45.49049506,-102.4755586,"Perkins, South Dakota"
Perquimans,North Carolina,36.17847453,-76.40603143,"Perquimans, North Carolina"
Perry,Alabama,32.64048341,-87.29770589,"Perry, Alabama"
Perry,Arkansas,34.9459153,-92.94372564,"Perry, Arkansas"
Perry,Illinois,38.08510853,-89.36856219,"Perry, Illinois"
Perry,Indiana,38.07809328,-86.63741946,"Perry, Indiana"
Perry,Kentucky,37.25023553,-83.22922731,"Perry, Kentucky"
Perry,Mississippi,31.17161885,-88.99281835,"Perry, Mississippi"
Perry,Missouri,37.70660776,-89.82741088,"Perry, Missouri"
Perry,Ohio,39.73508655,-82.23804971,"Perry, Ohio"
Perry,Pennsylvania,40.40206612,-77.26297447,"Perry, Pennsylvania"
Perry,Tennessee,35.63708728,-87.86139634,"Perry, Tennessee"
Pershing,Nevada,40.44003782,-118.4005641,"Pershing, Nevada"
Person,North Carolina,36.38989032,-78.97217358,"Person, North Carolina"
Petersburg,Alaska,57.13978948,-132.9540995,"Petersburg, Alaska"
Petersburg,Virginia,37.20530399,-77.39368102,"Petersburg, Virginia"
Petroleum,Montana,47.1182463,-108.2508876,"Petroleum, Montana"
Pettis,Missouri,38.72798918,-93.28471706,"Pettis, Missouri"
Phelps,Missouri,37.87736118,-91.79351727,"Phelps, Missouri"
Phelps,Nebraska,40.51156033,-99.41461667,"Phelps, Nebraska"
Philadelphia,Pennsylvania,40.00338507,-75.1379271,"Philadelphia, Pennsylvania"
Phillips,Arkansas,34.43268455,-90.84800154,"Phillips, Arkansas"
Phillips,Colorado,40.59414277,-102.3577703,"Phillips, Colorado"
Phillips,Kansas,39.78465501,-99.34668865,"Phillips, Kansas"
Phillips,Montana,48.25936577,-107.9128511,"Phillips, Montana"
Piatt,Illinois,40.01360584,-88.59319339,"Piatt, Illinois"
Pickaway,Ohio,39.64170392,-83.0243386,"Pickaway, Ohio"
Pickens,Alabama,33.28094866,-88.08818103,"Pickens, Alabama"
Pickens,Georgia,34.46589159,-84.46406611,"Pickens, Georgia"
Pickens,South Carolina,34.88807695,-82.72791551,"Pickens, South Carolina"
Pickett,Tennessee,36.55606529,-85.077633,"Pickett, Tennessee"
Pierce,Georgia,31.35928155,-82.21598442,"Pierce, Georgia"
Pierce,Nebraska,42.26434853,-97.60122773,"Pierce, Nebraska"
Pierce,North Dakota,48.24977025,-99.96407787,"Pierce, North Dakota"
Pierce,Washington,47.03892768,-122.1405958,"Pierce, Washington"
Pierce,Wisconsin,44.71850291,-92.4224416,"Pierce, Wisconsin"
Pike,Alabama,31.80396383,-85.9408295,"Pike, Alabama"
Pike,Arkansas,34.16250414,-93.65789349,"Pike, Arkansas"
Pike,Georgia,33.09310242,-84.38790389,"Pike, Georgia"
Pike,Illinois,39.62265059,-90.8877017,"Pike, Illinois"
Pike,Indiana,38.40112197,-87.23574907,"Pike, Indiana"
Pike,Kentucky,37.47088263,-82.39487445,"Pike, Kentucky"
Pike,Mississippi,31.17507789,-90.40392572,"Pike, Mississippi"
Pike,Missouri,39.34310674,-91.16980779,"Pike, Missouri"
Pike,Ohio,39.07634001,-83.06769584,"Pike, Ohio"
Pike,Pennsylvania,41.33155042,-75.03208106,"Pike, Pennsylvania"
Pima,Arizona,32.0971334,-111.7890033,"Pima, Arizona"
Pinal,Arizona,32.90525627,-111.3449483,"Pinal, Arizona"
Pine,Minnesota,46.12105238,-92.74070188,"Pine, Minnesota"
Pinellas,Florida,27.93130349,-82.72239666,"Pinellas, Florida"
Pipestone,Minnesota,44.02301619,-96.25841142,"Pipestone, Minnesota"
Piscataquis,Maine,45.83839062,-69.2860223,"Piscataquis, Maine"
Pitkin,Colorado,39.21720112,-106.9310027,"Pitkin, Colorado"
Pitt,North Carolina,35.59535426,-77.37353178,"Pitt, North Carolina"
Pittsburg,Oklahoma,34.92065823,-95.7513432,"Pittsburg, Oklahoma"
Pittsylvania,Virginia,36.81980341,-79.39731264,"Pittsylvania, Virginia"
Piute,Utah,38.33815254,-112.1249591,"Piute, Utah"
Placer,California,39.06167234,-120.7240569,"Placer, California"
Plaquemines,Louisiana,29.42245447,-89.60322085,"Plaquemines, Louisiana"
Platte,Missouri,39.38154439,-94.77068479,"Platte, Missouri"
Platte,Nebraska,41.57246836,-97.52144359,"Platte, Nebraska"
Platte,Wyoming,42.13299116,-104.966331,"Platte, Wyoming"
Pleasants,West Virginia,39.37091679,-81.16771771,"Pleasants, West Virginia"
Plumas,California,40.00355989,-120.8395236,"Plumas, California"
Plymouth,Iowa,42.737633,-96.21366621,"Plymouth, Iowa"
Plymouth,Massachusetts,41.94070556,-70.80802823,"Plymouth, Massachusetts"
Pocahontas,Iowa,42.73420133,-94.67862564,"Pocahontas, Iowa"
Pocahontas,West Virginia,38.32758728,-80.00993811,"Pocahontas, West Virginia"
Poinsett,Arkansas,35.57433534,-90.66268713,"Poinsett, Arkansas"
Pointe Coupee,Louisiana,30.71409502,-91.60209535,"Pointe Coupee, Louisiana"
Polk,Arkansas,34.48254879,-94.22728802,"Polk, Arkansas"
Polk,Florida,27.95027105,-81.69732947,"Polk, Florida"
Polk,Georgia,34.00267074,-85.18677781,"Polk, Georgia"
Polk,Iowa,41.68679484,-93.57767461,"Polk, Iowa"
Polk,Minnesota,47.77372465,-96.40134647,"Polk, Minnesota"
Polk,Missouri,37.6162296,-93.39828174,"Polk, Missouri"
Polk,Nebraska,41.18813488,-97.56630712,"Polk, Nebraska"
Polk,North Carolina,35.27820615,-82.16812354,"Polk, North Carolina"
Polk,Oregon,44.90322804,-123.4128888,"Polk, Oregon"
Polk,Tennessee,35.12245443,-84.52075859,"Polk, Tennessee"
Polk,Texas,30.79472531,-94.8276624,"Polk, Texas"
Polk,Wisconsin,45.46130348,-92.44182875,"Polk, Wisconsin"
Pondera,Montana,48.22773388,-112.2252703,"Pondera, Montana"
Pontotoc,Mississippi,34.226046,-89.03636807,"Pontotoc, Mississippi"
Pontotoc,Oklahoma,34.72959848,-96.68337199,"Pontotoc, Oklahoma"
Pope,Arkansas,35.44871474,-93.03212219,"Pope, Arkansas"
Pope,Illinois,37.41391284,-88.56152109,"Pope, Illinois"
Pope,Minnesota,45.58606667,-95.44451209,"Pope, Minnesota"
Poquoson,Virginia,37.14259351,-76.35798148,"Poquoson, Virginia"
Portage,Ohio,41.16793482,-81.19735782,"Portage, Ohio"
Portage,Wisconsin,44.47558711,-89.50152965,"Portage, Wisconsin"
Porter,Indiana,41.45986947,-87.06848888,"Porter, Indiana"
Portsmouth,Virginia,36.85914825,-76.35971629,"Portsmouth, Virginia"
Posey,Indiana,38.02097333,-87.86480429,"Posey, Indiana"
Pottawatomie,Kansas,39.37925655,-96.34564657,"Pottawatomie, Kansas"
Pottawatomie,Oklahoma,35.20614018,-96.94923008,"Pottawatomie, Oklahoma"
Pottawattamie,Iowa,41.33640314,-95.53907776,"Pottawattamie, Iowa"
Potter,Pennsylvania,41.74471626,-77.89559864,"Potter, Pennsylvania"
Potter,South Dakota,45.06583079,-99.95498503,"Potter, South Dakota"
Potter,Texas,35.40133773,-101.893964,"Potter, Texas"
Powder River,Montana,45.39617714,-105.636738,"Powder River, Montana"
Powell,Kentucky,37.83218794,-83.82553961,"Powell, Kentucky"
Powell,Montana,46.85538891,-112.9359164,"Powell, Montana"
Power,Idaho,42.69254894,-112.8395742,"Power, Idaho"
Poweshiek,Iowa,41.68625425,-92.53155731,"Poweshiek, Iowa"
Powhatan,Virginia,37.55016038,-77.91267882,"Powhatan, Virginia"
Prairie,Arkansas,34.83624419,-91.55162157,"Prairie, Arkansas"
Prairie,Montana,46.86048047,-105.379384,"Prairie, Montana"
Pratt,Kansas,37.64780729,-98.73922153,"Pratt, Kansas"
Preble,Ohio,39.7420247,-84.64787018,"Preble, Ohio"
Prentiss,Mississippi,34.61810501,-88.51986294,"Prentiss, Mississippi"
Presidio,Texas,29.99954402,-104.2408079,"Presidio, Texas"
Presque Isle,Michigan,45.34018577,-83.91498656,"Presque Isle, Michigan"
Preston,West Virginia,39.46770987,-79.66712803,"Preston, West Virginia"
Price,Wisconsin,45.68051754,-90.3609888,"Price, Wisconsin"
Prince Edward,Virginia,37.22554789,-78.43597949,"Prince Edward, Virginia"
Prince George,Virginia,37.18497668,-77.22922187,"Prince George, Virginia"
Prince George's,Maryland,38.83070039,-76.8496441,"Prince George's, Maryland"
Prince William,Virginia,38.70916224,-77.48713689,"Prince William, Virginia"
Prince of Wales-Hyder,Alaska,55.76261984,-133.0511621,"Prince of Wales-Hyder, Alaska"
Providence,Rhode Island,41.87064746,-71.57753536,"Providence, Rhode Island"
Prowers,Colorado,37.95544985,-102.3926052,"Prowers, Colorado"
Pueblo,Colorado,38.17359144,-104.5127437,"Pueblo, Colorado"
Pulaski,Arkansas,34.77054088,-92.31355101,"Pulaski, Arkansas"
Pulaski,Georgia,32.23334561,-83.4754996,"Pulaski, Georgia"
Pulaski,Illinois,37.22631423,-89.13085001,"Pulaski, Illinois"
Pulaski,Indiana,41.04166107,-86.69890683,"Pulaski, Indiana"
Pulaski,Kentucky,37.10466131,-84.57629079,"Pulaski, Kentucky"
Pulaski,Missouri,37.82462075,-92.20783203,"Pulaski, Missouri"
Pulaski,Virginia,37.06474963,-80.71229738,"Pulaski, Virginia"
Pushmataha,Oklahoma,34.41635232,-95.37603505,"Pushmataha, Oklahoma"
Putnam,Florida,29.60779729,-81.74230285,"Putnam, Florida"
Putnam,Georgia,33.32056115,-83.37552891,"Putnam, Georgia"
Putnam,Illinois,41.2013541,-89.2869272,"Putnam, Illinois"
Putnam,Indiana,39.66437981,-86.84517605,"Putnam, Indiana"
Putnam,Missouri,40.47942497,-93.02042674,"Putnam, Missouri"
Putnam,New York,41.42630093,-73.74965532,"Putnam, New York"
Putnam,Ohio,41.02094889,-84.1336111,"Putnam, Ohio"
Putnam,Tennessee,36.14005459,-85.50646123,"Putnam, Tennessee"
Putnam,West Virginia,38.50782345,-81.9082131,"Putnam, West Virginia"
Quay,New Mexico,35.10403332,-103.5481727,"Quay, New Mexico"
Queen Anne's,Maryland,39.06198912,-76.03530977,"Queen Anne's, Maryland"
Queens,New York,40.71088124,-73.81684712,"Queens, New York"
Quitman,Georgia,31.86728114,-85.01773177,"Quitman, Georgia"
Quitman,Mississippi,34.25157572,-90.28908,"Quitman, Mississippi"
Rabun,Georgia,34.88389445,-83.40304637,"Rabun, Georgia"
Racine,Wisconsin,42.74753117,-88.05941254,"Racine, Wisconsin"
Radford,Virginia,37.12222899,-80.5602732,"Radford, Virginia"
Rains,Texas,32.87109387,-95.79232691,"Rains, Texas"
Raleigh,West Virginia,37.76936795,-81.2456041,"Raleigh, West Virginia"
Ralls,Missouri,39.52817427,-91.51838643,"Ralls, Missouri"
Ramsey,Minnesota,45.01625271,-93.09872295,"Ramsey, Minnesota"
Ramsey,North Dakota,48.26886249,-98.72223879,"Ramsey, North Dakota"
Randall,Texas,34.96585996,-101.8971322,"Randall, Texas"
Randolph,Alabama,33.29526734,-85.45708831,"Randolph, Alabama"
Randolph,Arkansas,36.3415714,-91.02455531,"Randolph, Arkansas"
Randolph,Georgia,31.76622818,-84.75732369,"Randolph, Georgia"
Randolph,Illinois,38.05095369,-89.82512254,"Randolph, Illinois"
Randolph,Indiana,40.15734772,-85.01139319,"Randolph, Indiana"
Randolph,Missouri,39.44007257,-92.4971374,"Randolph, Missouri"
Randolph,North Carolina,35.71015088,-79.80570339,"Randolph, North Carolina"
Randolph,West Virginia,38.769899,-79.87919615,"Randolph, West Virginia"
Rankin,Mississippi,32.26469147,-89.94537876,"Rankin, Mississippi"
Ransom,North Dakota,46.45621782,-97.65742504,"Ransom, North Dakota"
Rapides,Louisiana,31.19778499,-92.52997303,"Rapides, Louisiana"
Rappahannock,Virginia,38.68295619,-78.15826963,"Rappahannock, Virginia"
Ravalli,Montana,46.08520862,-114.1189164,"Ravalli, Montana"
Rawlins,Kansas,39.78525843,-101.0761617,"Rawlins, Kansas"
Ray,Missouri,39.3537468,-93.98905745,"Ray, Missouri"
Reagan,Texas,31.36607041,-101.5232659,"Reagan, Texas"
Real,Texas,29.83321503,-99.82018052,"Real, Texas"
Red Lake,Minnesota,47.87197525,-96.09561104,"Red Lake, Minnesota"
Red River,Louisiana,32.09530039,-93.34213308,"Red River, Louisiana"
Red River,Texas,33.61886692,-95.04841765,"Red River, Texas"
Red Willow,Nebraska,40.1755688,-100.476998,"Red Willow, Nebraska"
Redwood,Minnesota,44.40555844,-95.25207021,"Redwood, Minnesota"
Reeves,Texas,31.32323325,-103.6903896,"Reeves, Texas"
Refugio,Texas,28.3238976,-97.15766311,"Refugio, Texas"
Reno,Kansas,37.95230263,-98.08607292,"Reno, Kansas"
Rensselaer,New York,42.71348136,-73.51089874,"Rensselaer, New York"
Renville,Minnesota,44.72836381,-94.94553734,"Renville, Minnesota"
Renville,North Dakota,48.71982533,-101.6603912,"Renville, North Dakota"
Republic,Kansas,39.82799632,-97.65036709,"Republic, Kansas"
Reynolds,Missouri,37.36085952,-90.97009925,"Reynolds, Missouri"
Rhea,Tennessee,35.60536161,-84.93076643,"Rhea, Tennessee"
Rice,Kansas,38.34616184,-98.19992118,"Rice, Kansas"
Rice,Minnesota,44.3543376,-93.29658715,"Rice, Minnesota"
Rich,Utah,41.63137678,-111.2445105,"Rich, Utah"
Richardson,Nebraska,40.1247415,-95.71755036,"Richardson, Nebraska"
Richland,Illinois,38.71240969,-88.08475366,"Richland, Illinois"
Richland,Louisiana,32.41391005,-91.76634876,"Richland, Louisiana"
Richland,Montana,47.78668011,-104.5610786,"Richland, Montana"
Richland,North Dakota,46.26440649,-96.94852979,"Richland, North Dakota"
Richland,Ohio,40.77180308,-82.5379961,"Richland, Ohio"
Richland,South Carolina,34.01791263,-80.90267209,"Richland, South Carolina"
Richland,Wisconsin,43.3762778,-90.43012729,"Richland, Wisconsin"
Richmond,Georgia,33.35777107,-82.07026432,"Richmond, Georgia"
Richmond,New York,40.58582155,-74.14808598,"Richmond, New York"
Richmond,North Carolina,35.00417719,-79.74491009,"Richmond, North Carolina"
Richmond,Virginia,37.937575,-76.72920628,"Richmond, Virginia"
Richmond City,Virginia,37.53255773,-77.47966921,"Richmond City, Virginia"
Riley,Kansas,39.28935726,-96.73420026,"Riley, Kansas"
Ringgold,Iowa,40.73518949,-94.24368535,"Ringgold, Iowa"
Rio Arriba,New Mexico,36.51072137,-106.6931674,"Rio Arriba, New Mexico"
Rio Blanco,Colorado,39.97913541,-108.2179009,"Rio Blanco, Colorado"
Rio Grande,Colorado,37.5836865,-106.3847838,"Rio Grande, Colorado"
Ripley,Indiana,39.10235626,-85.26212744,"Ripley, Indiana"
Ripley,Missouri,36.65460667,-90.85990261,"Ripley, Missouri"
Ritchie,West Virginia,39.18094587,-81.06356878,"Ritchie, West Virginia"
Riverside,California,33.74314981,-115.9933578,"Riverside, California"
Roane,Tennessee,35.84923189,-84.52458689,"Roane, Tennessee"
Roane,West Virginia,38.71622686,-81.35243568,"Roane, West Virginia"
Roanoke,Virginia,37.26865804,-80.06396753,"Roanoke, Virginia"
Roanoke City,Virginia,37.27791025,-79.96189766,"Roanoke City, Virginia"
Roberts,South Dakota,45.62975048,-96.94672673,"Roberts, South Dakota"
Roberts,Texas,35.83809685,-100.813175,"Roberts, Texas"
Robertson,Kentucky,38.51923469,-84.05055616,"Robertson, Kentucky"
Robertson,Tennessee,36.52454807,-86.87346725,"Robertson, Tennessee"
Robertson,Texas,31.02539637,-96.51272246,"Robertson, Texas"
Robeson,North Carolina,34.64244496,-79.1025053,"Robeson, North Carolina"
Rock,Minnesota,43.67482683,-96.25296832,"Rock, Minnesota"
Rock,Nebraska,42.42252217,-99.44832069,"Rock, Nebraska"
Rock,Wisconsin,42.67151616,-89.071479,"Rock, Wisconsin"
Rock Island,Illinois,41.46613806,-90.57042164,"Rock Island, Illinois"
Rockbridge,Virginia,37.81204314,-79.44605905,"Rockbridge, Virginia"
Rockcastle,Kentucky,37.36642393,-84.31176452,"Rockcastle, Kentucky"
Rockdale,Georgia,33.65145002,-84.02202167,"Rockdale, Georgia"
Rockingham,New Hampshire,42.98499744,-71.12883377,"Rockingham, New Hampshire"
Rockingham,North Carolina,36.39593137,-79.77504841,"Rockingham, North Carolina"
Rockingham,Virginia,38.51006137,-78.87260325,"Rockingham, Virginia"
Rockland,New York,41.15027894,-74.02560498,"Rockland, New York"
Rockwall,Texas,32.89779518,-96.40771592,"Rockwall, Texas"
Roger Mills,Oklahoma,35.68711719,-99.69666167,"Roger Mills, Oklahoma"
Rogers,Oklahoma,36.37004357,-95.60406759,"Rogers, Oklahoma"
Rolette,North Dakota,48.77245354,-99.84097493,"Rolette, North Dakota"
Rooks,Kansas,39.35022773,-99.32484567,"Rooks, Kansas"
Roosevelt,Montana,48.29607488,-105.0079268,"Roosevelt, Montana"
Roosevelt,New Mexico,34.02097406,-103.4799493,"Roosevelt, New Mexico"
Roscommon,Michigan,44.33473082,-84.61067651,"Roscommon, Michigan"
Roseau,Minnesota,48.77501878,-95.81079919,"Roseau, Minnesota"
Rosebud,Montana,46.23397237,-106.729288,"Rosebud, Montana"
Ross,Ohio,39.33705391,-83.06000914,"Ross, Ohio"
Routt,Colorado,40.48596505,-106.9905548,"Routt, Colorado"
Rowan,Kentucky,38.19484205,-83.42088935,"Rowan, Kentucky"
Rowan,North Carolina,35.64003916,-80.52446628,"Rowan, North Carolina"
Runnels,Texas,31.8314342,-99.97616148,"Runnels, Texas"
Rush,Indiana,39.62002287,-85.4655599,"Rush, Indiana"
Rush,Kansas,38.52275276,-99.30863983,"Rush, Kansas"
Rusk,Texas,32.10773545,-94.76176432,"Rusk, Texas"
Rusk,Wisconsin,45.47498854,-91.1333012,"Rusk, Wisconsin"
Russell,Alabama,32.28725256,-85.18415324,"Russell, Alabama"
Russell,Kansas,38.91462787,-98.76254297,"Russell, Kansas"
Russell,Kentucky,36.99308373,-85.06070117,"Russell, Kentucky"
Russell,Virginia,36.9302832,-82.10095486,"Russell, Virginia"
Rutherford,North Carolina,35.40114178,-81.92112099,"Rutherford, North Carolina"
Rutherford,Tennessee,35.84591405,-86.4107263,"Rutherford, Tennessee"
Rutland,Vermont,43.57723578,-73.03741676,"Rutland, Vermont"
Sabine,Louisiana,31.56388699,-93.55433981,"Sabine, Louisiana"
Sabine,Texas,31.34318809,-93.85440451,"Sabine, Texas"
Sac,Iowa,42.38624071,-95.10547892,"Sac, Iowa"
Sacramento,California,38.45106826,-121.3425374,"Sacramento, California"
Sagadahoc,Maine,43.95415864,-69.85074999,"Sagadahoc, Maine"
Saginaw,Michigan,43.33433923,-84.0513121,"Saginaw, Michigan"
Saguache,Colorado,38.08054629,-106.282466,"Saguache, Colorado"
Salem,New Jersey,39.58719656,-75.3469663,"Salem, New Jersey"
Salem,Virginia,37.2836193,-80.06219455,"Salem, Virginia"
Saline,Arkansas,34.64916145,-92.67583224,"Saline, Arkansas"
Saline,Illinois,37.75332999,-88.54119706,"Saline, Illinois"
Saline,Kansas,38.78369175,-97.65185177,"Saline, Kansas"
Saline,Missouri,39.13734288,-93.20259964,"Saline, Missouri"
Saline,Nebraska,40.52418865,-97.14085859,"Saline, Nebraska"
Salt Lake,Utah,40.66616532,-111.9216011,"Salt Lake, Utah"
Saluda,South Carolina,34.00795823,-81.72713237,"Saluda, South Carolina"
Sampson,North Carolina,34.98820368,-78.36914061,"Sampson, North Carolina"
San Augustine,Texas,31.39457611,-94.17000399,"San Augustine, Texas"
San Benito,California,36.60308176,-121.069975,"San Benito, California"
San Bernardino,California,34.84060306,-116.1774685,"San Bernardino, California"
San Diego,California,33.03484597,-116.7365326,"San Diego, California"
San Francisco,California,37.75215114,-122.4385672,"San Francisco, California"
San Jacinto,Texas,30.57933681,-95.16260304,"San Jacinto, Texas"
San Joaquin,California,37.93433732,-121.2730061,"San Joaquin, California"
San Juan,Colorado,37.76248981,-107.6763289,"San Juan, Colorado"
San Juan,New Mexico,36.50838318,-108.320437,"San Juan, New Mexico"
San Juan,Utah,37.62762978,-109.8033714,"San Juan, Utah"
San Juan,Washington,48.60182783,-122.96745,"San Juan, Washington"
San Luis Obispo,California,35.38822029,-120.4039028,"San Luis Obispo, California"
San Mateo,California,37.4228808,-122.3275546,"San Mateo, California"
San Miguel,Colorado,38.00450883,-108.4020725,"San Miguel, Colorado"
San Miguel,New Mexico,35.48014807,-104.8163562,"San Miguel, New Mexico"
San Patricio,Texas,28.00880118,-97.51763891,"San Patricio, Texas"
San Saba,Texas,31.1577796,-98.81758731,"San Saba, Texas"
Sanborn,South Dakota,44.02351092,-98.0909816,"Sanborn, South Dakota"
Sanders,Montana,47.67657534,-115.1329916,"Sanders, Montana"
Sandoval,New Mexico,35.68862401,-106.8687803,"Sandoval, New Mexico"
Sandusky,Ohio,41.35624126,-83.137872,"Sandusky, Ohio"
Sangamon,Illinois,39.75836914,-89.65872023,"Sangamon, Illinois"
Sanilac,Michigan,43.42406072,-82.82055898,"Sanilac, Michigan"
Sanpete,Utah,39.37231946,-111.5758676,"Sanpete, Utah"
Santa Barbara,California,34.65329488,-120.0188492,"Santa Barbara, California"
Santa Clara,California,37.23104908,-121.6970462,"Santa Clara, California"
Santa Cruz,Arizona,31.52508998,-110.8479088,"Santa Cruz, Arizona"
Santa Cruz,California,37.05580291,-122.0066524,"Santa Cruz, California"
Santa Fe,New Mexico,35.50708973,-105.9774716,"Santa Fe, New Mexico"
Santa Rosa,Florida,30.6934145,-87.02458128,"Santa Rosa, Florida"
Sarasota,Florida,27.18546175,-82.33174248,"Sarasota, Florida"
Saratoga,New York,43.10904162,-73.86653895,"Saratoga, New York"
Sargent,North Dakota,46.10830372,-97.63217159,"Sargent, North Dakota"
Sarpy,Nebraska,41.11314181,-96.11156432,"Sarpy, Nebraska"
Sauk,Wisconsin,43.42574087,-89.94966132,"Sauk, Wisconsin"
Saunders,Nebraska,41.2278103,-96.63773905,"Saunders, Nebraska"
Sawyer,Wisconsin,45.87931905,-91.14504927,"Sawyer, Wisconsin"
Schenectady,New York,42.81668777,-74.05278291,"Schenectady, New York"
Schleicher,Texas,30.89740592,-100.5384842,"Schleicher, Texas"
Schley,Georgia,32.2654021,-84.31258912,"Schley, Georgia"
Schoharie,New York,42.58831742,-74.4433903,"Schoharie, New York"
Schoolcraft,Michigan,46.19235734,-86.19972234,"Schoolcraft, Michigan"
Schuyler,Illinois,40.1571798,-90.61114163,"Schuyler, Illinois"
Schuyler,Missouri,40.46921489,-92.52311943,"Schuyler, Missouri"
Schuyler,New York,42.39184015,-76.8773299,"Schuyler, New York"
Schuylkill,Pennsylvania,40.70497338,-76.2150785,"Schuylkill, Pennsylvania"
Scioto,Ohio,38.80270163,-82.98907345,"Scioto, Ohio"
Scotland,Missouri,40.45214695,-92.14709064,"Scotland, Missouri"
Scotland,North Carolina,34.8386299,-79.4757978,"Scotland, North Carolina"
Scott,Arkansas,34.85588887,-94.0632176,"Scott, Arkansas"
Scott,Illinois,39.6429169,-90.47814431,"Scott, Illinois"
Scott,Indiana,38.68672078,-85.74627859,"Scott, Indiana"
Scott,Iowa,41.63935978,-90.61959493,"Scott, Iowa"
Scott,Kansas,38.48222076,-100.9066539,"Scott, Kansas"
Scott,Kentucky,38.29622293,-84.5816631,"Scott, Kentucky"
Scott,Minnesota,44.6490231,-93.53340251,"Scott, Minnesota"
Scott,Mississippi,32.4067041,-89.53789439,"Scott, Mississippi"
Scott,Missouri,37.05588075,-89.56474493,"Scott, Missouri"
Scott,Tennessee,36.42325673,-84.50360494,"Scott, Tennessee"
Scott,Virginia,36.71466456,-82.60171704,"Scott, Virginia"
Scotts Bluff,Nebraska,41.85070896,-103.7080986,"Scotts Bluff, Nebraska"
Screven,Georgia,32.74976524,-81.60779441,"Screven, Georgia"
Scurry,Texas,32.74613808,-100.9162664,"Scurry, Texas"
Searcy,Arkansas,35.9109364,-92.69936482,"Searcy, Arkansas"
Sebastian,Arkansas,35.19605503,-94.27162713,"Sebastian, Arkansas"
Sedgwick,Colorado,40.87595412,-102.3519227,"Sedgwick, Colorado"
Sedgwick,Kansas,37.6842718,-97.4608198,"Sedgwick, Kansas"
Seminole,Florida,28.7158582,-81.24060348,"Seminole, Florida"
Seminole,Georgia,30.93464824,-84.86823924,"Seminole, Georgia"
Seminole,Oklahoma,35.16478725,-96.61686741,"Seminole, Oklahoma"
Seneca,New York,42.78081007,-76.82497064,"Seneca, New York"
Seneca,Ohio,41.12351311,-83.12783209,"Seneca, Ohio"
Sequatchie,Tennessee,35.36979721,-85.41022136,"Sequatchie, Tennessee"
Sequoyah,Oklahoma,35.49447108,-94.75463785,"Sequoyah, Oklahoma"
Sevier,Arkansas,33.99780401,-94.2424869,"Sevier, Arkansas"
Sevier,Tennessee,35.78077323,-83.52244332,"Sevier, Tennessee"
Sevier,Utah,38.74837146,-111.8050275,"Sevier, Utah"
Seward,Kansas,37.19324632,-100.8507201,"Seward, Kansas"
Seward,Nebraska,40.87241834,-97.139673,"Seward, Nebraska"
Shackelford,Texas,32.73587756,-99.35401337,"Shackelford, Texas"
Shannon,Missouri,37.15772072,-91.40190382,"Shannon, Missouri"
Sharkey,Mississippi,32.88149103,-90.8159538,"Sharkey, Mississippi"
Sharp,Arkansas,36.16258158,-91.47819342,"Sharp, Arkansas"
Shasta,California,40.76391419,-122.0396884,"Shasta, California"
Shawano,Wisconsin,44.78902246,-88.76443896,"Shawano, Wisconsin"
Shawnee,Kansas,39.04100763,-95.7557264,"Shawnee, Kansas"
Sheboygan,Wisconsin,43.72099677,-87.94579284,"Sheboygan, Wisconsin"
Shelby,Alabama,33.26879845,-86.66232561,"Shelby, Alabama"
Shelby,Illinois,39.39133527,-88.80611122,"Shelby, Illinois"
Shelby,Indiana,39.52305623,-85.7915857,"Shelby, Indiana"
Shelby,Iowa,41.6850066,-95.31015553,"Shelby, Iowa"
Shelby,Kentucky,38.21476019,-85.194223,"Shelby, Kentucky"
Shelby,Missouri,39.79742518,-92.07634971,"Shelby, Missouri"
Shelby,Ohio,40.33163494,-84.20258189,"Shelby, Ohio"
Shelby,Tennessee,35.1864775,-89.89692423,"Shelby, Tennessee"
Shelby,Texas,31.79211404,-94.14550696,"Shelby, Texas"
Shenandoah,Virginia,38.85905135,-78.56813762,"Shenandoah, Virginia"
Sherburne,Minnesota,45.44447208,-93.77617511,"Sherburne, Minnesota"
Sheridan,Kansas,39.35018161,-100.4418259,"Sheridan, Kansas"
Sheridan,Montana,48.72085833,-104.503829,"Sheridan, Montana"
Sheridan,Nebraska,42.50284406,-102.4126613,"Sheridan, Nebraska"
Sheridan,North Dakota,47.57700669,-100.3426391,"Sheridan, North Dakota"
Sheridan,Wyoming,44.79048913,-106.8862389,"Sheridan, Wyoming"
Sherman,Kansas,39.35147699,-101.7197624,"Sherman, Kansas"
Sherman,Nebraska,41.22045983,-98.97588642,"Sherman, Nebraska"
Sherman,Oregon,45.41501554,-120.6827834,"Sherman, Oregon"
Sherman,Texas,36.27751473,-101.8933156,"Sherman, Texas"
Shiawassee,Michigan,42.953928,-84.14585902,"Shiawassee, Michigan"
Shoshone,Idaho,47.35364087,-115.8916749,"Shoshone, Idaho"
Sibley,Minnesota,44.5796592,-94.23164924,"Sibley, Minnesota"
Sierra,California,39.57713498,-120.5200701,"Sierra, California"
Sierra,New Mexico,33.13028233,-107.1925893,"Sierra, New Mexico"
Silver Bow,Montana,45.90018933,-112.6620092,"Silver Bow, Montana"
Simpson,Kentucky,36.74058474,-86.58047435,"Simpson, Kentucky"
Simpson,Mississippi,31.91282117,-89.91716179,"Simpson, Mississippi"
Sioux,Iowa,43.08221074,-96.1767568,"Sioux, Iowa"
Sioux,Nebraska,42.48932059,-103.7576544,"Sioux, Nebraska"
Sioux,North Dakota,46.11323337,-101.0440149,"Sioux, North Dakota"
Siskiyou,California,41.59198861,-122.5407434,"Siskiyou, California"
Sitka,Alaska,57.24124555,-135.3206587,"Sitka, Alaska"
Skagit,Washington,48.48171488,-121.766131,"Skagit, Washington"
Skagway,Alaska,59.56149996,-135.3337748,"Skagway, Alaska"
Skamania,Washington,46.02408726,-121.9164403,"Skamania, Washington"
Slope,North Dakota,46.44737738,-103.4601547,"Slope, North Dakota"
Smith,Kansas,39.78516566,-98.78566062,"Smith, Kansas"
Smith,Mississippi,32.01744532,-89.50644846,"Smith, Mississippi"
Smith,Tennessee,36.25359775,-85.95411046,"Smith, Tennessee"
Smith,Texas,32.37474036,-95.2717568,"Smith, Texas"
Smyth,Virginia,36.84455636,-81.53344948,"Smyth, Virginia"
Snohomish,Washington,48.04615983,-121.7170703,"Snohomish, Washington"
Snyder,Pennsylvania,40.77129231,-77.06840691,"Snyder, Pennsylvania"
Socorro,New Mexico,34.00715494,-106.9298354,"Socorro, New Mexico"
Solano,California,38.26827353,-121.9357113,"Solano, California"
Somerset,Maine,45.51229767,-69.95995554,"Somerset, Maine"
Somerset,Maryland,38.1163542,-75.75118623,"Somerset, Maryland"
Somerset,New Jersey,40.56465737,-74.61683016,"Somerset, New Jersey"
Somerset,Pennsylvania,39.97172723,-79.02699593,"Somerset, Pennsylvania"
Somervell,Texas,32.22236802,-97.77403489,"Somervell, Texas"
Sonoma,California,38.52746429,-122.8862506,"Sonoma, California"
Southampton,Virginia,36.72231125,-77.10642712,"Southampton, Virginia"
Southeast Fairbanks,Alaska,63.87692095,-143.2127643,"Southeast Fairbanks, Alaska"
Spalding,Georgia,33.26310031,-84.28013991,"Spalding, Georgia"
Spartanburg,South Carolina,34.92960077,-81.99225984,"Spartanburg, South Carolina"
Spencer,Indiana,38.01519732,-87.0079644,"Spencer, Indiana"
Spencer,Kentucky,38.03223971,-85.32749335,"Spencer, Kentucky"
Spink,South Dakota,44.93837606,-98.34626602,"Spink, South Dakota"
Spokane,Washington,47.62113146,-117.4046494,"Spokane, Washington"
Spotsylvania,Virginia,38.18574462,-77.655399,"Spotsylvania, Virginia"
St. Bernard,Louisiana,29.87761636,-89.51887093,"St. Bernard, Louisiana"
St. Charles,Louisiana,29.90709658,-90.35555967,"St. Charles, Louisiana"
St. Charles,Missouri,38.77875681,-90.66662425,"St. Charles, Missouri"
St. Clair,Alabama,33.71902176,-86.31029372,"St. Clair, Alabama"
St. Clair,Illinois,38.46996033,-89.93063427,"St. Clair, Illinois"
St. Clair,Michigan,42.92655373,-82.67937954,"St. Clair, Michigan"
St. Clair,Missouri,38.03699437,-93.77631447,"St. Clair, Missouri"
St. Croix,Wisconsin,45.03437474,-92.45000068,"St. Croix, Wisconsin"
St. Francis,Arkansas,35.02201976,-90.74828138,"St. Francis, Arkansas"
St. Francois,Missouri,37.81214171,-90.47598685,"St. Francois, Missouri"
St. Helena,Louisiana,30.82210324,-90.71013176,"St. Helena, Louisiana"
St. James,Louisiana,30.02531716,-90.80212061,"St. James, Louisiana"
St. John the Baptist,Louisiana,30.12597499,-90.4753503,"St. John the Baptist, Louisiana"
St. Johns,Florida,29.90096506,-81.43589967,"St. Johns, Florida"
St. Joseph,Indiana,41.61756781,-86.29040834,"St. Joseph, Indiana"
St. Joseph,Michigan,41.91441767,-85.52797979,"St. Joseph, Michigan"
St. Landry,Louisiana,30.59724262,-92.00135806,"St. Landry, Louisiana"
St. Lawrence,New York,44.4976179,-75.06550039,"St. Lawrence, New York"
St. Louis,Minnesota,47.6048407,-92.46879855,"St. Louis, Minnesota"
St. Louis,Missouri,38.6377004,-90.4458375,"St. Louis, Missouri"
St. Louis City,Missouri,38.63555736,-90.24349225,"St. Louis City, Missouri"
St. Lucie,Florida,27.37763908,-80.47106649,"St. Lucie, Florida"
St. Martin,Louisiana,30.13112107,-91.61403569,"St. Martin, Louisiana"
St. Mary,Louisiana,29.69262097,-91.44702164,"St. Mary, Louisiana"
St. Mary's,Maryland,38.30058422,-76.6062928,"St. Mary's, Maryland"
St. Tammany,Louisiana,30.40942847,-89.95642711,"St. Tammany, Louisiana"
Stafford,Kansas,38.03100851,-98.71762001,"Stafford, Kansas"
Stafford,Virginia,38.41758738,-77.45917053,"Stafford, Virginia"
Stanislaus,California,37.55862499,-120.9970722,"Stanislaus, California"
Stanley,South Dakota,44.41381872,-100.7349153,"Stanley, South Dakota"
Stanly,North Carolina,35.31647813,-80.25093221,"Stanly, North Carolina"
Stanton,Kansas,37.56304714,-101.7843534,"Stanton, Kansas"
Stanton,Nebraska,41.9169835,-97.19394708,"Stanton, Nebraska"
Stark,Illinois,41.09309773,-89.79745866,"Stark, Illinois"
Stark,North Dakota,46.80851182,-102.6576326,"Stark, North Dakota"
Stark,Ohio,40.81482476,-81.36437305,"Stark, Ohio"
Starke,Indiana,41.27890281,-86.64686895,"Starke, Indiana"
Starr,Texas,26.56150059,-98.73892358,"Starr, Texas"
Staunton,Virginia,38.15965544,-79.05979937,"Staunton, Virginia"
Ste. Genevieve,Missouri,37.89090059,-90.1949941,"Ste. Genevieve, Missouri"
Stearns,Minnesota,45.55192576,-94.61078221,"Stearns, Minnesota"
Steele,Minnesota,44.02240351,-93.22627088,"Steele, Minnesota"
Steele,North Dakota,47.45611548,-97.72728747,"Steele, North Dakota"
Stephens,Georgia,34.55151201,-83.29405315,"Stephens, Georgia"
Stephens,Oklahoma,34.48556989,-97.85141892,"Stephens, Oklahoma"
Stephens,Texas,32.73553157,-98.83631615,"Stephens, Texas"
Stephenson,Illinois,42.35129217,-89.662598,"Stephenson, Illinois"
Sterling,Texas,31.82781912,-101.0500746,"Sterling, Texas"
Steuben,Indiana,41.64423868,-85.00101094,"Steuben, Indiana"
Steuben,New York,42.2689144,-77.3829924,"Steuben, New York"
Stevens,Kansas,37.1923008,-101.3118967,"Stevens, Kansas"
Stevens,Minnesota,45.58613007,-96.00163705,"Stevens, Minnesota"
Stevens,Washington,48.40035475,-117.8542701,"Stevens, Washington"
Stewart,Georgia,32.07996777,-84.83208037,"Stewart, Georgia"
Stewart,Tennessee,36.50235092,-87.83920548,"Stewart, Tennessee"
Stillwater,Montana,45.67071407,-109.3950061,"Stillwater, Montana"
Stoddard,Missouri,36.85571651,-89.9444155,"Stoddard, Missouri"
Stokes,North Carolina,36.4017975,-80.23893369,"Stokes, North Carolina"
Stone,Arkansas,35.86251946,-92.15684085,"Stone, Arkansas"
Stone,Mississippi,30.79187949,-89.11547539,"Stone, Mississippi"
Stone,Missouri,36.75000327,-93.45256475,"Stone, Missouri"
Stonewall,Texas,33.17906744,-100.2538401,"Stonewall, Texas"
Storey,Nevada,39.44875482,-119.5250207,"Storey, Nevada"
Story,Iowa,42.03621213,-93.46499005,"Story, Iowa"
Strafford,New Hampshire,43.291833,-71.02336013,"Strafford, New Hampshire"
Stutsman,North Dakota,46.97962541,-98.95637318,"Stutsman, North Dakota"
Sublette,Wyoming,42.76558279,-109.9130922,"Sublette, Wyoming"
Suffolk,Massachusetts,42.3279514,-71.07850442,"Suffolk, Massachusetts"
Suffolk,New York,40.88320119,-72.8012172,"Suffolk, New York"
Suffolk,Virginia,36.70155394,-76.63603554,"Suffolk, Virginia"
Sullivan,Indiana,39.08952258,-87.41414469,"Sullivan, Indiana"
Sullivan,Missouri,40.2099105,-93.11150106,"Sullivan, Missouri"
Sullivan,New Hampshire,43.36094111,-72.22203125,"Sullivan, New Hampshire"
Sullivan,New York,41.71579493,-74.76394559,"Sullivan, New York"
Sullivan,Pennsylvania,41.44634738,-76.51246591,"Sullivan, Pennsylvania"
Sullivan,Tennessee,36.51240691,-82.30412917,"Sullivan, Tennessee"
Sully,South Dakota,44.71571812,-100.1278092,"Sully, South Dakota"
Summers,West Virginia,37.65390597,-80.86009693,"Summers, West Virginia"
Summit,Colorado,39.63803232,-106.1150762,"Summit, Colorado"
Summit,Ohio,41.12464734,-81.53123079,"Summit, Ohio"
Summit,Utah,40.86688146,-110.9535882,"Summit, Utah"
Sumner,Kansas,37.23682549,-97.47721621,"Sumner, Kansas"
Sumner,Tennessee,36.46824103,-86.45917204,"Sumner, Tennessee"
Sumter,Alabama,32.59117397,-88.19916205,"Sumter, Alabama"
Sumter,Florida,28.70181754,-82.0794267,"Sumter, Florida"
Sumter,Georgia,32.03650571,-84.19821492,"Sumter, Georgia"
Sumter,South Carolina,33.91826534,-80.37942316,"Sumter, South Carolina"
Sunflower,Mississippi,33.60192578,-90.58882684,"Sunflower, Mississippi"
Surry,North Carolina,36.41689489,-80.69102283,"Surry, North Carolina"
Surry,Virginia,37.11781893,-76.88450012,"Surry, Virginia"
Susquehanna,Pennsylvania,41.82147784,-75.80071959,"Susquehanna, Pennsylvania"
Sussex,Delaware,38.66143781,-75.39031349,"Sussex, Delaware"
Sussex,New Jersey,41.13891592,-74.69118243,"Sussex, New Jersey"
Sussex,Virginia,36.92432914,-77.25791182,"Sussex, Virginia"
Sutter,California,39.03417539,-121.6945899,"Sutter, California"
Sutton,Texas,30.49856623,-100.5382014,"Sutton, Texas"
Suwannee,Florida,30.19746066,-82.9909967,"Suwannee, Florida"
Swain,North Carolina,35.48665845,-83.48748932,"Swain, North Carolina"
Sweet Grass,Montana,45.81367654,-109.9425686,"Sweet Grass, Montana"
Sweetwater,Wyoming,41.65943896,-108.8827882,"Sweetwater, Wyoming"
Swift,Minnesota,45.2829032,-95.68264092,"Swift, Minnesota"
Swisher,Texas,34.53028891,-101.7349174,"Swisher, Texas"
Switzerland,Indiana,38.82767338,-85.03022429,"Switzerland, Indiana"
Talbot,Georgia,32.69642758,-84.53351366,"Talbot, Georgia"
Talbot,Maryland,38.76618159,-76.10882561,"Talbot, Maryland"
Taliaferro,Georgia,33.56543317,-82.88136816,"Taliaferro, Georgia"
Talladega,Alabama,33.37823223,-86.16886178,"Talladega, Alabama"
Tallahatchie,Mississippi,33.95339918,-90.1729398,"Tallahatchie, Mississippi"
Tallapoosa,Alabama,32.86698258,-85.79833053,"Tallapoosa, Alabama"
Tama,Iowa,42.07991767,-92.53266945,"Tama, Iowa"
Taney,Missouri,36.65465345,-93.04075153,"Taney, Missouri"
Tangipahoa,Louisiana,30.62888673,-90.40664996,"Tangipahoa, Louisiana"
Taos,New Mexico,36.58006022,-105.6310198,"Taos, New Mexico"
Tarrant,Texas,32.77143818,-97.29101614,"Tarrant, Texas"
Tate,Mississippi,34.65133709,-89.94485778,"Tate, Mississippi"
Tattnall,Georgia,32.04785085,-82.05539188,"Tattnall, Georgia"
Taylor,Florida,30.04848048,-83.60445406,"Taylor, Florida"
Taylor,Georgia,32.55792548,-84.25077141,"Taylor, Georgia"
Taylor,Iowa,40.73710579,-94.69778563,"Taylor, Iowa"
Taylor,Kentucky,37.3677562,-85.3329931,"Taylor, Kentucky"
Taylor,Texas,32.30163422,-99.89007449,"Taylor, Texas"
Taylor,West Virginia,39.33602617,-80.0421439,"Taylor, West Virginia"
Taylor,Wisconsin,45.21179252,-90.5004405,"Taylor, Wisconsin"
Tazewell,Illinois,40.50716185,-89.51404662,"Tazewell, Illinois"
Tazewell,Virginia,37.12191123,-81.56685568,"Tazewell, Virginia"
Tehama,California,40.12570935,-122.2370171,"Tehama, California"
Telfair,Georgia,31.92829517,-82.93491155,"Telfair, Georgia"
Teller,Colorado,38.88133511,-105.1614893,"Teller, Colorado"
Tensas,Louisiana,32.00760749,-91.32915234,"Tensas, Louisiana"
Terrebonne,Louisiana,29.37343766,-90.82626855,"Terrebonne, Louisiana"
Terrell,Georgia,31.77527543,-84.44069698,"Terrell, Georgia"
Terrell,Texas,30.22429013,-102.0766732,"Terrell, Texas"
Terry,Texas,33.17402785,-102.3354521,"Terry, Texas"
Teton,Idaho,43.75303583,-111.2056773,"Teton, Idaho"
Teton,Montana,47.83741052,-112.2410688,"Teton, Montana"
Teton,Wyoming,43.93522482,-110.5890801,"Teton, Wyoming"
Texas,Missouri,37.31728859,-91.96564727,"Texas, Missouri"
Texas,Oklahoma,36.74777635,-101.4889765,"Texas, Oklahoma"
Thayer,Nebraska,40.17626377,-97.59504381,"Thayer, Nebraska"
Thomas,Georgia,30.86392347,-83.91847289,"Thomas, Georgia"
Thomas,Kansas,39.35107575,-101.0553705,"Thomas, Kansas"
Thomas,Nebraska,41.91358968,-100.5556632,"Thomas, Nebraska"
Throckmorton,Texas,33.17751417,-99.21226795,"Throckmorton, Texas"
Thurston,Nebraska,42.15725356,-96.54157099,"Thurston, Nebraska"
Thurston,Washington,46.9291895,-122.8290656,"Thurston, Washington"
Tift,Georgia,31.45743864,-83.5236119,"Tift, Georgia"
Tillamook,Oregon,45.46248721,-123.712066,"Tillamook, Oregon"
Tillman,Oklahoma,34.37288446,-98.92426619,"Tillman, Oklahoma"
Tioga,New York,42.16852837,-76.30835812,"Tioga, New York"
Tioga,Pennsylvania,41.77255149,-77.25433032,"Tioga, Pennsylvania"
Tippah,Mississippi,34.76872156,-88.90988194,"Tippah, Mississippi"
Tippecanoe,Indiana,40.38872739,-86.89413959,"Tippecanoe, Indiana"
Tipton,Indiana,40.31123252,-86.05234925,"Tipton, Indiana"
Tipton,Tennessee,35.501942,-89.73694895,"Tipton, Tennessee"
Tishomingo,Mississippi,34.74023475,-88.23917219,"Tishomingo, Mississippi"
Titus,Texas,33.21339719,-94.96797273,"Titus, Texas"
Todd,Kentucky,36.8381152,-87.17878374,"Todd, Kentucky"
Todd,Minnesota,46.06996226,-94.89785296,"Todd, Minnesota"
Todd,South Dakota,43.19338568,-100.7195503,"Todd, South Dakota"
Tolland,Connecticut,41.85853803,-72.3308481,"Tolland, Connecticut"
Tom Green,Texas,31.40464436,-100.462443,"Tom Green, Texas"
Tompkins,New York,42.44945765,-76.47229843,"Tompkins, New York"
Tooele,Utah,40.44862644,-113.1295715,"Tooele, Utah"
Toole,Montana,48.65577551,-111.6942414,"Toole, Montana"
Toombs,Georgia,32.12059861,-82.32957247,"Toombs, Georgia"
Torrance,New Mexico,34.64048375,-105.8508949,"Torrance, New Mexico"
Towner,North Dakota,48.68565745,-99.24564265,"Towner, North Dakota"
Towns,Georgia,34.91369188,-83.7410746,"Towns, Georgia"
Traill,North Dakota,47.45367788,-97.16323288,"Traill, North Dakota"
Transylvania,North Carolina,35.20383864,-82.79638423,"Transylvania, North Carolina"
Traverse,Minnesota,45.77298854,-96.47062949,"Traverse, Minnesota"
Travis,Texas,30.33432034,-97.7853562,"Travis, Texas"
Treasure,Montana,46.2097322,-107.2666516,"Treasure, Montana"
Trego,Kansas,38.91467218,-99.87284448,"Trego, Kansas"
Trempealeau,Wisconsin,44.30360275,-91.35893614,"Trempealeau, Wisconsin"
Treutlen,Georgia,32.40422134,-82.56904553,"Treutlen, Georgia"
Trigg,Kentucky,36.80767017,-87.87333656,"Trigg, Kentucky"
Trimble,Kentucky,38.61056487,-85.33775972,"Trimble, Kentucky"
Trinity,California,40.6491767,-123.114713,"Trinity, California"
Trinity,Texas,31.0879489,-95.1367187,"Trinity, Texas"
Tripp,South Dakota,43.34459388,-99.8854891,"Tripp, South Dakota"
Troup,Georgia,33.03349196,-85.02812115,"Troup, Georgia"
Trousdale,Tennessee,36.39026213,-86.16087954,"Trousdale, Tennessee"
Trumbull,Ohio,41.31735028,-80.76109643,"Trumbull, Ohio"
Tucker,West Virginia,39.11240885,-79.57053576,"Tucker, West Virginia"
Tulare,California,36.22026558,-118.8020203,"Tulare, California"
Tulsa,Oklahoma,36.11939621,-95.94013939,"Tulsa, Oklahoma"
Tunica,Mississippi,34.64967704,-90.37481167,"Tunica, Mississippi"
Tuolumne,California,38.02644018,-119.9525093,"Tuolumne, California"
Turner,Georgia,31.71612656,-83.62069378,"Turner, Georgia"
Turner,South Dakota,43.3109081,-97.14865776,"Turner, South Dakota"
Tuscaloosa,Alabama,33.28726072,-87.52556818,"Tuscaloosa, Alabama"
Tuscarawas,Ohio,40.44214695,-81.47226262,"Tuscarawas, Ohio"
Tuscola,Michigan,43.46606813,-83.41897025,"Tuscola, Michigan"
Twiggs,Georgia,32.67435595,-83.43078662,"Twiggs, Georgia"
Twin Falls,Idaho,42.35440512,-114.6685381,"Twin Falls, Idaho"
Tyler,Texas,30.77031716,-94.37690895,"Tyler, Texas"
Tyler,West Virginia,39.46811972,-80.88772676,"Tyler, West Virginia"
Tyrrell,North Carolina,35.87147226,-76.17055253,"Tyrrell, North Carolina"
Uinta,Wyoming,41.2878183,-110.5475782,"Uinta, Wyoming"
Uintah,Utah,40.12491499,-109.5174415,"Uintah, Utah"
Ulster,New York,41.89027881,-74.26252104,"Ulster, New York"
Umatilla,Oregon,45.59073056,-118.7353826,"Umatilla, Oregon"
Unassigned,Arizona,0,0,"Unassigned, Arizona"
Unassigned,Arkansas,0,0,"Unassigned, Arkansas"
Unassigned,Colorado,0,0,"Unassigned, Colorado"
Unassigned,Florida,0,0,"Unassigned, Florida"
Unassigned,Georgia,0,0,"Unassigned, Georgia"
Unassigned,Hawaii,0,0,"Unassigned, Hawaii"
Unassigned,Illinois,0,0,"Unassigned, Illinois"
Unassigned,Iowa,0,0,"Unassigned, Iowa"
Unassigned,Kentucky,0,0,"Unassigned, Kentucky"
Unassigned,Louisiana,0,0,"Unassigned, Louisiana"
Unassigned,Massachusetts,0,0,"Unassigned, Massachusetts"
Unassigned,Missouri,0,0,"Unassigned, Missouri"
Unassigned,Montana,0,0,"Unassigned, Montana"
Unassigned,Nevada,0,0,"Unassigned, Nevada"
Unassigned,New Jersey,0,0,"Unassigned, New Jersey"
Unassigned,New York,0,0,"Unassigned, New York"
Unassigned,Rhode Island,0,0,"Unassigned, Rhode Island"
Unassigned,Tennessee,0,0,"Unassigned, Tennessee"
Unassigned,Vermont,0,0,"Unassigned, Vermont"
Unassigned,Washington,0,0,"Unassigned, Washington"
Unassigned,Wuhan Evacuee,0,0,"Unassigned, Wuhan Evacuee"
Unicoi,Tennessee,36.10890856,-82.43709629,"Unicoi, Tennessee"
Union,Arkansas,33.16887091,-92.59746952,"Union, Arkansas"
Union,Florida,30.04412971,-82.37497443,"Union, Florida"
Union,Georgia,34.82995757,-83.98967069,"Union, Georgia"
Union,Illinois,37.47119609,-89.25548938,"Union, Illinois"
Union,Indiana,39.62550777,-84.92497066,"Union, Indiana"
Union,Iowa,41.0277278,-94.24234847,"Union, Iowa"
Union,Kentucky,37.66166713,-87.94300009,"Union, Kentucky"
Union,Louisiana,32.83121059,-92.3749373,"Union, Louisiana"
Union,Mississippi,34.49162015,-89.00776006,"Union, Mississippi"
Union,New Jersey,40.65835409,-74.30680092,"Union, New Jersey"
Union,New Mexico,36.48126404,-103.4709624,"Union, New Mexico"
Union,North Carolina,34.98960527,-80.52955873,"Union, North Carolina"
Union,Ohio,40.30016061,-83.37239023,"Union, Ohio"
Union,Oregon,45.30915495,-118.0068979,"Union, Oregon"
Union,Pennsylvania,40.96188846,-77.05996014,"Union, Pennsylvania"
Union,South Carolina,34.68835752,-81.61730349,"Union, South Carolina"
Union,South Dakota,42.83112163,-96.6557828,"Union, South Dakota"
Union,Tennessee,36.28590426,-83.83651902,"Union, Tennessee"
Upshur,Texas,32.73706798,-94.93999853,"Upshur, Texas"
Upshur,West Virginia,38.89285061,-80.23689136,"Upshur, West Virginia"
Upson,Georgia,32.87920671,-84.30024826,"Upson, Georgia"
Upton,Texas,31.36868194,-102.0423217,"Upton, Texas"
Utah,Utah,40.1166722,-111.6657662,"Utah, Utah"
Uvalde,Texas,29.35739637,-99.76229172,"Uvalde, Texas"
Val Verde,Texas,29.89149232,-101.1525205,"Val Verde, Texas"
Valdez-Cordova,Alaska,61.47502768,-144.7126799,"Valdez-Cordova, Alaska"
Valencia,New Mexico,34.71669834,-106.8103733,"Valencia, New Mexico"
Valley,Idaho,44.76728382,-115.5676773,"Valley, Idaho"
Valley,Montana,48.36435097,-106.6669635,"Valley, Montana"
Valley,Nebraska,41.56730777,-98.98197724,"Valley, Nebraska"
Van Buren,Arkansas,35.58095779,-92.51295036,"Van Buren, Arkansas"
Van Buren,Iowa,40.75326764,-91.95017958,"Van Buren, Iowa"
Van Buren,Michigan,42.25190229,-86.01939087,"Van Buren, Michigan"
Van Buren,Tennessee,35.69864497,-85.45221699,"Van Buren, Tennessee"
Van Wert,Ohio,40.8554138,-84.591117,"Van Wert, Ohio"
Van Zandt,Texas,32.56483801,-95.83766469,"Van Zandt, Texas"
Vance,North Carolina,36.36880673,-78.40670845,"Vance, North Carolina"
Vanderburgh,Indiana,38.02658833,-87.58763124,"Vanderburgh, Indiana"
Venango,Pennsylvania,41.40323442,-79.75845449,"Venango, Pennsylvania"
Ventura,California,34.44465746,-119.0910613,"Ventura, California"
Vermilion,Illinois,40.18417171,-87.73384359,"Vermilion, Illinois"
Vermilion,Louisiana,29.83517605,-92.30292538,"Vermilion, Louisiana"
Vermillion,Indiana,39.8523352,-87.46160542,"Vermillion, Indiana"
Vernon,Louisiana,31.10884837,-93.18153838,"Vernon, Louisiana"
Vernon,Missouri,37.8457799,-94.34127305,"Vernon, Missouri"
Vernon,Wisconsin,43.59422667,-90.8324691,"Vernon, Wisconsin"
Victoria,Texas,28.79780988,-96.96813006,"Victoria, Texas"
Vigo,Indiana,39.42944561,-87.39169027,"Vigo, Indiana"
Vilas,Wisconsin,46.05467334,-89.51719204,"Vilas, Wisconsin"
Vinton,Ohio,39.25208988,-82.4831444,"Vinton, Ohio"
Virginia Beach,Virginia,36.73285734,-76.04566934,"Virginia Beach, Virginia"
Volusia,Florida,29.05858895,-81.18263252,"Volusia, Florida"
Wabash,Illinois,38.44272901,-87.84922065,"Wabash, Illinois"
Wabash,Indiana,40.84704239,-85.79328272,"Wabash, Indiana"
Wabasha,Minnesota,44.28424356,-92.23121312,"Wabasha, Minnesota"
Wabaunsee,Kansas,38.95471985,-96.20350509,"Wabaunsee, Kansas"
Wadena,Minnesota,46.58589171,-94.96968506,"Wadena, Minnesota"
Wagoner,Oklahoma,35.96024096,-95.51911308,"Wagoner, Oklahoma"
Wahkiakum,Washington,46.2918004,-123.4250831,"Wahkiakum, Washington"
Wake,North Carolina,35.78879266,-78.65249174,"Wake, North Carolina"
Wakulla,Florida,30.16548905,-84.39895211,"Wakulla, Florida"
Waldo,Maine,44.4858305,-69.12061935,"Waldo, Maine"
Walker,Alabama,33.80270512,-87.30027177,"Walker, Alabama"
Walker,Georgia,34.73376362,-85.30165174,"Walker, Georgia"
Walker,Texas,30.73872995,-95.57440968,"Walker, Texas"
Walla Walla,Washington,46.23040051,-118.4775539,"Walla Walla, Washington"
Wallace,Kansas,38.91686134,-101.7638876,"Wallace, Kansas"
Waller,Texas,30.01058447,-95.99011759,"Waller, Texas"
Wallowa,Oregon,45.57894064,-117.183538,"Wallowa, Oregon"
Walsh,North Dakota,48.36876964,-97.72574783,"Walsh, North Dakota"
Walthall,Mississippi,31.14971548,-90.10446654,"Walthall, Mississippi"
Walton,Florida,30.64204028,-86.16935664,"Walton, Florida"
Walton,Georgia,33.78017694,-83.73552314,"Walton, Georgia"
Walworth,South Dakota,45.43019636,-100.0307514,"Walworth, South Dakota"
Walworth,Wisconsin,42.66858202,-88.54163073,"Walworth, Wisconsin"
Wapello,Iowa,41.03064984,-92.40954728,"Wapello, Iowa"
Ward,North Dakota,48.22390169,-101.5436763,"Ward, North Dakota"
Ward,Texas,31.50999644,-103.0927909,"Ward, Texas"
Ware,Georgia,31.05449097,-82.42224148,"Ware, Georgia"
Warren,Georgia,33.41146451,-82.67795848,"Warren, Georgia"
Warren,Illinois,40.84925021,-90.6147432,"Warren, Illinois"
Warren,Indiana,40.34728141,-87.35602659,"Warren, Indiana"
Warren,Iowa,41.33559454,-93.56007641,"Warren, Iowa"
Warren,Kentucky,36.99903045,-86.42672751,"Warren, Kentucky"
Warren,Mississippi,32.35810271,-90.83352619,"Warren, Mississippi"
Warren,Missouri,38.76529479,-91.16124662,"Warren, Missouri"
Warren,New Jersey,40.85951833,-74.99556527,"Warren, New Jersey"
Warren,New York,43.56173026,-73.8433699,"Warren, New York"
Warren,North Carolina,36.39728256,-78.10652228,"Warren, North Carolina"
Warren,Ohio,39.42581994,-84.16557457,"Warren, Ohio"
Warren,Pennsylvania,41.81304978,-79.26969577,"Warren, Pennsylvania"
Warren,Tennessee,35.6728299,-85.77969117,"Warren, Tennessee"
Warren,Virginia,38.90847745,-78.20280433,"Warren, Virginia"
Warrick,Indiana,38.08922676,-87.2716085,"Warrick, Indiana"
Wasatch,Utah,40.33110236,-111.1691419,"Wasatch, Utah"
Wasco,Oregon,45.16292781,-121.1670954,"Wasco, Oregon"
Waseca,Minnesota,44.02211116,-93.58720034,"Waseca, Minnesota"
Washakie,Wyoming,43.90451606,-107.680187,"Washakie, Wyoming"
Washburn,Wisconsin,45.89838588,-91.79050449,"Washburn, Wisconsin"
Washington,Alabama,31.4092794,-88.20689944,"Washington, Alabama"
Washington,Arkansas,35.976844,-94.21800746,"Washington, Arkansas"
Washington,Colorado,39.97015535,-103.202587,"Washington, Colorado"
Washington,Florida,30.61359259,-85.66002461,"Washington, Florida"
Washington,Georgia,32.96711864,-82.79357039,"Washington, Georgia"
Washington,Idaho,44.45275475,-116.7847688,"Washington, Idaho"
Washington,Illinois,38.35309213,-89.40982703,"Washington, Illinois"
Washington,Indiana,38.60219804,-86.1049363,"Washington, Indiana"
Washington,Iowa,41.33577126,-91.71725711,"Washington, Iowa"
Washington,Kansas,39.78420784,-97.0875323,"Washington, Kansas"
Washington,Kentucky,37.75599461,-85.17407732,"Washington, Kentucky"
Washington,Louisiana,30.85288548,-90.03866652,"Washington, Louisiana"
Washington,Maine,45.01607142,-67.62813524,"Washington, Maine"
Washington,Maryland,39.60835778,-77.82002295,"Washington, Maryland"
Washington,Minnesota,45.03864533,-92.88429635,"Washington, Minnesota"
Washington,Mississippi,33.28392041,-90.94196237,"Washington, Mississippi"
Washington,Missouri,37.96130078,-90.87948158,"Washington, Missouri"
Washington,Nebraska,41.52815707,-96.22019892,"Washington, Nebraska"
Washington,New York,43.31153794,-73.43043448,"Washington, New York"
Washington,North Carolina,35.83810081,-76.57299037,"Washington, North Carolina"
Washington,Ohio,39.45690571,-81.49121382,"Washington, Ohio"
Washington,Oklahoma,36.71380786,-95.90514104,"Washington, Oklahoma"
Washington,Oregon,45.55972701,-123.0955257,"Washington, Oregon"
Washington,Pennsylvania,40.19208869,-80.24582867,"Washington, Pennsylvania"
Washington,Rhode Island,41.45961631,-71.61435303,"Washington, Rhode Island"
Washington,Tennessee,36.29472368,-82.4945472,"Washington, Tennessee"
Washington,Texas,30.21498498,-96.40946246,"Washington, Texas"
Washington,Utah,37.28003525,-113.504698,"Washington, Utah"
Washington,Vermont,44.27343241,-72.61604978,"Washington, Vermont"
Washington,Virginia,36.72341572,-81.95666289,"Washington, Virginia"
Washington,Wisconsin,43.36863664,-88.22974712,"Washington, Wisconsin"
Washita,Oklahoma,35.29071824,-98.99180434,"Washita, Oklahoma"
Washoe,Nevada,40.66562265,-119.6631594,"Washoe, Nevada"
Washtenaw,Michigan,42.253105,-83.83853204,"Washtenaw, Michigan"
Watauga,North Carolina,36.23103603,-81.70033724,"Watauga, North Carolina"
Watonwan,Minnesota,43.97823903,-94.61413846,"Watonwan, Minnesota"
Waukesha,Wisconsin,43.01833055,-88.30431188,"Waukesha, Wisconsin"
Waupaca,Wisconsin,44.47068056,-88.96534501,"Waupaca, Wisconsin"
Waushara,Wisconsin,44.11324419,-89.24317107,"Waushara, Wisconsin"
Wayne,Georgia,31.5521809,-81.91894878,"Wayne, Georgia"
Wayne,Illinois,38.42955355,-88.42586459,"Wayne, Illinois"
Wayne,Indiana,39.8633444,-85.01044989,"Wayne, Indiana"
Wayne,Iowa,40.73969028,-93.32752197,"Wayne, Iowa"
Wayne,Kentucky,36.80310688,-84.8251971,"Wayne, Kentucky"
Wayne,Michigan,42.28098405,-83.281255,"Wayne, Michigan"
Wayne,Mississippi,31.64135687,-88.69573913,"Wayne, Mississippi"
Wayne,Missouri,37.11303869,-90.46001416,"Wayne, Missouri"
Wayne,Nebraska,42.20934475,-97.11926964,"Wayne, Nebraska"
Wayne,New York,43.15494365,-77.02976528,"Wayne, New York"
Wayne,North Carolina,35.36438125,-78.00027268,"Wayne, North Carolina"
Wayne,Ohio,40.82925852,-81.88844833,"Wayne, Ohio"
Wayne,Pennsylvania,41.64938475,-75.29956506,"Wayne, Pennsylvania"
Wayne,Tennessee,35.23868267,-87.78644456,"Wayne, Tennessee"
Wayne,Utah,38.32335822,-110.9096801,"Wayne, Utah"
Wayne,West Virginia,38.14901357,-82.42287994,"Wayne, West Virginia"
Waynesboro,Virginia,38.06451466,-78.90293905,"Waynesboro, Virginia"
Weakley,Tennessee,36.29896232,-88.71990865,"Weakley, Tennessee"
Webb,Texas,27.7610369,-99.33237355,"Webb, Texas"
Weber,Utah,41.27116049,-111.9145117,"Weber, Utah"
Webster,Georgia,32.04066113,-84.54742852,"Webster, Georgia"
Webster,Iowa,42.42853483,-94.17987389,"Webster, Iowa"
Webster,Kentucky,37.52168356,-87.67989953,"Webster, Kentucky"
Webster,Louisiana,32.70847669,-93.33121835,"Webster, Louisiana"
Webster,Mississippi,33.61300486,-89.28392912,"Webster, Mississippi"
Webster,Missouri,37.2813734,-92.876329,"Webster, Missouri"
Webster,Nebraska,40.17642643,-98.50019851,"Webster, Nebraska"
Webster,West Virginia,38.49370949,-80.4202023,"Webster, West Virginia"
Weld,Colorado,40.55499405,-104.3929621,"Weld, Colorado"
Wells,Indiana,40.72934187,-85.22132966,"Wells, Indiana"
Wells,North Dakota,47.58614526,-99.65904998,"Wells, North Dakota"
West Baton Rouge,Louisiana,30.46058217,-91.30989571,"West Baton Rouge, Louisiana"
West Carroll,Louisiana,32.78550125,-91.461201,"West Carroll, Louisiana"
West Feliciana,Louisiana,30.87882871,-91.4148538,"West Feliciana, Louisiana"
Westchester,New York,41.16278376,-73.75741653,"Westchester, New York"
Westmoreland,Pennsylvania,40.3137798,-79.46615476,"Westmoreland, Pennsylvania"
Westmoreland,Virginia,38.11021557,-76.80213247,"Westmoreland, Virginia"
Weston,Wyoming,43.83961191,-104.5674881,"Weston, Wyoming"
Wetzel,West Virginia,39.6065771,-80.6401654,"Wetzel, West Virginia"
Wexford,Michigan,44.33853602,-85.57712739,"Wexford, Michigan"
Wharton,Texas,29.27765923,-96.22319248,"Wharton, Texas"
Whatcom,Washington,48.82227976,-121.7490018,"Whatcom, Washington"
Wheatland,Montana,46.46652491,-109.8464636,"Wheatland, Montana"
Wheeler,Georgia,32.12009104,-82.72574721,"Wheeler, Georgia"
Wheeler,Nebraska,41.91482725,-98.52798941,"Wheeler, Nebraska"
Wheeler,Oregon,44.72698162,-120.0281427,"Wheeler, Oregon"
Wheeler,Texas,35.40114335,-100.2699514,"Wheeler, Texas"
White,Arkansas,35.25688493,-91.74908296,"White, Arkansas"
White,Georgia,34.64624278,-83.74905525,"White, Georgia"
White,Illinois,38.08706198,-88.17657461,"White, Illinois"
White,Indiana,40.74911165,-86.86492015,"White, Indiana"
White,Tennessee,35.92929884,-85.45591799,"White, Tennessee"
White Pine,Nevada,39.44157041,-114.899966,"White Pine, Nevada"
Whiteside,Illinois,41.75509713,-89.91556058,"Whiteside, Illinois"
Whitfield,Georgia,34.80987459,-84.96093476,"Whitfield, Georgia"
Whitley,Indiana,41.13863784,-85.50791236,"Whitley, Indiana"
Whitley,Kentucky,36.75700531,-84.14541217,"Whitley, Kentucky"
Whitman,Washington,46.90022523,-117.5241763,"Whitman, Washington"
Wibaux,Montana,46.95925154,-104.2510927,"Wibaux, Montana"
Wichita,Kansas,38.48178252,-101.3471509,"Wichita, Kansas"
Wichita,Texas,33.98842886,-98.7041034,"Wichita, Texas"
Wicomico,Maryland,38.37301947,-75.62705831,"Wicomico, Maryland"
Wilbarger,Texas,34.07945812,-99.24178437,"Wilbarger, Texas"
Wilcox,Alabama,31.98773215,-87.30891118,"Wilcox, Alabama"
Wilcox,Georgia,31.97496928,-83.43438555,"Wilcox, Georgia"
Wilkes,Georgia,33.78290391,-82.74286107,"Wilkes, Georgia"
Wilkes,North Carolina,36.2084135,-81.16232895,"Wilkes, North Carolina"
Wilkin,Minnesota,46.35721532,-96.4684375,"Wilkin, Minnesota"
Wilkinson,Georgia,32.80291082,-83.17140684,"Wilkinson, Georgia"
Wilkinson,Mississippi,31.16078225,-91.31018819,"Wilkinson, Mississippi"
Will,Illinois,41.44619267,-87.97862712,"Will, Illinois"
Willacy,Texas,26.47411727,-97.61535848,"Willacy, Texas"
Williams,North Dakota,48.34522353,-103.4793387,"Williams, North Dakota"
Williams,Ohio,41.56052014,-84.58429552,"Williams, Ohio"
Williamsburg,South Carolina,33.62190129,-79.72767442,"Williamsburg, South Carolina"
Williamsburg,Virginia,37.28131268,-76.70905141,"Williamsburg, Virginia"
Williamson,Illinois,37.73033511,-88.92994027,"Williamson, Illinois"
Williamson,Tennessee,35.89099229,-86.89281867,"Williamson, Tennessee"
Williamson,Texas,30.64655664,-97.6004854,"Williamson, Texas"
Wilson,Kansas,37.55937174,-95.74323255,"Wilson, Kansas"
Wilson,North Carolina,35.70625477,-77.917978,"Wilson, North Carolina"
Wilson,Tennessee,36.15496772,-86.29775884,"Wilson, Tennessee"
Wilson,Texas,29.1732598,-98.08693082,"Wilson, Texas"
Winchester,Virginia,39.17054517,-78.17325058,"Winchester, Virginia"
Windham,Connecticut,41.82972709,-71.98182316,"Windham, Connecticut"
Windham,Vermont,42.986982,-72.71268875,"Windham, Vermont"
Windsor,Vermont,43.58010937,-72.58595157,"Windsor, Vermont"
Winkler,Texas,31.85008651,-103.0485163,"Winkler, Texas"
Winn,Louisiana,31.94449367,-92.63789413,"Winn, Louisiana"
Winnebago,Illinois,42.33641854,-89.16085327,"Winnebago, Illinois"
Winnebago,Iowa,43.37751174,-93.73407298,"Winnebago, Iowa"
Winnebago,Wisconsin,44.06886922,-88.64477096,"Winnebago, Wisconsin"
Winneshiek,Iowa,43.29094334,-91.84422722,"Winneshiek, Iowa"
Winona,Minnesota,43.98772283,-91.78081305,"Winona, Minnesota"
Winston,Alabama,34.15030532,-87.37325922,"Winston, Alabama"
Winston,Mississippi,33.08747908,-89.03391385,"Winston, Mississippi"
Wirt,West Virginia,39.02775007,-81.37473928,"Wirt, West Virginia"
Wise,Texas,33.21570665,-97.65460265,"Wise, Texas"
Wise,Virginia,36.9746148,-82.62410519,"Wise, Virginia"
Wolfe,Kentucky,37.73941626,-83.49303612,"Wolfe, Kentucky"
Wood,Ohio,41.36224827,-83.62285108,"Wood, Ohio"
Wood,Texas,32.78722382,-95.38236368,"Wood, Texas"
Wood,West Virginia,39.20967886,-81.5162836,"Wood, West Virginia"
Wood,Wisconsin,44.45537896,-90.04158336,"Wood, Wisconsin"
Woodbury,Iowa,42.38979414,-96.0459439,"Woodbury, Iowa"
Woodford,Illinois,40.78579374,-89.20973757,"Woodford, Illinois"
Woodford,Kentucky,38.04178222,-84.7417556,"Woodford, Kentucky"
Woodruff,Arkansas,35.18902527,-91.2439489,"Woodruff, Arkansas"
Woods,Oklahoma,36.76705782,-98.86573064,"Woods, Oklahoma"
Woodson,Kansas,37.8865336,-95.74006277,"Woodson, Kansas"
Woodward,Oklahoma,36.42316318,-99.26283045,"Woodward, Oklahoma"
Worcester,Maryland,38.21274277,-75.33200012,"Worcester, Maryland"
Worcester,Massachusetts,42.35026951,-71.90493363,"Worcester, Massachusetts"
Worth,Georgia,31.55162306,-83.85090513,"Worth, Georgia"
Worth,Iowa,43.37750768,-93.26087602,"Worth, Iowa"
Worth,Missouri,40.47945588,-94.42328751,"Worth, Missouri"
Wrangell,Alaska,56.3202004,-132.0583731,"Wrangell, Alaska"
Wright,Iowa,42.73305373,-93.73515113,"Wright, Iowa"
Wright,Minnesota,45.17297924,-93.96234781,"Wright, Minnesota"
Wright,Missouri,37.27029221,-92.46914488,"Wright, Missouri"
Wyandot,Ohio,40.84339621,-83.30734173,"Wyandot, Ohio"
Wyandotte,Kansas,39.11727348,-94.76378225,"Wyandotte, Kansas"
Wyoming,New York,42.70145109,-78.22199579,"Wyoming, New York"
Wyoming,Pennsylvania,41.51955538,-76.01074915,"Wyoming, Pennsylvania"
Wyoming,West Virginia,37.612327,-81.54511071,"Wyoming, West Virginia"
Wythe,Virginia,36.91582035,-81.07834059,"Wythe, Virginia"
Yadkin,North Carolina,36.16222629,-80.66239436,"Yadkin, North Carolina"
Yakima,Washington,46.45738486,-120.7380126,"Yakima, Washington"
Yakutat,Alaska,59.8909808,-140.3601451,"Yakutat, Alaska"
Yalobusha,Mississippi,34.02824175,-89.7076205,"Yalobusha, Mississippi"
Yamhill,Oregon,45.23330449,-123.3086963,"Yamhill, Oregon"
Yancey,North Carolina,35.90079156,-82.31237181,"Yancey, North Carolina"
Yankton,South Dakota,43.00924485,-97.39467635,"Yankton, South Dakota"
Yates,New York,42.63505484,-77.10369919,"Yates, New York"
Yavapai,Arizona,34.59933926,-112.5538588,"Yavapai, Arizona"
Yazoo,Mississippi,32.77890365,-90.39656148,"Yazoo, Mississippi"
Yell,Arkansas,35.00292371,-93.41171338,"Yell, Arkansas"
Yellow Medicine,Minnesota,44.71710183,-95.86842453,"Yellow Medicine, Minnesota"
Yellowstone,Montana,45.93955949,-108.2691486,"Yellowstone, Montana"
Yoakum,Texas,33.17320212,-102.8276433,"Yoakum, Texas"
Yolo,California,38.68278902,-121.9018288,"Yolo, California"
York,Maine,43.47808377,-70.71052375,"York, Maine"
York,Nebraska,40.87272618,-97.59710186,"York, Nebraska"
York,Pennsylvania,39.9210089,-76.73040131,"York, Pennsylvania"
York,South Carolina,34.97281497,-81.18085944,"York, South Carolina"
York,Virginia,37.24374789,-76.54412815,"York, Virginia"
Young,Texas,33.17659707,-98.68790885,"Young, Texas"
Yuba,California,39.26255932,-121.3535644,"Yuba, California"
Yukon-Koyukuk,Alaska,65.50815459,-151.3907387,"Yukon-Koyukuk, Alaska"
Yuma,Arizona,32.76895712,-113.9066674,"Yuma, Arizona"
Yuma,Colorado,40.00346839,-102.4258673,"Yuma, Colorado"
Zapata,Texas,27.00156391,-99.16987152,"Zapata, Texas"
Zavala,Texas,28.86617238,-99.76050829,"Zavala, Texas"
Ziebach,South Dakota,44.97881876,-101.6654622,"Ziebach, South Dakota"
"",American Samoa,-14.271,-170.132,", American Samoa"
"",Diamond Princess,0,0,", Diamond Princess"
"",Grand Princess,0,0,", Grand Princess"
"",Guam,13.4443,144.7937,", Guam"
"",Northern Mariana Islands,15.0979,145.6739,", Northern Mariana Islands"
"",Puerto Rico,18.2208,-66.5901,", Puerto Rico"
"",Recovered,0,0,", Recovered"
"",Virgin Islands,18.3358,-64.8963,", Virgin Islands"
